company_name,domain_name,email,industry,phone,tags,address,city,state,zip_code,owner,note,cuit_pj,contact
Youspan,free.fr,ddumphries0@scientificamerican.com,Telecommunications Equipment,447-185-5942,n/a,4 Browning Lane,Zarszyn,,38-524,Loni Freezor,20,61,Dallon Dumphries
Cogibox,issuu.com,ybirds1@xinhuanet.com,Major Banks,427-605-0701,Major Pharmaceuticals,443 Warner Point,Shilong,,,Harwilll Beagley,16,14,Yves Birds
Shuffledrive,furl.net,nbeine2@trellian.com,n/a,423-299-0102,Major Banks,493 Jay Junction,Nowa Sarzyna,,37-310,Cordy Pass,64,19,Normand Beine
Rhynyx,google.fr,wnewitt3@netvibes.com,Broadcasting,660-678-9071,Medical/Nursing Services,6 Thompson Drive,Nieszawa,,87-730,Nappie Keaveny,23,27,Wally Newitt
Katz,dion.ne.jp,rturner4@mashable.com,n/a,391-237-9552,Semiconductors,107 Badeau Court,Örebro,Örebro,703 64,Aimil Sanderson,7,79,Reta Turner
Linklinks,thetimes.co.uk,dbenettolo5@theguardian.com,Major Pharmaceuticals,500-338-0157,Major Pharmaceuticals,0 Judy Pass,Ngluwuk,,,Madlen Tonkes,26,6,Desmund Benettolo
Bluejam,hhs.gov,ssoppit6@domainmarket.com,n/a,767-960-5329,Packaged Foods,04407 Fuller Drive,Tafí del Valle,,4137,Lila Limbrick,56,87,Selinda Soppit
Wikizz,over-blog.com,nkalinsky7@blinklist.com,n/a,357-584-6763,Telecommunications Equipment,20063 Dakota Point,Fresnes,Île-de-France,94264 CEDEX,Francis Lehr,99,28,Nester Kalinsky
Yamia,uol.com.br,irosa8@weibo.com,n/a,387-166-5350,Major Banks,483 Golf Course Park,Puerto Madryn,,9120,Salvador McColgan,88,100,Ingrid Rosa
Skinte,soundcloud.com,jnewsham9@seattletimes.com,Property-Casualty Insurers,692-587-0889,Packaged Foods,7 Melrose Plaza,Georgiyevka,,446416,Granny Jenoure,80,50,Josi Newsham
Gabtype,youku.com,pbryetta@europa.eu,n/a,929-459-5456,Diversified Commercial Services,937 Caliangt Park,Tam Kỳ,,,Harvey Philippet,71,50,Papagena Bryett
Yadel,devhub.com,ahonatschb@chicagotribune.com,n/a,915-473-7185,Diversified Commercial Services,90803 Raven Point,Rouen,Haute-Normandie,76418 CEDEX 9,Vivyanne Hayen,98,92,Alyson Honatsch
Voonder,topsy.com,dyeudallc@vk.com,n/a,139-295-2634,Major Pharmaceuticals,75 Briar Crest Crossing,Hongshanyao,,,Averill Birkin,49,98,Darlene Yeudall
Jabbersphere,cnet.com,arused@blogger.com,Business Services,195-153-2161,Real Estate Investment Trusts,190 Twin Pines Drive,Bungu,,,Anitra Schanke,64,76,Auroora Ruse
Ntags,jiathis.com,iclemette@blinklist.com,Major Banks,304-403-9083,Marine Transportation,399 Holy Cross Pass,Jabinyānah,,,Spencer Perche,70,80,Ingaberg Clemett
Minyx,webeden.co.uk,sgrishinovf@posterous.com,Major Banks,912-861-6072,n/a,1505 Arizona Plaza,Puncaktugu,,,Jamil Mawman,29,96,Stormie Grishinov
Leexo,yale.edu,rgrashag@marketwatch.com,n/a,393-183-0068,Paper,29785 Trailsway Pass,Shubenka,,659410,Colet Earthfield,25,58,Rozalin Grasha
Centizu,comsenz.com,bburfitth@telegraph.co.uk,Restaurants,606-936-3406,n/a,82053 Mendota Terrace,Magway,,,Dory Hebborn,31,70,Bayard Burfitt
Agimba,typepad.com,mhacaudi@biglobe.ne.jp,Major Banks,666-671-1853,n/a,4636 Annamark Point,Vanimo,,,Elinore Troup,4,6,Mable Hacaud
Quinu,sogou.com,hmcalroyj@sohu.com,Retail: Computer Software & Peripheral Equipment,933-143-7141,Natural Gas Distribution,795 Katie Drive,Banjar Petak,,,Josefa Drakard,89,30,Humfrey McAlroy
Rhyloo,telegraph.co.uk,lpalumbok@state.tx.us,EDP Services,272-555-0255,Telecommunications Equipment,90404 Elmside Circle,Ronfe,Braga,4805-358,Darnell Lever,8,37,Larina Palumbo
Thoughtbeat,facebook.com,akeepel@angelfire.com,Oil & Gas Production,809-321-5141,n/a,66182 Hoepker Lane,Chemerivtsi,,,Joline Donnison,38,85,Andrus Keepe
Kayveo,theatlantic.com,gbatchelourm@sitemeter.com,Computer Software: Prepackaged Software,318-215-3039,Major Pharmaceuticals,51 Bunker Hill Terrace,Guyang,,,Rani Hallut,39,95,Georgianna Batchelour
Yakitri,squarespace.com,dwhitwhamn@infoseek.co.jp,Major Pharmaceuticals,670-695-8843,Commercial Banks,30 Crowley Lane,Portmore,,,Belinda Springthorpe,2,91,Davita Whitwham
Mydeo,dagondesign.com,fgreenlyo@slate.com,Computer Communications Equipment,674-120-5877,Major Chemicals,446 Kedzie Pass,Saint-Louis du Sud,,,Javier Gainsborough,17,15,Filippo Greenly
Skilith,imageshack.us,sshewardp@jimdo.com,n/a,927-608-9070,Major Pharmaceuticals,097 Jenifer Plaza,Vorontsovka,,353664,Betsey Sands-Allan,32,48,Sissy Sheward
Skipstorm,cbc.ca,jslowanq@xing.com,Broadcasting,569-738-7657,Ordnance And Accessories,9043 Southridge Pass,Nowe Skalmierzyce,,63-460,Trip McLuckie,63,77,Jazmin Slowan
Youbridge,chronoengine.com,mbrissardr@goo.ne.jp,Precious Metals,564-413-5519,Major Pharmaceuticals,0306 Farmco Place,Berlin,Berlin,12307,Sydelle Bonallack,5,48,Maure Brissard
Chatterbridge,g.co,bchastneys@bbc.co.uk,Major Banks,223-762-0547,Major Pharmaceuticals,5087 Harper Way,Chimtāl,,,Ingram McKeveney,46,86,Bord Chastney
Jayo,wix.com,gtrimmellt@youku.com,n/a,318-155-6071,Oil & Gas Production,71933 Schiller Way,Gēdo,,,Armin Corben,84,20,Gabriele Trimmell
Devpulse,theatlantic.com,jmcgerru@github.com,n/a,403-429-7560,Major Chemicals,46432 Scott Hill,Santa Teresa,,,Judas Matschke,55,92,Joelly McGerr
Buzzshare,cbsnews.com,nconyerv@intel.com,n/a,767-222-2999,n/a,1 Hollow Ridge Junction,Alquízar,,,Alverta MacGillreich,85,73,Noreen Conyer
Muxo,live.com,searlesw@skyrock.com,Apparel,406-418-5752,Multi-Sector Companies,884 Memorial Junction,Jianmin,,,Theresa Baskwell,95,60,Sheridan Earles
Yakitri,biglobe.ne.jp,skeeleyx@dailymail.co.uk,Business Services,619-663-9014,Other Specialty Stores,2 Annamark Lane,San Diego,California,92153,Rich Tyrrell,92,67,Somerset Keeley
Pixoboo,vinaora.com,flanphiery@dropbox.com,Real Estate Investment Trusts,327-284-0751,Major Pharmaceuticals,4 Crescent Oaks Way,Dohār,,1330,Ev Noden,10,77,Fae Lanphier
Flashdog,soundcloud.com,rremmerz@ning.com,Metal Fabrications,153-409-1920,Natural Gas Distribution,1 Gateway Terrace,Liloan,,6612,Ingaberg Cotton,57,51,Robinia Remmer
Jaxspan,uol.com.br,tfrane10@51.la,n/a,800-215-9542,Banks,99 Red Cloud Place,Sumberejo,,,Anneliese Melbury,73,17,Thacher Frane
Mycat,indiatimes.com,lbruckmann11@gravatar.com,Specialty Chemicals,736-556-0139,Medical Specialities,68 Larry Lane,Shuikou,,,Sela Duckworth,77,50,Ladonna Bruckmann
Browsebug,baidu.com,nnind12@cpanel.net,Package Goods/Cosmetics,255-327-9705,Major Pharmaceuticals,9580 Bluejay Court,Ożarów,,27-530,Rea MacSherry,9,74,Nanice Nind
Cogibox,webeden.co.uk,ldyzart13@amazonaws.com,Real Estate Investment Trusts,954-436-8729,Finance: Consumer Services,9 Straubel Way,Veyno,,,Ulrick Shailer,95,10,Lona Dyzart
Flipbug,weibo.com,mdonati14@state.gov,Business Services,576-571-0271,Precious Metals,256 Pepper Wood Plaza,Nong Phok,,45210,Devon Klemt,70,82,Manolo Donati
InnoZ,guardian.co.uk,livasyushkin15@senate.gov,Industrial Machinery/Components,929-227-7590,Major Banks,6997 Oak Valley Place,Dul’durga,,687200,Amara Gayden,62,43,Lane Ivasyushkin
Mynte,posterous.com,nabramsky16@independent.co.uk,n/a,515-308-9430,Construction/Ag Equipment/Trucks,93 Melvin Circle,Venda Nova,Setúbal,2970-841,Mellicent Culverhouse,83,13,Niels Abramsky
Zoombox,aboutads.info,mnicholas17@ning.com,Oilfield Services/Equipment,368-517-6469,Department/Specialty Retail Stores,39 New Castle Parkway,Busan,,,Amalee Francescoccio,59,56,Mac Nicholas
Tagfeed,constantcontact.com,hsaggs18@ucoz.com,Major Banks,278-924-8319,n/a,3 Corry Hill,Kadugede,,,Sharona Noller,61,70,Huntley Saggs
Youbridge,naver.com,caiskrigg19@house.gov,n/a,762-900-0186,n/a,58739 Magdeline Point,Staffanstorp,Skåne,245 41,Hughie Scatchar,31,41,Chariot Aiskrigg
Jabbersphere,cyberchimps.com,mlicence1a@mediafire.com,Oilfield Services/Equipment,924-313-5863,n/a,85 Nevada Avenue,Tolkmicko,,82-340,Israel Adrain,2,100,Maximilien Licence
Quire,printfriendly.com,kcreddon1b@webmd.com,Business Services,829-948-5235,Office Equipment/Supplies/Services,7 Ridge Oak Court,Valtimo,,75701,Sissie Joska,34,53,Kaleena Creddon
Eare,economist.com,gduckels1c@domainmarket.com,Computer Manufacturing,450-424-8221,Major Pharmaceuticals,175 Southridge Center,Emiliano Zapata,Sinaloa,82190,Mora Duffet,97,13,Glennis Duckels
Feedbug,biglobe.ne.jp,aemeny1d@irs.gov,n/a,923-834-3492,Major Pharmaceuticals,2 Moose Trail,San Vicente,,6419,Jenilee Banks,16,64,Amelie Emeny
Flashspan,npr.org,mketteringham1e@msn.com,Investment Managers,409-266-6579,Life Insurance,14144 Blaine Avenue,Laimuda,,,Murdoch Skiggs,31,44,Mikel Ketteringham
Agivu,icq.com,gmcphee1f@who.int,Medical/Dental Instruments,124-362-8691,Oil/Gas Transmission,18241 Union Lane,Pag,,23250,Dyana O'Connel,63,14,Gladys McPhee
Agimba,privacy.gov.au,idrewett1g@shop-pro.jp,n/a,814-477-0509,n/a,34830 Ronald Regan Court,Lyamino,,618235,Donn Lakeland,34,77,Isis Drewett
Gabspot,cloudflare.com,dstubbley1h@meetup.com,Medical/Dental Instruments,389-959-0272,Real Estate Investment Trusts,82 Karstens Park,Eastern Suburbs Mc,New South Wales,1325,Jolie Bignall,13,39,Darcey Stubbley
Youspan,de.vu,jkrauze1i@oracle.com,Finance: Consumer Services,246-431-5958,Automotive Aftermarket,52414 Graceland Avenue,Paurito,,,Tamqrah Jorez,35,79,Johanna Krauze
Flipstorm,patch.com,lbattersby1j@opera.com,Major Pharmaceuticals,341-484-8989,Hospital/Nursing Management,62232 Sherman Terrace,Xindu,,,Colas Olenchenko,13,84,Lawry Battersby
Browsebug,eventbrite.com,ihulles1k@dailymotion.com,Major Banks,588-705-5776,Other Specialty Stores,472 Tomscot Street,La Sierpe,,,Levy Mapplebeck,18,58,Isidro Hulles
Realmix,booking.com,vraynham1l@vinaora.com,Restaurants,764-729-3257,Major Pharmaceuticals,3 Muir Lane,Cà Mau,,,Rod Breede,92,39,Vince Raynham
Kare,telegraph.co.uk,erickell1m@fotki.com,Major Banks,566-857-8370,Precious Metals,90926 Briar Crest Street,Tieling,,,Jobey Mc Menamin,60,43,Ephrayim Rickell
Divanoodle,google.com.br,dcrackett1n@accuweather.com,n/a,864-428-4074,Advertising,719 Pearson Park,Mueang Suang,,45220,Melva Atherley,69,83,Dollie Crackett
Thoughtstorm,geocities.jp,jsutherby1o@cpanel.net,Specialty Chemicals,957-720-2429,Industrial Machinery/Components,4121 Esch Parkway,Wonotirto,,,Rebekah Vial,95,82,Jeniffer Sutherby
Skaboo,slate.com,kmccandie1p@sciencedirect.com,Life Insurance,749-267-3462,Other Consumer Services,54 Killdeer Hill,Xiaolin,,,Claus Glayzer,89,19,Kelsy McCandie
Livetube,princeton.edu,daleso1q@berkeley.edu,n/a,220-920-4724,Business Services,311 Holy Cross Hill,Oeoh,,,Reta Maude,37,16,Dulsea Aleso
Zoonoodle,godaddy.com,czoanetti1r@xrea.com,Precious Metals,119-361-9891,n/a,8 Waubesa Point,Sighnaghi,,,Mariele Eglington,2,61,Caesar Zoanetti
Twitterbeat,histats.com,fwanjek1s@hud.gov,Construction/Ag Equipment/Trucks,613-844-7689,Water Supply,6937 Dayton Trail,Vårby,Stockholm,143 42,Luke McKellar,44,3,Farleigh Wanjek
Kazio,blogs.com,gteodori1t@unesco.org,Metal Fabrications,180-504-0556,Oil & Gas Production,476 Ridgeview Place,Ludvika,Dalarna,771 82,Anthony Karlolczak,77,81,Gerty Teodori
Podcat,guardian.co.uk,bvalti1u@jimdo.com,Trucking Freight/Courier Services,697-609-4519,Coal Mining,91928 Pleasure Way,Qianjin,,,Van Ratray,79,58,Bette Valti
Meeveo,meetup.com,dhannond1v@gravatar.com,Apparel,913-365-9295,Hotels/Resorts,25388 Schmedeman Circle,Shamakhi,,,Bevin Braisher,87,43,Delainey Hannond
Aivee,pbs.org,asangster1w@squidoo.com,Major Chemicals,636-309-2573,Television Services,17 Spaight Point,Mariinsk,,652156,Livvy Boat,63,51,Avictor Sangster
Voonyx,google.es,koboyle1x@tiny.cc,n/a,302-836-2153,n/a,56667 Kingsford Junction,Hartola,,19601,Conni Dorkens,98,97,Keelia O'Boyle
Gigaclub,imdb.com,swyndham1y@youtube.com,n/a,247-535-6049,Broadcasting,4965 Valley Edge Avenue,Toulouse,Midi-Pyrénées,31201 CEDEX 2,Adelind Vynoll,96,79,Sher Wyndham
Meedoo,stanford.edu,dthow1z@prlog.org,n/a,360-100-7802,n/a,65 Red Cloud Park,Agra,Braga,4705-653,Andonis Priddle,72,26,Doy Thow
Brainverse,mac.com,jdimitru20@amazon.co.uk,n/a,501-226-0862,Trucking Freight/Courier Services,1694 Rusk Alley,Miskolc,Borsod-Abaúj-Zemplén,3543,Hazel Almack,91,11,Janessa Dimitru
Camido,etsy.com,llukesch21@bloomberg.com,n/a,594-381-8225,n/a,4598 Stephen Trail,Ban Talat Bueng,,20170,Zelda Bolsover,40,9,Leyla Lukesch
Yamia,hubpages.com,hbowery22@photobucket.com,Business Services,331-903-7259,n/a,5 Porter Avenue,Bāsht,,,Jaye Lindgren,84,95,Horacio Bowery
Riffpath,bbb.org,mleyes23@goodreads.com,Life Insurance,288-380-1945,n/a,701 Basil Pass,Shuangpengxi,,,Gawen Clothier,82,28,Melitta Leyes
Quimm,domainmarket.com,sdoerrling24@github.com,n/a,610-507-1088,Metal Fabrications,63 Kinsman Road,Baiyushan,,,Tyson Lobley,78,20,Salli Doerrling
Topicshots,ebay.com,soleksinski25@dedecms.com,Major Pharmaceuticals,557-852-6079,Medical/Dental Instruments,98999 Kings Pass,Kuznechnoye,,462422,Francine Atcherley,77,65,Seline Oleksinski
Photobug,ucoz.com,abrasse26@cmu.edu,n/a,578-354-4862,n/a,2560 Eastlawn Hill,Liuzuo,,,Torrin Skelcher,35,90,Avrit Brasse
Roomm,shutterfly.com,ebargery27@mysql.com,n/a,444-133-2042,Industrial Machinery/Components,96274 Sommers Junction,Novocherkassk,,346408,Bonnie Sackes,36,1,Erika Bargery
Trudoo,nymag.com,lroome28@imdb.com,Medical Specialities,605-338-5778,Television Services,4 Clemons Park,Sioux Falls,South Dakota,57193,Benita Klausen,89,39,Lizabeth Roome
Dablist,sphinn.com,bwindebank29@bandcamp.com,Semiconductors,227-500-1560,Banks,710 Anzinger Plaza,Lourdes,,1114,Ferrel Brownscombe,16,7,Batholomew Windebank
Rhyloo,addthis.com,azanussii2a@abc.net.au,Beverages (Production/Distribution),404-684-5974,Investment Managers,8062 Birchwood Avenue,Gunungkendeng,,,Nicoline Mansel,28,7,Addy Zanussii
Wikibox,soundcloud.com,ltomaino2b@house.gov,Biotechnology: Commercial Physical & Biological Resarch,982-760-2411,n/a,14 Maryland Place,Dapeng,,,Jarret Tailby,19,63,Lacie Tomaino
Oloo,about.com,mcreasey2c@amazon.co.uk,Property-Casualty Insurers,168-778-8350,Industrial Machinery/Components,4 Monterey Parkway,Ketawang,,,Gannie Windous,62,43,Mabelle Creasey
Topiczoom,plala.or.jp,prowberry2d@accuweather.com,n/a,554-329-0065,Auto Parts:O.E.M.,9 Luster Terrace,Nong Khai,,48140,Karoly Gibling,73,45,Penny Rowberry
Trilia,nature.com,mpinke2e@patch.com,n/a,865-445-2517,Biotechnology: Biological Products (No Diagnostic Substances),7 Cherokee Road,Jangkat,,,Luci Kief,74,43,Morganica Pinke
Oozz,wired.com,rclarae2f@wordpress.org,n/a,351-202-7250,Restaurants,36 Brickson Park Pass,Seredka,,188422,Viola Baybutt,52,14,Rodge Clarae
Wikido,miibeian.gov.cn,cflippelli2g@hhs.gov,Oil & Gas Production,262-534-8632,Real Estate Investment Trusts,383 Prairie Rose Terrace,Uva,,427265,Salomon Fresson,62,18,Clyve Flippelli
Realmix,ezinearticles.com,tskrines2h@last.fm,n/a,352-871-2884,Business Services,5746 Scott Crossing,Kepahiang,,,Libbi Ascrofte,61,26,Tedi Skrines
Pixoboo,php.net,ebinfield2i@pagesperso-orange.fr,Hotels/Resorts,198-906-1487,Major Pharmaceuticals,92085 Pierstorff Lane,Compiègne,Picardie,60204 CEDEX,Tobe Currie,58,10,Emmey Binfield
Dynabox,fastcompany.com,kparrish2j@ask.com,Railroads,884-319-6152,n/a,8424 Ludington Street,Jinhua,,,Garwood McGruar,36,57,Kim Parrish
Thoughtworks,telegraph.co.uk,ecordsen2k@ebay.com,n/a,854-861-2538,Finance: Consumer Services,5231 Barby Lane,Entebbe,,,Gilda Antal,28,68,Erwin Cordsen
Tagopia,ovh.net,vcarvell2l@vistaprint.com,Other Specialty Stores,176-810-2320,n/a,2029 Spaight Point,Soanindrariny,,,Leah Osbaldstone,80,42,Vassily Carvell
Photobug,businesswire.com,eyouel2m@google.de,Major Chemicals,696-206-9110,Food Distributors,7020 Larry Crossing,Arbuzynka,,,Odelia Oglevie,22,66,Estelle Youel
Twimbo,who.int,hcauderlie2n@nydailynews.com,Oil & Gas Production,360-662-4552,Computer Software: Prepackaged Software,90943 Scofield Park,Sarandë,,,Pierrette Sexon,49,68,Hazel Cauderlie
Einti,economist.com,falderman2o@github.io,Trucking Freight/Courier Services,276-540-4964,Real Estate,87 Havey Trail,Guyang,,,Conroy Kunzelmann,31,11,Farlee Alderman
Eire,abc.net.au,lpinwill2p@skyrock.com,Semiconductors,408-897-8784,Telecommunications Equipment,70 Brown Center,San Jose,California,95160,Penrod Cuerdale,32,63,Leela Pinwill
Jabbercube,ftc.gov,sthyer2q@dion.ne.jp,n/a,592-971-7509,Major Pharmaceuticals,2 Division Way,Guanajay,,,Shane Wearing,4,75,Sly Thyer
Realpoint,cam.ac.uk,nmolan2r@behance.net,Auto Manufacturing,572-159-4115,n/a,89 Westport Circle,Bang Phlat,,11130,Anselma Turville,5,71,Nissa Molan
Quinu,hubpages.com,phane2s@cbc.ca,Computer Software: Prepackaged Software,583-286-4826,n/a,6165 Bluestem Trail,Bayan-Ovoo,,,Leshia De Luna,76,11,Phaedra Hane
Quatz,ucsd.edu,kkitcat2t@youku.com,n/a,696-434-8821,Catalog/Specialty Distribution,8 Jenna Plaza,Yubilyeyny,,,Giff Chace,14,32,Kelley Kitcat
Skilith,netlog.com,crochell2u@tamu.edu,Consumer Electronics/Appliances,436-704-9171,Advertising,54 Autumn Leaf Trail,Shuiyuan,,,Mariya Rosevear,25,66,Clare Rochell
Avamba,nydailynews.com,cmorecombe2v@xing.com,Precious Metals,637-552-0822,Meat/Poultry/Fish,22 Menomonie Road,Constanza,,11704,Chanda Monaghan,94,39,Cecilia Morecombe
Oloo,cam.ac.uk,mcranmor2w@wunderground.com,Semiconductors,941-628-7880,Computer Software: Prepackaged Software,7656 Messerschmidt Alley,Xinjiang,,,Mannie Janca,49,100,Magdalen Cranmor
Edgepulse,psu.edu,sclerc2x@xing.com,n/a,286-563-8073,n/a,7 Luster Court,La Tola,,527548,Emerson Le Teve,70,88,Sharline Clerc
Wikido,prweb.com,sgaiford2y@spiegel.de,Major Pharmaceuticals,844-674-0947,Major Pharmaceuticals,64 Monument Park,Nizhniye Achaluki,,386323,Brittany Denford,42,85,Sada Gaiford
Rhycero,odnoklassniki.ru,mdiggin2z@exblog.jp,Farming/Seeds/Milling,222-584-6980,Biotechnology: Biological Products (No Diagnostic Substances),7091 Nevada Court,Nepeña,,,Helli Bortolini,30,31,Marlee Diggin
Trunyx,amazon.com,mdubose30@wix.com,Telecommunications Equipment,392-511-6663,Business Services,42739 Dixon Terrace,Moche,,,Dimitry Hazelby,17,6,Malcolm Dubose
Wordtune,51.la,jfairbeard31@shareasale.com,Real Estate Investment Trusts,338-248-6034,Biotechnology: Biological Products (No Diagnostic Substances),679 Melrose Plaza,Yên Lạc,,,Misha Harman,24,81,Jacquetta Fairbeard
Livetube,cargocollective.com,rsolon32@craigslist.org,n/a,211-751-3090,Metal Fabrications,6 Eagan Court,Bagangan,,,Josepha Baalham,34,20,Rachel Solon
Youspan,163.com,glimpricht33@shinystat.com,Industrial Machinery/Components,948-360-9493,Professional Services,1 Lotheville Street,Býšť,,533 22,Gabbi Binyon,4,30,Gunilla Limpricht
Gabvine,blogtalkradio.com,bpedroli34@mtv.com,Semiconductors,571-582-1159,Other Consumer Services,4 Maywood Point,Naryn,,,Porter Biskupiak,100,79,Barbie Pedroli
Meemm,php.net,sbriereton35@nba.com,Metal Fabrications,437-922-6120,Major Banks,62 Killdeer Court,Bila Tserkva,,,Percival Wallicker,35,62,Stephanie Briereton
Chatterpoint,eepurl.com,pgave36@ihg.com,Packaged Foods,807-698-4097,Hospital/Nursing Management,18056 Northview Road,Kurumoch,,443544,Lilia Beedie,53,99,Pat Gave
Digitube,phoca.cz,kseefeldt37@arstechnica.com,Major Pharmaceuticals,767-645-2958,Medical Electronics,0 Warbler Hill,Kailahun,,,Filberte Copeman,15,90,Kris Seefeldt
Youtags,whitehouse.gov,emcreath38@fotki.com,Major Pharmaceuticals,150-917-3091,Metal Fabrications,14359 Autumn Leaf Alley,Hats’avan,,,Renelle Cottey,58,96,Esra McReath
Browseblab,discovery.com,bfripps39@com.com,Major Pharmaceuticals,558-755-3594,n/a,90 Menomonie Parkway,Rio Covo ( Santa Eulália ),Braga,4755-484,Hamnet Pitney,88,50,Burnaby Fripps
Innotype,ucla.edu,gsharland3a@trellian.com,n/a,809-120-5309,Other Consumer Services,41517 Vermont Circle,Ráječko,,679 02,Nerte Pykerman,72,55,Gawen Sharland
Vitz,bravesites.com,cellerbeck3b@trellian.com,Diversified Commercial Services,377-878-8786,Major Banks,6323 Moland Point,Lengshui,,,Ferdinanda Karys,85,89,Constantine Ellerbeck
Yata,examiner.com,rhemphill3c@miitbeian.gov.cn,Radio And Television Broadcasting And Communications Equipment,963-918-9790,Oil & Gas Production,3419 Erie Trail,Fedorovka,,,Calv Atlay,78,26,Rosabel Hemphill
Realpoint,mysql.com,kbemlott3d@nydailynews.com,n/a,466-617-8107,n/a,9 Crownhardt Alley,El Marañón,,,Pierette Bazely,47,88,Katharina Bemlott
Camido,usa.gov,rlongworth3e@storify.com,Major Pharmaceuticals,736-334-5723,EDP Services,55 American Street,Mogapi,,,Nickie Gauntley,25,64,Rycca Longworth
Skivee,squidoo.com,drozenbaum3f@seattletimes.com,Multi-Sector Companies,304-487-0368,Computer Software: Prepackaged Software,5 Dennis Park,Ortigueira,,84350-000,Holli McKenny,16,30,Danila Rozenbaum
Oyonder,washingtonpost.com,fcockran3g@state.tx.us,Power Generation,498-427-3201,Construction/Ag Equipment/Trucks,2 Straubel Plaza,Kamyshin,,403879,Petronilla Corhard,91,29,Ferdie Cockran
Browsezoom,slate.com,mcurless3h@soundcloud.com,n/a,580-452-9240,Real Estate Investment Trusts,119 Knutson Trail,Hangchuan,,,Josie Davey,96,63,Munroe Curless
Layo,hud.gov,sinnocent3i@imdb.com,Computer peripheral equipment,466-756-1209,Transportation Services,7 Waxwing Drive,Zhoukoudian,,,Marsiella Chuter,85,73,Sarita Innocent
Mita,businesswire.com,lrunnicles3j@skyrock.com,Marine Transportation,123-155-6706,Computer Software: Prepackaged Software,982 Portage Park,Dumingag,,7028,Wilhelmine Chrisp,31,75,Leonidas Runnicles
Yodel,tamu.edu,iodgaard3k@tamu.edu,Marine Transportation,690-705-7136,Business Services,7 Bartelt Point,Arendal,Aust-Agder,4808,Frederique Crop,32,91,Idalia Odgaard
Kazio,berkeley.edu,lwitheford3l@tripod.com,Business Services,576-889-0614,Specialty Insurers,2976 Kingsford Hill,Picoto,Leiria,2425-497,Talya Klugel,13,14,Lowell Witheford
Dabvine,123-reg.co.uk,gwebster3m@cam.ac.uk,Property-Casualty Insurers,524-246-2371,Multi-Sector Companies,46 Di Loreto Point,Isangel,,,Clementius Bradder,19,71,Georgianna Webster
Topicware,state.gov,fsargint3n@go.com,n/a,166-258-9961,Real Estate Investment Trusts,33 Caliangt Alley,Isabela,,6128,Alisander Meynell,26,55,Florina Sargint
Browsedrive,wix.com,htorrejon3o@yahoo.co.jp,n/a,414-920-2995,Metal Fabrications,195 Southridge Park,Krasnomayskiy,,346647,Lia Brisland,9,9,Huey Torrejon
Cogilith,foxnews.com,fsurgey3p@bloglines.com,Home Furnishings,785-798-6737,n/a,7502 Clove Alley,Yuquan,,,Chet Foyston,30,85,Federico Surgey
Realfire,dot.gov,bconre3q@time.com,Savings Institutions,959-908-8831,Power Generation,70 Oak Valley Avenue,Ancahuasi,,,Roze MacDiarmond,94,28,Brianne Conre
Wikido,linkedin.com,hbeadon3r@desdev.cn,Professional Services,919-566-1504,n/a,4719 Elmside Alley,Huité,,19010,Vanny Silvester,84,60,Hilary Beadon
Skilith,dailymotion.com,dpinkie3s@google.com.au,Major Banks,257-304-2394,EDP Services,1405 Hoffman Parkway,Vinnytsya,,,Godard Osanne,38,19,Dion Pinkie
Realfire,irs.gov,sarkley3t@yahoo.co.jp,Semiconductors,335-449-4249,Real Estate Investment Trusts,65990 Katie Alley,Cangshi,,,Mirna Astlet,77,85,Sandra Arkley
Wikibox,examiner.com,rdarycott3u@examiner.com,Consumer Electronics/Appliances,621-386-3733,Recreational Products/Toys,3452 Starling Plaza,Azeitão,Setúbal,2925-018,Myrle Segot,25,61,Roderigo Darycott
Plajo,networksolutions.com,rbridgement3v@php.net,Restaurants,942-314-8329,n/a,085 Victoria Lane,Unión,,,Renato Jendrich,25,85,Ralph Bridgement
Feedmix,bloglovin.com,dbartlett3w@umn.edu,Property-Casualty Insurers,290-546-9075,Real Estate,025 Manley Road,Margherita,,,Ashleigh Landon,71,7,Daveta Bartlett
Meevee,exblog.jp,yballaam3x@moonfruit.com,Industrial Machinery/Components,693-954-9444,Restaurants,873 Park Meadow Parkway,Kameda-honchō,,956-0053,Chickie McGookin,67,36,Yehudit Ballaam
Skyvu,cargocollective.com,jwyne3y@ftc.gov,Semiconductors,217-739-4904,Major Banks,780 Sullivan Way,Ifanadiana,,,Artemas Zapatero,26,49,Joaquin Wyne
Jatri,abc.net.au,aweedon3z@reverbnation.com,n/a,186-887-0774,n/a,745 Randy Road,Leopoldina,,36700-000,Selma Asee,41,37,Andreas Weedon
Zoonoodle,baidu.com,rsandeford40@topsy.com,Real Estate Investment Trusts,461-641-0379,Business Services,88 Esch Road,Tsuruga,,957-0355,Nil Jeaves,38,2,Rich Sandeford
Zoomlounge,istockphoto.com,jsutterby41@google.de,Investment Managers,584-730-5599,n/a,6250 Valley Edge Place,Foz do Iguaçu,,85850-000,Gayla Steen,5,37,Joyan Sutterby
Trupe,themeforest.net,sgrigoletti42@java.com,n/a,911-805-1379,Major Banks,6501 Pine View Circle,Cagwait,,8304,Hubey Melbourn,22,46,Sully Grigoletti
Rhynoodle,state.gov,tduchart43@disqus.com,n/a,520-792-9731,"Computer Software: Programming, Data Processing",4 Lien Court,Katagum,,,Diannne Rowlatt,73,71,Theadora Duchart
Blogpad,altervista.org,lwilfinger44@myspace.com,Business Services,148-243-4119,Industrial Machinery/Components,19909 Walton Plaza,Tākestān,,,Benson Corter,98,93,Lauretta Wilfinger
Dynazzy,storify.com,jkaman45@slashdot.org,Telecommunications Equipment,684-215-7492,Major Pharmaceuticals,74356 Golf View Pass,Pawak,,9713,Piggy Dymoke,45,4,Jarrett Kaman
Wordpedia,mysql.com,sfitzroy46@infoseek.co.jp,n/a,120-148-7791,n/a,1 Summerview Point,Aygavan,,,Ewen Ipsly,17,10,Sibylle Fitzroy
Quimba,imageshack.us,loccleshaw47@yale.edu,Marine Transportation,542-690-3311,Biotechnology: Biological Products (No Diagnostic Substances),47 Clyde Gallagher Lane,Annopol,,23-235,Doralynn Galvan,78,81,Laurella Occleshaw
Wikizz,imageshack.us,jmound48@telegraph.co.uk,Oil & Gas Production,960-548-6447,n/a,575 Waubesa Circle,Jovellanos,,,Darrell Rustadge,65,39,Jacquetta Mound
Midel,hibu.com,sbourbon49@cdc.gov,Medical/Dental Instruments,551-327-4899,Telecommunications Equipment,32 Hollow Ridge Park,Nancheng,,,Jo ann Kelson,37,13,Shayna Bourbon
Jamia,vk.com,cgipson4a@ezinearticles.com,Oilfield Services/Equipment,132-255-5247,Other Specialty Stores,5 Cardinal Park,Pogranichnyy,,692580,Donna Duigan,48,88,Cathee Gipson
Jabbersphere,chicagotribune.com,butridge4b@cisco.com,n/a,634-673-7829,Semiconductors,21 Anhalt Way,Abangay,,5035,Yehudit Pinel,25,40,Benson Utridge
Flipstorm,princeton.edu,ntreadwell4c@de.vu,Major Pharmaceuticals,880-321-2403,n/a,19 Everett Place,Uusikaupunki,,23501,Kathlin Gorch,42,77,Naomi Treadwell
Browsetype,hugedomains.com,hmaxwell4d@kickstarter.com,Consumer Electronics/Video Chains,137-310-4966,n/a,429 Burrows Hill,Prengtale,,,Jane Dawkes,87,18,Haroun Maxwell
Gevee,usa.gov,dsterre4e@cafepress.com,Apparel,327-590-8197,EDP Services,5 Sycamore Junction,Nofoali‘i,,,Justinian Cleever,6,4,Dewey Sterre
Brainbox,fema.gov,bsimenet4f@businessweek.com,Real Estate Investment Trusts,783-359-6868,Trucking Freight/Courier Services,54 Randy Street,Bradag,,,Theobald Sarll,19,27,Barron Simenet
Pixope,auda.org.au,fnapolitano4g@ftc.gov,Oil Refining/Marketing,537-578-5655,Agricultural Chemicals,193 Rowland Lane,Nazir Town,,50701,Lorant Robbie,2,71,Florian Napolitano
Skinder,dyndns.org,nrymour4h@etsy.com,Major Pharmaceuticals,878-128-2023,Computer Communications Equipment,60953 Maywood Junction,Zwierzyń,,66-542,Bel Zylberdik,82,30,Nicola Rymour
Geba,etsy.com,rgillbe4i@forbes.com,Property-Casualty Insurers,206-838-4545,Major Banks,35137 Walton Circle,Sherwood Park,Alberta,T8A,Teddi Skalls,45,30,Rene Gillbe
Divape,elegantthemes.com,rmerriman4j@cbsnews.com,n/a,914-428-1646,Commercial Banks,551 Jenifer Junction,Falun,Dalarna,791 70,Mata MacGregor,99,54,Randene Merriman
Linkbridge,blogspot.com,ymoriarty4k@google.com.au,n/a,327-969-1256,n/a,6244 Fordem Hill,Destrnik,,2253,Napoleon Newrick,59,27,Yankee Moriarty
Yabox,hatena.ne.jp,wrusling4l@berkeley.edu,n/a,799-565-7974,Power Generation,2052 Logan Crossing,Ghazni,,,Jacquie Giovannacci,84,77,Willi Rusling
Ooba,cocolog-nifty.com,oliptrod4m@weibo.com,n/a,149-173-9200,n/a,2275 Bellgrove Drive,Arivonimamo,,,Clotilda Gerish,56,92,Oralie Liptrod
Mydeo,dedecms.com,linott4n@economist.com,Real Estate Investment Trusts,523-257-8259,Biotechnology: Biological Products (No Diagnostic Substances),0 Burning Wood Way,Hejiadong,,,Griffith Denson,90,70,Lavena Inott
Myworks,ca.gov,bstirton4o@wikimedia.org,Major Chemicals,578-804-2922,n/a,2 Shasta Crossing,Calvos,Braga,4810-804,Gizela Izod,73,2,Barde Stirton
Trudoo,statcounter.com,kshafe4p@photobucket.com,n/a,658-717-1180,Restaurants,93 Dunning Lane,Drakino,,397943,Evita Riordan,13,5,Kaleena Shafe
Leenti,dedecms.com,jmoyles4q@printfriendly.com,Other Transportation,795-624-3868,Real Estate Investment Trusts,62819 Ridgeview Junction,Paris 01,Île-de-France,75054 CEDEX 01,Lorie Gladyer,39,66,Joey Moyles
Quatz,smugmug.com,dearly4r@wix.com,Real Estate Investment Trusts,746-500-9331,Specialty Insurers,9 Portage Crossing,Rancakole,,,Jephthah Bowlands,19,25,Donielle Early
Voomm,stumbleupon.com,amacginney4s@wikipedia.org,Industrial Machinery/Components,831-781-6556,Engineering & Construction,55831 Corry Park,Cruz de los Milagros,,3441,Pate Saines,32,4,Ashlee MacGinney
Topiczoom,bloglovin.com,sdomenget4t@rediff.com,Major Pharmaceuticals,262-464-4901,Savings Institutions,6592 Bunker Hill Terrace,Nevinnomyssk,,357128,Bianka Messingham,66,68,Stuart Domenget
Meevee,sohu.com,tshelf4u@amazon.com,Industrial Machinery/Components,318-750-1244,Telecommunications Equipment,2119 Sundown Street,La Suiza,,30502,Leland Custy,44,8,Tammara Shelf
Browseblab,intel.com,msolleme4v@intel.com,Auto Manufacturing,977-438-9098,n/a,986 Jenifer Street,Ljusdal,Gävleborg,827 82,Legra Freeland,18,62,Maury Solleme
Izio,cnbc.com,iglanville4w@chron.com,Oil & Gas Production,314-916-1593,Property-Casualty Insurers,9 Petterle Way,Castlemartyr,,H71,Beckie Darycott,19,17,Ingamar Glanville
Flipbug,studiopress.com,scaughan4x@dropbox.com,Savings Institutions,658-127-4523,n/a,15 Holy Cross Plaza,Medvedevo,,425239,Boyce Blackshaw,61,33,Symon Caughan
Demivee,washingtonpost.com,ahathway4y@deviantart.com,Other Specialty Stores,191-977-4125,Military/Government/Technical,1 Mandrake Plaza,Sindangraja,,,Danyette Fleis,5,30,Alina Hathway
Avaveo,barnesandnoble.com,akinset4z@google.com.au,Real Estate Investment Trusts,483-798-5640,n/a,277 Arkansas Hill,Panyingkiran,,,Kiri Daines,64,59,Avery Kinset
Agivu,yandex.ru,alettuce50@cdc.gov,n/a,304-701-8739,Industrial Specialties,39 Arrowood Place,Torres,,95560-000,Mason Poulson,61,45,Ancell Lettuce
Twitterworks,ebay.com,abaldrey51@digg.com,n/a,167-165-0685,Computer peripheral equipment,87 Chinook Junction,Ji Paraná,,68675-000,Carmela Sparsholt,26,30,Artair Baldrey
Oyonder,surveymonkey.com,ccoultous52@businesswire.com,Business Services,694-564-1275,Hotels/Resorts,24967 Farmco Drive,Potchefstroom,,2538,Janene Ugoletti,26,85,Culley Coultous
Dazzlesphere,hp.com,jkirmond53@yellowbook.com,Computer Software: Prepackaged Software,334-969-5812,Radio And Television Broadcasting And Communications Equipment,4 Merrick Trail,Jiantiao,,,Betteanne Sullivan,10,16,Justen Kirmond
Fliptune,bigcartel.com,mkerridge54@comsenz.com,Diversified Financial Services,541-724-5215,Hotels/Resorts,874 Sage Center,Campok,,,Sumner Willgoose,21,54,Marietta Kerridge
Tagpad,purevolume.com,kqusklay55@360.cn,Integrated oil Companies,395-553-7385,Farming/Seeds/Milling,10964 Fisk Trail,Ipameri,,75780-000,Alvina Zisneros,17,21,Kristoforo Qusklay
Topiczoom,plala.or.jp,bmilan56@ucsd.edu,Telecommunications Equipment,292-285-1516,Major Banks,779 Del Mar Avenue,Pasirlimus,,,Kirsten Goodlud,52,62,Bear Milan
Chatterbridge,printfriendly.com,mgloyens57@google.com.au,n/a,433-345-8842,Industrial Machinery/Components,01456 Johnson Crossing,Sagang,,3505,Dorolice Chaimson,63,97,Melisse Gloyens
Trudoo,psu.edu,lslevin58@narod.ru,n/a,312-622-4428,Business Services,96 Vermont Drive,Mandepa Barat,,,Lemmie Bramble,57,58,Lucina Slevin
Yakijo,mapquest.com,zfleote59@360.cn,Major Banks,176-251-2513,Electric Utilities: Central,907 Portage Road,Anuling,,4501,Keelby Elkington,25,93,Zared Fleote
Brainlounge,weather.com,pgathercoal5a@ihg.com,Major Pharmaceuticals,425-783-1305,Life Insurance,27964 Larry Center,Pedome,Braga,4765-135,Ludovika Roberto,25,80,Phylys Gathercoal
Quimba,blogtalkradio.com,nshallcrass5b@blinklist.com,"Computer Software: Programming, Data Processing",820-701-9173,n/a,96 Walton Plaza,Costa Nova do Prado,Aveiro,3830-455,Legra Bendtsen,38,73,Nathan Shallcrass
Wordtune,senate.gov,vpuckham5c@amazon.co.uk,Water Supply,885-436-4669,n/a,7553 Everett Circle,Niushou,,,Olivie Blodgett,48,74,Vanni Puckham
Lazz,hibu.com,ppardal5d@bluehost.com,Computer Software: Prepackaged Software,690-948-7998,Major Banks,84049 Ronald Regan Lane,Curridabat,,11801,Lyda Tschersich,54,67,Pip Pardal
Wordtune,hugedomains.com,efunnell5e@patch.com,n/a,540-700-2059,Natural Gas Distribution,9 Dovetail Place,Khawr Fakkān,,,Lilli Crank,69,26,Erhard Funnell
Buzzdog,purevolume.com,cmacrury5f@ask.com,Other Consumer Services,986-161-9692,n/a,3 Union Parkway,Pokrovskoye-Streshnëvo,,624132,Barrett Parsell,100,68,Cherise MacRury
Vitz,paginegialle.it,wletty5g@examiner.com,Business Services,555-488-4503,Coal Mining,61 Shelley Way,Yefimovskiy,,187625,Calley Sainer,6,91,Wait Letty
Cogidoo,newsvine.com,lmacalpin5h@kickstarter.com,Property-Casualty Insurers,202-240-4692,Major Banks,19424 Melvin Court,Akita Shi,,501-1235,Selma Kerbler,36,7,Lanna MacAlpin
Mydeo,hostgator.com,tivanilov5i@wikispaces.com,Other Consumer Services,959-165-0551,Homebuilding,7 Hoepker Pass,Tianyi,,,Celine Burril,45,1,Thaxter Ivanilov
Voonder,bbb.org,jchattey5j@berkeley.edu,Homebuilding,476-571-3328,Oil & Gas Production,8828 Grayhawk Hill,Roissy Charles-de-Gaulle,Île-de-France,95933 CEDEX 2,Hastings Danaher,49,52,Jacquette Chattey
Cogidoo,bizjournals.com,cwinthrop5k@a8.net,Auto Parts:O.E.M.,834-713-0667,n/a,11354 Kropf Trail,Xindeng,,,Ingrid Pigot,41,33,Caren Winthrop
Jetpulse,mysql.com,aansett5l@digg.com,Oil & Gas Production,644-320-3025,Major Banks,63 Debs Place,Ryazanskiy,,671834,Hurlee Ritchley,11,11,Arney Ansett
Skyble,nhs.uk,kcornbell5m@tiny.cc,Multi-Sector Companies,445-272-0491,Investment Bankers/Brokers/Service,37680 Hayes Circle,Ljungbyholm,Kalmar,388 31,Tish Hulcoop,92,59,Kingston Cornbell
Youtags,posterous.com,rcrossingham5n@patch.com,Major Banks,868-899-6390,Catalog/Specialty Distribution,7 Southridge Point,Cambebba,,11990-000,Sharon Stronack,14,76,Rhett Crossingham
Realblab,goodreads.com,ztarbet5o@unicef.org,Major Pharmaceuticals,100-240-9821,Investment Managers,29 Barby Trail,Nyrkiv,,,Wynn Wybrew,25,65,Zorina Tarbet
Avamm,wix.com,abrammar5p@rambler.ru,n/a,761-222-6379,Military/Government/Technical,3 Lawn Place,Wupu,,,Dix Stuckford,32,20,Alon Brammar
Meezzy,bandcamp.com,cmogra5q@wp.com,EDP Services,440-420-4284,"Computer Software: Programming, Data Processing",3143 Mccormick Parkway,Xilin,,,Dallis Caslin,83,43,Candide Mogra
Brightbean,etsy.com,gorts5r@opensource.org,Investment Bankers/Brokers/Service,471-195-8624,n/a,285 Anhalt Alley,Borisovka,,307736,Berny Pointing,5,30,Gardener Orts
Oba,washingtonpost.com,aassandri5s@statcounter.com,Computer Communications Equipment,486-964-6459,Medical/Nursing Services,2 Lakewood Gardens Lane,Pohonsirih,,,Rorke Manwaring,36,36,Aggy Assandri
Kare,chronoengine.com,bdumphy5t@harvard.edu,Business Services,769-707-5356,n/a,44 Green Ridge Trail,Yuetang,,,Cobb Mainds,2,13,Blaire Dumphy
Bubblemix,meetup.com,tbrasse5u@theglobeandmail.com,Hotels/Resorts,606-972-0633,Major Banks,1827 Prairieview Way,Xiaolongmen,,,Nefen Jenno,13,86,Tybalt Brasse
Devbug,google.com,wkillerby5v@ask.com,Business Services,354-783-2473,n/a,455 Katie Junction,Baytā al Fawqā,,,Whitby Munkton,83,44,Waldo Killerby
Buzzbean,livejournal.com,olathee5w@wiley.com,Telecommunications Equipment,930-926-0106,Telecommunications Equipment,7973 Talmadge Court,Kalasin,,46000,Imogen Farryn,89,34,Obediah Lathee
Abatz,earthlink.net,bmccartan5x@goo.gl,Real Estate Investment Trusts,875-483-5199,n/a,1 Golden Leaf Park,Zhongxin,,,Niccolo Wivell,99,62,Bibi McCartan
Rhynyx,dyndns.org,emcgarrity5y@redcross.org,Electronic Components,680-737-6073,n/a,033 Northport Lane,Mursaba,,,Charissa Scarsbrick,40,8,Eustace McGarrity
Reallinks,theglobeandmail.com,ctreweela5z@uiuc.edu,Computer Software: Prepackaged Software,696-342-1131,Business Services,80 Bayside Point,Dno,,182670,Dianemarie Petras,40,78,Cherida Treweela
Vinder,geocities.jp,fpobjay60@clickbank.net,Oil & Gas Production,721-504-4640,EDP Services,3545 Surrey Crossing,Ayamaru,,,Brent Fritchley,93,41,Fields Pobjay
Cogibox,xrea.com,skenwin61@taobao.com,Computer Software: Prepackaged Software,651-464-3813,Medical/Dental Instruments,45 Schlimgen Center,Qianxu Zhen,,,Rozamond Parsonson,33,3,Sandra Kenwin
Tavu,cnet.com,jpaye62@timesonline.co.uk,Real Estate Investment Trusts,317-937-3218,n/a,793 Sherman Drive,Stockholm,Stockholm,101 56,Julee Allbrook,40,31,Jandy Paye
Viva,youtu.be,blyttle63@yelp.com,Electric Utilities: Central,425-792-9410,Electrical Products,3 Wayridge Pass,Oak Bay,British Columbia,V8S,Zita Yerill,56,36,Bert Lyttle
Tagchat,webeden.co.uk,fpodd64@answers.com,Restaurants,663-819-9105,Computer Software: Prepackaged Software,3282 Service Drive,Yachimata,,289-1211,Victoria Domleo,23,32,Fredia Podd
Zoozzy,miitbeian.gov.cn,hantonescu65@163.com,Medical/Dental Instruments,408-340-3350,n/a,87 Golden Leaf Court,Miasteczko Śląskie,,42-610,Kendre Francomb,31,19,Hendrik Antonescu
Snaptags,reddit.com,bbletcher66@miibeian.gov.cn,Pollution Control Equipment,658-485-9628,n/a,8 Pleasure Trail,Cantao-an,,9023,Corette Dionisetto,77,21,Bill Bletcher
Gigazoom,4shared.com,emizzi67@addtoany.com,Railroads,200-418-3209,Medical/Dental Instruments,31 Lakewood Gardens Alley,Ōtsuchi,,350-0134,Normand Chape,46,99,Elsi Mizzi
Linkbuzz,mac.com,mwaylen68@china.com.cn,Major Banks,845-712-4708,Major Banks,907 Melvin Parkway,Mörrum,Blekinge,375 32,Gussie Rives,33,59,Merralee Waylen
Flashdog,unc.edu,fstutard69@netlog.com,Major Banks,209-847-7050,Television Services,9 Morrow Avenue,Matumadua,,,Townie Elgood,77,62,Fancie Stutard
Jaxbean,ox.ac.uk,imundwell6a@tripod.com,n/a,308-586-5875,Automotive Aftermarket,6 Packers Avenue,Pagak Kulon,,,Andris Marks,66,25,Ive Mundwell
Edgeclub,oaic.gov.au,fbovingdon6b@cocolog-nifty.com,n/a,383-799-5588,EDP Services,59 Barnett Terrace,Tangchijie,,,Timofei Gawler,34,75,Forrester Bovingdon
Bubbletube,vk.com,psowle6c@paypal.com,Metal Fabrications,182-170-1351,Real Estate Investment Trusts,04926 Havey Lane,Aucayacu,,,Brianna Enterlein,72,67,Perle Sowle
Jaxbean,netlog.com,jgingell6d@mayoclinic.com,Major Pharmaceuticals,758-567-8423,Real Estate Investment Trusts,1193 Kenwood Trail,Sabóia,Beja,7665-823,Bruce Baldrick,73,77,Janice Gingell
Jabbersphere,plala.or.jp,agatlin6e@mozilla.com,Savings Institutions,206-677-3493,Industrial Machinery/Components,8 Pine View Place,Santo Antônio do Monte,,35560-000,Ricardo Cully,33,86,Alasdair Gatlin
Topiczoom,dagondesign.com,mglastonbury6f@nationalgeographic.com,Natural Gas Distribution,897-533-1946,Major Banks,0946 Carpenter Place,Goseong,,,Cord Cantrill,10,11,Miquela Glastonbury
Fatz,sohu.com,cdenzilow6g@aol.com,Major Banks,689-142-4293,Major Chemicals,3905 Badeau Junction,Montes Velhos,Beja,7600-411,Perceval Boram,12,17,Cullin Denzilow
Quatz,fastcompany.com,lbussel6h@biglobe.ne.jp,Commercial Banks,619-972-3972,Biotechnology: In Vitro & In Vivo Diagnostic Substances,4 Fair Oaks Lane,San Diego,California,92165,Mellisa Ambroix,46,92,Lethia Bussel
Mybuzz,mail.ru,fclilverd6i@disqus.com,Savings Institutions,874-532-2224,Real Estate,45 Sachs Court,Tanjiaqiao,,,Edeline Jeary,98,1,Freddie Clilverd
Aivee,slashdot.org,mcato6j@flavors.me,Biotechnology: Biological Products (No Diagnostic Substances),813-828-3475,Industrial Machinery/Components,69 Hudson Alley,Piranshahr,,,Danila Cornehl,99,71,Marv Cato
Tanoodle,hugedomains.com,tcollihole6k@disqus.com,Railroads,722-815-4623,Major Banks,5293 Debs Hill,Moya,,,Piggy Dennitts,14,31,Tersina Collihole
Livetube,salon.com,gbook6l@washington.edu,Investment Bankers/Brokers/Service,175-245-6708,Major Banks,96267 Anzinger Place,Ivry-sur-Seine,Île-de-France,94852 CEDEX,Barbee Tsarovic,21,20,Garrick Book
Pixonyx,go.com,mflaverty6m@thetimes.co.uk,Real Estate Investment Trusts,559-903-0087,Finance: Consumer Services,29 Graedel Place,Bijia,,,Lynelle Brusle,42,45,Marybeth Flaverty
Twitterworks,answers.com,aendrizzi6n@army.mil,Biotechnology: Commercial Physical & Biological Resarch,657-339-5569,n/a,2437 Schmedeman Parkway,Lixu,,,Pierce Tick,32,51,Anderea Endrizzi
Cogibox,people.com.cn,rkelcher6o@mashable.com,Major Pharmaceuticals,934-987-8919,Major Pharmaceuticals,86655 Lien Pass,Murcki,,03-840,Abbey Karlolak,66,75,Rutger Kelcher
Jatri,prnewswire.com,tgubbin6p@newsvine.com,Industrial Machinery/Components,292-954-7544,Auto Manufacturing,80847 Amoth Place,Lukulu,,,Sylvan Sazio,92,89,Temple Gubbin
Fadeo,ameblo.jp,rhobden6q@vkontakte.ru,n/a,720-788-1357,EDP Services,746 Oriole Point,Denver,Colorado,80204,Gearard Joder,6,50,Rayna Hobden
Oyoloo,ucsd.edu,jzuanelli6r@amazon.de,n/a,561-682-0237,Major Banks,41849 Corry Court,Boavista,Braga,4905-014,Eda Godbehere,8,97,Jessica Zuanelli
Blogpad,joomla.org,rmattke6s@ucoz.com,Business Services,256-321-8741,Railroads,40766 Eggendart Road,Huntsville,Alabama,35895,Sharron Winkworth,94,2,Rozella Mattke
Kwimbee,tripod.com,galdwinckle6t@msu.edu,Savings Institutions,206-375-2721,Banks,78558 Dennis Center,Stockholm,Stockholm,117 37,Cristie Ivey,12,45,Guss Aldwinckle
Jetpulse,myspace.com,morto6u@tinyurl.com,Real Estate Investment Trusts,950-635-7579,Oil & Gas Production,8407 Canary Crossing,Boldumsaz,,,Gan Allanby,56,58,Micheline Orto
Buzzshare,flavors.me,hdulton6v@dot.gov,Biotechnology: Biological Products (No Diagnostic Substances),749-349-7453,EDP Services,71046 Melby Avenue,Guadalupe Victoria,Tamaulipas,87086,Gabriell Halsworth,67,59,Harley Dulton
Devpulse,lycos.com,bhookes6w@ezinearticles.com,Major Chemicals,620-261-9856,Television Services,2426 Duke Road,Idenao,,,Lesli Bisterfeld,97,32,Benedikta Hookes
Oyonder,oaic.gov.au,kforton6x@mozilla.com,Computer Software: Prepackaged Software,311-556-3525,Major Pharmaceuticals,16096 Mayer Trail,Waitakere,,0782,Loy Feast,81,53,Klaus Forton
Twitterworks,google.com,kglossup6y@webs.com,Major Pharmaceuticals,442-214-9267,Property-Casualty Insurers,3 Ohio Crossing,Banjar Pande,,,Boy Cogan,93,18,Kaitlyn Glossup
Myworks,archive.org,mpigny6z@sphinn.com,Industrial Machinery/Components,320-697-4181,Medical/Dental Instruments,68445 Cherokee Pass,Langzhong,,,Trevor Rehme,79,19,Marissa Pigny
Topiczoom,home.pl,dcretney70@g.co,Major Banks,671-289-7570,Professional Services,0 Warbler Crossing,Rutul,,368700,Glyn Layfield,75,88,Davine Cretney
Yozio,ucoz.ru,fsimeon71@sciencedaily.com,Industrial Machinery/Components,291-778-5705,Steel/Iron Ore,818 Garrison Court,Jelat,,,Nicolis Balshaw,65,67,Fergus Simeon
Youtags,narod.ru,edaldan72@youtu.be,Major Pharmaceuticals,879-377-5807,n/a,250 Brickson Park Trail,Santa Cruz de Guacas,,,Carol Woodhead,88,57,Emiline Daldan
Agivu,hud.gov,dteale73@sfgate.com,Broadcasting,483-214-3648,Hospital/Nursing Management,801 Waubesa Avenue,Colón,,3280,Nikolia Andersson,84,8,Dimitry Teale
Gigaclub,princeton.edu,wmorecomb74@cbslocal.com,Homebuilding,588-891-2695,Real Estate Investment Trusts,960 Manufacturers Circle,Duran,,5813,Bernelle Zuan,36,76,Willa Morecomb
Devify,gnu.org,ecartner75@goo.ne.jp,Coal Mining,771-642-9448,Investment Managers,24326 Buell Avenue,Guacamaya,,,Dix Pedroni,8,12,Estele Cartner
Vipe,bizjournals.com,dandrewartha76@angelfire.com,Business Services,915-131-1234,n/a,98 Scoville Way,Nampera,,,Janeczka Piffe,74,79,Darb Andrewartha
Flashpoint,si.edu,acrawshay77@dyndns.org,Industrial Machinery/Components,877-504-9155,Natural Gas Distribution,07 Gerald Plaza,Cabuyao,,4025,Cynthia Colby,79,53,Alonzo Crawshay
Trupe,cafepress.com,cbehagg78@cyberchimps.com,n/a,179-767-2437,Industrial Machinery/Components,09 Mayfield Street,Cambebba,,27570-000,Mellie Tattersfield,39,59,Constantina Behagg
Wordify,soup.io,zberthot79@163.com,n/a,362-607-5159,Military/Government/Technical,92 Scoville Center,Novogurovskiy,,301382,Judith Jacquemot,43,35,Zara Berthot
Feedbug,webs.com,briddall7a@webnode.com,"Computer Software: Programming, Data Processing",950-467-7725,Real Estate Investment Trusts,6 Nancy Pass,Daming,,,Larissa Batcock,15,5,Bambie Riddall
Kimia,yelp.com,sbader7b@nsw.gov.au,Services-Misc. Amusement & Recreation,137-432-1120,Paints/Coatings,12031 Lukken Pass,Batelov,,588 51,Noam Farmar,96,55,Sergio Bader
Mynte,eepurl.com,tchappel7c@hostgator.com,Business Services,687-111-9447,Industrial Specialties,45 Starling Avenue,Carabayllo,,,Juli Kingscote,14,90,Tye Chappel
Yozio,washingtonpost.com,kkeune7d@amazon.co.uk,n/a,738-586-1921,Broadcasting,71 Stone Corner Plaza,Ichupampa,,,Marget Crannage,35,97,Karin Keune
Skimia,uiuc.edu,tdi7e@yandex.ru,Major Banks,697-334-6946,Restaurants,0377 Pawling Road,Shuangxi,,,Ravid Civitillo,34,12,Terrence Di Claudio
Ailane,ucoz.ru,kgrowcott7f@spiegel.de,Coal Mining,424-202-3149,Accident &Health Insurance,75 Hoard Pass,Puerto Galera,,5203,Bink Cresser,44,93,Katleen Growcott
Bluezoom,scientificamerican.com,kfawdrey7g@vk.com,n/a,275-772-0327,n/a,9 Hauk Court,Totolan,,6346,Poppy Durnell,91,28,Kerry Fawdrey
Topicware,arizona.edu,slamputt7h@chronoengine.com,Specialty Chemicals,757-631-7431,Major Banks,78 Forest Dale Hill,Chesapeake,Virginia,23324,Georgiana Edgeley,36,17,Sammy Lamputt
Flashspan,hhs.gov,fsainter7i@mediafire.com,Oil & Gas Production,181-464-8878,Multi-Sector Companies,54 Schlimgen Trail,Ambatolampy,,,Ephraim Seller,68,83,Felicio Sainter
Thoughtbeat,marketwatch.com,fannakin7j@about.me,Other Specialty Stores,420-308-6853,Major Banks,28 Merrick Court,Na Klang,,39170,Osbourn Tipling,48,27,Fairleigh Annakin
Fanoodle,nbcnews.com,sroly7k@dagondesign.com,Auto Parts:O.E.M.,349-930-6540,Real Estate Investment Trusts,50102 Eastwood Parkway,Calibungan,,2312,Shurlock Colpus,2,22,Sherill Roly
Kwimbee,discuz.net,dviccary7l@smugmug.com,Diversified Commercial Services,813-317-2548,Industrial Machinery/Components,10 1st Park,Tampa,Florida,33647,Marney Chastagnier,33,39,Dayle Viccary
Fadeo,businessweek.com,abontine7m@wp.com,Major Pharmaceuticals,891-817-2763,Other Specialty Stores,42 Sage Terrace,Mexico,,2021,Roscoe Cockerell,99,67,Allister Bontine
Yakitri,vimeo.com,wnewhouse7n@phpbb.com,Oil Refining/Marketing,731-190-3931,Aerospace,24 Walton Court,Takahashi,,999-4201,Valenka Mosedale,33,74,Wilhelmina Newhouse
Teklist,uiuc.edu,bjenken7o@ucsd.edu,Major Pharmaceuticals,272-855-6541,Major Pharmaceuticals,3838 Red Cloud Circle,Juexi,,,Maible Haps,73,43,Bamby Jenken
Quinu,guardian.co.uk,kmactrusty7p@feedburner.com,Biotechnology: Electromedical & Electrotherapeutic Apparatus,771-917-9903,Industrial Machinery/Components,53 Nevada Trail,Pereiras,Porto,4620-073,Ira Harkess,86,25,Kermie MacTrusty
Centimia,comsenz.com,bbuxton7q@sourceforge.net,n/a,270-290-7091,Business Services,643 Kinsman Court,Huichang,,,Phineas Bremley,31,83,Bondon Buxton
Tazzy,angelfire.com,ocalender7r@admin.ch,Publishing,360-676-9038,Integrated oil Companies,4987 Granby Way,Heqing,,,Wye Kingscote,90,75,Ozzie Calender
Innotype,wix.com,bdi7s@si.edu,n/a,316-408-8187,Restaurants,7 Dwight Junction,Caringin Lor,,,Erminie Plunket,2,50,Baxy Di Pietro
Thoughtstorm,mozilla.org,rcherrington7t@princeton.edu,Real Estate Investment Trusts,934-152-1846,EDP Services,91472 Old Gate Parkway,Al Matlīn,,,Sherlock Burges,28,30,Rona Cherrington
Gevee,guardian.co.uk,bgomby7u@tinyurl.com,n/a,129-466-9893,Paper,6 Scoville Court,Ténenkou,,,Nickolaus Greally,94,51,Berkeley Gomby
Midel,deviantart.com,aburgisi7v@i2i.jp,Natural Gas Distribution,596-527-5911,Major Banks,4 Green Center,Turar Ryskulov,,,Ertha Chardin,13,65,Aurore Burgisi
Twinte,ucla.edu,tcraig7w@cisco.com,Major Chemicals,719-366-5303,Biotechnology: Laboratory Analytical Instruments,3 Swallow Terrace,Colorado Springs,Colorado,80930,Bree Bendall,35,51,Trudey Craig
Pixope,so-net.ne.jp,spenniell7x@jugem.jp,Hospital/Nursing Management,211-436-3214,EDP Services,76 Prairie Rose Junction,Mişrātah,,,Wadsworth Jagg,17,80,Skip Penniell
Trudeo,ycombinator.com,acollumbine7y@bigcartel.com,Television Services,615-911-7383,Major Chemicals,29411 Schlimgen Crossing,Borovskoy,,,Diana Paolazzi,11,92,Alvie Collumbine
Oyope,aol.com,fshackell7z@craigslist.org,Savings Institutions,840-756-4505,Major Banks,57 Mifflin Road,Osias,,1550,Rachele Brandino,4,13,Ferguson Shackell
Twitterbridge,histats.com,mcantopher80@blogs.com,Specialty Insurers,150-650-9756,n/a,708 Hoard Road,Mników,,32-064,Alis Cartmale,75,34,Morly Cantopher
Quaxo,51.la,smyrick81@msn.com,Publishing,601-793-7962,Property-Casualty Insurers,2 Northfield Place,Kihangara,,,Frankie Longstreeth,8,17,Stacey Myrick
Jazzy,latimes.com,cgiacobo82@yahoo.co.jp,Real Estate Investment Trusts,847-696-7390,Business Services,3 Maple Hill,Ḩarīb,,,Maxie Semiraz,44,62,Catlaina Giacobo
Skaboo,discovery.com,sdootson83@edublogs.org,Biotechnology: Biological Products (No Diagnostic Substances),300-578-7207,Real Estate Investment Trusts,71 Mcguire Place,Pokrovskoye-Streshnëvo,,652261,Jacynth Seally,72,9,Symon Dootson
Ntag,webs.com,kstrahan84@ucla.edu,Property-Casualty Insurers,328-806-5174,"Computer Software: Programming, Data Processing",747 David Trail,Mekarsari,,,Angel Lovering,71,30,Kinny Strahan
Realbuzz,technorati.com,abaldinotti85@google.es,Real Estate Investment Trusts,421-896-9249,Professional Services,2253 Novick Avenue,Hitura,,,Eileen Pitrollo,47,54,Angelina Baldinotti
Thoughtblab,cdbaby.com,skehoe86@answers.com,Mining & Quarrying of Nonmetallic Minerals (No Fuels),476-681-6403,Computer Communications Equipment,1 Dottie Lane,Mtsensk,,303036,Benson O'Donegan,97,32,Staffard Kehoe
Skajo,statcounter.com,lfudge87@state.tx.us,n/a,986-813-7965,Retail: Computer Software & Peripheral Equipment,596 Valley Edge Plaza,Baing,,,Lisetta Skates,73,50,Leone Fudge
Fanoodle,wordpress.com,rmewe88@networkadvertising.org,Investment Managers,868-151-8408,n/a,0 Fisk Trail,Kuripan,,,Hugues Markovic,21,74,Ronda Mewe
Linkbridge,google.cn,mdabinett89@wikia.com,Metal Fabrications,625-388-8835,n/a,2 Morningstar Road,Kosikha,,659826,Frazier Hurlestone,56,73,Martie Dabinett
Devpulse,theguardian.com,kreedy8a@hao123.com,Major Pharmaceuticals,319-348-6214,n/a,4 Chive Place,Jingang,,,Ofilia Canet,76,38,Karney Reedy
Trunyx,tumblr.com,thendrix8b@wired.com,Professional Services,385-447-0713,Electrical Products,8 Merrick Lane,Kangin,,,Westley Billborough,41,30,Tasia Hendrix
Devshare,wp.com,rritter8c@ebay.com,Major Pharmaceuticals,485-524-2305,EDP Services,24640 Boyd Court,5 de Mayo,Tamaulipas,87785,Alisha Fessier,14,35,Rodrigo Ritter
Digitube,nationalgeographic.com,phindge8d@discuz.net,Specialty Foods,435-554-9765,n/a,932 2nd Junction,Proença-a-Nova,Castelo Branco,6150-405,Tobin Pickersail,18,17,Prissie Hindge
Yozio,seattletimes.com,hmcgrane8e@slate.com,Natural Gas Distribution,134-853-5697,Electric Utilities: Central,778 Corben Junction,Pulangbato,,6711,Coriss Bartholomieu,58,15,Horatius McGrane
Dabvine,sun.com,ycaton8f@tripadvisor.com,Property-Casualty Insurers,845-277-2278,Computer Software: Prepackaged Software,97967 Crest Line Circle,Jengglungharjo,,,Louisette Cabrer,7,53,Ynes Caton
Dabtype,bloglovin.com,ajordan8g@prnewswire.com,n/a,697-253-0931,Investment Managers,404 Grim Place,Chuzhou,,,Paxton Stops,92,75,Ab Jordan
Snaptags,hud.gov,jrigge8h@sina.com.cn,Finance: Consumer Services,805-832-6908,n/a,3 School Point,Santa Barbara,California,93106,Ethelin Drohane,17,65,Johna Rigge
Oloo,comsenz.com,wstollmeyer8i@sohu.com,Major Banks,474-658-6760,Semiconductors,0978 Charing Cross Court,Kali,,,Matilde Limming,14,90,Willie Stollmeyer
Youspan,hud.gov,scastleton8j@4shared.com,Major Banks,417-545-7343,Major Banks,4824 Cambridge Street,Shibetsu,,370-0535,Adolphe Carlton,11,50,Salli Castleton
Kare,360.cn,chedley8k@theatlantic.com,Investment Bankers/Brokers/Service,728-111-1438,Semiconductors,90 Mosinee Center,Hînceşti,,MD-3401,Valencia Valentine,29,7,Cordey Hedley
Yambee,behance.net,emccluin8l@mayoclinic.com,Medical/Dental Instruments,393-250-8442,Homebuilding,64 Delaware Junction,Khuean Ubonrat,,93180,Valentin Erie,29,14,Elisha McCluin
Dabshots,abc.net.au,vantonelli8m@bing.com,Major Banks,978-884-2467,Major Pharmaceuticals,0 Lighthouse Bay Center,Kedungsinggil,,,Bear Bretherick,99,63,Vanya Antonelli
Vidoo,archive.org,zfalkous8n@sphinn.com,n/a,119-307-6058,n/a,27 Fulton Lane,Kericho,,,Fionna Longland,61,65,Zola Falkous
Babblestorm,baidu.com,nmcelane8o@barnesandnoble.com,Hotels/Resorts,990-365-6185,n/a,3274 Express Center,Baiyang,,,Bobbi Kubach,39,29,Niki McElane
Quamba,digg.com,lbruton8p@dagondesign.com,n/a,157-916-0993,Banks,2 Hazelcrest Drive,Huangzhou,,,Aksel Bispham,21,58,Lyndel Bruton
Trudeo,chronoengine.com,jwagstaff8q@mysql.com,Packaged Foods,547-446-5791,Major Pharmaceuticals,60 Scott Street,Rongwo,,,Paulo Moorman,50,86,Janella Wagstaff
Jabbertype,yellowpages.com,lisakovic8r@un.org,Other Consumer Services,545-404-0522,Telecommunications Equipment,82 Eggendart Lane,Khóra,,,Jannelle Castello,83,38,Leann Isakovic
Mydeo,yolasite.com,smannix8s@naver.com,Other Consumer Services,916-275-4971,Major Banks,3230 Barnett Lane,Pamplona,,543058,Ali Holtham,19,42,Shel Mannix
Wikibox,exblog.jp,bridder8t@tripod.com,n/a,713-478-0693,Natural Gas Distribution,23562 Muir Crossing,Placer,,8405,Niccolo Hoggan,57,36,Ben Ridder
Quatz,blogs.com,aworld8u@washingtonpost.com,Major Pharmaceuticals,450-851-3518,Wholesale Distributors,296 East Road,Saint-Laurent-Blangy,Nord-Pas-de-Calais,62055 CEDEX,Filbert Shimwall,41,10,Abbi World
Tagchat,earthlink.net,rsmethurst8v@goo.ne.jp,Trucking Freight/Courier Services,794-736-4899,Major Banks,65270 Carey Street,Koubia,,,Willy Ossenna,71,90,Ramona Smethurst
Janyx,hexun.com,mmaskew8w@smh.com.au,Real Estate Investment Trusts,150-209-0610,n/a,8392 1st Crossing,Maasin,,6600,Annice Slateford,23,56,Mar Maskew
Pixonyx,ameblo.jp,jussher8x@bloglines.com,Semiconductors,114-908-6943,Oil Refining/Marketing,26801 Karstens Drive,Belang,,,Ardene Brookwell,58,13,Joyous Ussher
Quinu,apache.org,afeatherbie8y@usgs.gov,Biotechnology: Biological Products (No Diagnostic Substances),994-690-1942,Commercial Banks,30865 Columbus Lane,Maoping,,,Antoine Sjollema,42,4,Antonino Featherbie
Yodo,xinhuanet.com,lduffree8z@yahoo.co.jp,Major Banks,174-928-7448,n/a,74396 Fuller Way,Ribeira,Viseu,4690-480,Rubina Adiscot,8,83,Lenette Duffree
Dynava,tmall.com,aaleixo90@census.gov,Package Goods/Cosmetics,153-445-6616,Military/Government/Technical,284 Crest Line Trail,Sergio Osmeña Sr,,7108,Lorettalorna Polack,68,92,Ade Aleixo
Realpoint,state.tx.us,tduferie91@marriott.com,Medical/Dental Instruments,206-959-1305,Computer Software: Prepackaged Software,3 Waxwing Center,Akaki,,,Anjanette McEvay,27,79,Tamarra Duferie
Oyoloo,comsenz.com,mpattenden92@hubpages.com,Medical/Nursing Services,560-211-7084,Major Pharmaceuticals,71 Merrick Plaza,Albertville,Rhône-Alpes,73209 CEDEX,Rhodia Loft,89,9,Maritsa Pattenden
Trupe,oracle.com,cbartod93@ow.ly,Water Supply,791-482-5807,Motor Vehicles,17 Barnett Crossing,Villa Dolores,,5870,Leonerd Walding,53,97,Clem Bartod
Yakitri,shutterfly.com,cbotham94@google.ca,Industrial Machinery/Components,209-776-4050,Diversified Commercial Services,3018 Lunder Place,Sali,,23281,Coretta Feild,55,4,Cyndie Botham
Gevee,blinklist.com,bternouth95@ucoz.ru,Biotechnology: Biological Products (No Diagnostic Substances),243-438-1703,n/a,145 Havey Pass,Nova Olímpia,,87490-000,Mac Blackster,78,37,Buiron Ternouth
Realfire,zdnet.com,mroskam96@phpbb.com,Home Furnishings,461-116-3491,Major Pharmaceuticals,053 Del Mar Road,Donegal,,A85,Adair Hardacre,55,1,Micah Roskam
Yakitri,digg.com,hmacneill97@amazon.de,Engineering & Construction,601-877-1785,Business Services,4929 Dryden Street,Pavlovsk,,396456,Dion Durnford,77,73,Hillery MacNeill
Jetwire,go.com,rklampk98@theguardian.com,Broadcasting,420-986-1122,n/a,70979 Bowman Place,Jacareí,,12300-000,Eba Tremlett,69,42,Reid Klampk
Rooxo,blinklist.com,eyakolev99@sakura.ne.jp,Biotechnology: Electromedical & Electrotherapeutic Apparatus,649-296-6712,Investment Bankers/Brokers/Service,21 5th Parkway,Poitiers,Poitou-Charentes,86083 CEDEX 9,Leanora By,89,1,Emmy Yakolev
Linkbridge,ucla.edu,kbellino9a@newsvine.com,RETAIL: Building Materials,595-301-7539,Medical/Dental Instruments,39557 Veith Plaza,Karonga,,,Devondra Durkin,68,38,Krissie Bellino
Photolist,blogger.com,bbrager9b@dedecms.com,Environmental Services,936-696-9599,Advertising,26349 Sutherland Circle,Al Maḩallah al Kubrá,,,Hetti Nye,27,11,Berti Brager
Agivu,sciencedaily.com,cbasten9c@adobe.com,n/a,374-634-5978,Oil & Gas Production,428 Golden Leaf Pass,Pekijing,,,Marlo Kinnin,72,33,Charita Basten
Skippad,wsj.com,zajsik9d@sciencedaily.com,n/a,774-945-8767,Industrial Specialties,66473 Northport Lane,Kalemie,,,Rhett Cameron,1,92,Zorah Ajsik
Reallinks,ycombinator.com,rtabourier9e@xing.com,n/a,818-459-7780,Medical/Dental Instruments,8936 John Wall Alley,Pengandonan,,,Luise Tatteshall,70,8,Ronnie Tabourier
Jayo,irs.gov,bgoublier9f@artisteer.com,Computer Communications Equipment,898-885-5106,Major Banks,5 Reinke Junction,Mayenne,Pays de la Loire,53104 CEDEX,Mareah Ethington,100,60,Bunny Goublier
Oozz,slashdot.org,evidineev9g@newsvine.com,Semiconductors,116-110-3045,Water Supply,47428 Moose Avenue,Kabarnet,,,Sandi Flawn,49,100,Erick Vidineev
Tanoodle,youku.com,mabram9h@scientificamerican.com,n/a,412-382-9780,Food Chains,12 Miller Circle,Bandar-e Torkaman,,,Bennie Zorn,26,32,Mina Abram
Bubblemix,flavors.me,jgorrissen9i@lycos.com,Oil & Gas Production,393-959-1910,n/a,62 Hovde Park,Laâyoune / El Aaiún,,,Woodie Pluck,5,82,Janessa Gorrissen
Tagcat,sbwire.com,jwharmby9j@hibu.com,Oil & Gas Production,472-457-9925,Professional Services,06091 Havey Court,Pakisaji,,,Loree Fitzharris,39,60,Junia Wharmby
Feedbug,instagram.com,mspadollini9k@ameblo.jp,n/a,250-277-7387,Industrial Machinery/Components,996 Mifflin Lane,Lillehammer,Oppland,2605,Tanya Cockney,84,25,Massimiliano Spadollini
Tagchat,kickstarter.com,jtheseira9l@paypal.com,Major Banks,859-188-8425,Newspapers/Magazines,98934 Esker Terrace,Lascano,,,Cchaddie Dicte,90,10,Jan Theseira
Devify,abc.net.au,cdunsmuir9m@over-blog.com,Commercial Banks,726-714-3336,n/a,232 Summer Ridge Street,Jembangan,,,Smith Klamman,12,59,Clare Dunsmuir
Jaxnation,stumbleupon.com,amellenby9n@aol.com,n/a,925-498-5970,n/a,0 Carpenter Parkway,Thorold,Ontario,L2V,Ezequiel Camamill,100,20,Angelina Mellenby
Jamia,elpais.com,tborgne9o@last.fm,Oil & Gas Production,589-176-9795,Containers/Packaging,5 Gulseth Drive,Vathýlakkos,,,Melamie Vasovic,88,27,Tarrah Borgne
Zoomcast,wiley.com,marias9p@naver.com,Restaurants,580-835-0732,Restaurants,7 Cascade Circle,Listowel,,V31,Norman Conisbee,71,59,Marje Arias
Eayo,mozilla.com,bbirdwhistle9q@shutterfly.com,Auto Parts:O.E.M.,289-220-9419,Water Supply,48761 Jenna Place,Numazu,,419-0125,Paulo Durnan,68,24,Basil Birdwhistle
Mydeo,dedecms.com,dcranney9r@spotify.com,Real Estate Investment Trusts,228-577-9266,Engineering & Construction,456 Maple Pass,Boli,,,Frederica Hexam,52,92,Deena Cranney
Jaxnation,wiley.com,slopez9s@ebay.co.uk,Building Materials,853-489-8548,Finance: Consumer Services,0 Forster Plaza,Khuan Don,,48150,Rip Clyde,77,2,Shayla Lopez
Yamia,so-net.ne.jp,cmcalindon9t@reverbnation.com,n/a,557-255-6940,Oil & Gas Production,57 Menomonie Pass,Itaguaçu,,29690-000,Cyb Larrosa,22,18,Catherin McAlindon
Aimbo,apache.org,adysert9u@1und1.de,Consumer Specialties,197-690-4803,Major Banks,8000 Dapin Park,Kista,Stockholm,164 35,Kinsley Manders,76,63,Auberon Dysert
Leenti,gmpg.org,jclutheram9v@issuu.com,n/a,201-459-6130,Major Pharmaceuticals,91308 Ronald Regan Alley,Chlumec nad Cidlinou,,503 51,Elena Myrick,46,33,Julieta Clutheram
Dablist,time.com,dtapton9w@rakuten.co.jp,Major Pharmaceuticals,645-311-5624,Telecommunications Equipment,66 Schiller Lane,Padang,,,Mikol Squelch,69,84,Deeanne Tapton
Yombu,hc360.com,dcassius9x@lulu.com,Computer Software: Prepackaged Software,844-613-2293,Steel/Iron Ore,012 Northport Street,Vashkivtsi,,,Bryana Dalinder,2,56,Desiree Cassius
Shufflester,booking.com,clitterick9y@upenn.edu,n/a,574-430-0807,n/a,856 Carberry Crossing,Ereira,Santarém,2070-305,Hogan Gibbieson,11,70,Cobbie Litterick
Voonyx,gnu.org,lriccard9z@si.edu,Hospital/Nursing Management,753-879-2653,Biotechnology: Biological Products (No Diagnostic Substances),3802 Morrow Circle,Ar Rābiyah,,,Tallou Melody,83,35,Lynnett Riccard
Feedfish,addthis.com,csoggeea0@nymag.com,Semiconductors,292-831-3747,Beverages (Production/Distribution),5 Mcbride Drive,Guanba,,,Carver Heddy,15,87,Crysta Soggee
Riffpedia,canalblog.com,aborzonia1@washington.edu,Home Furnishings,716-994-5022,Medical/Dental Instruments,9 Charing Cross Park,Bandundu,,,Petrina Holliar,51,86,Alano Borzoni
Trilith,blogtalkradio.com,fgarrettsa2@va.gov,n/a,339-717-4280,Hotels/Resorts,7648 Hazelcrest Alley,Babug,,9213,Teresina Bullon,23,88,Falkner Garretts
Vidoo,e-recht24.de,fedlynea3@com.com,n/a,242-510-1016,Power Generation,10 Wayridge Parkway,Charqueadas,,96745-000,Casi Lazer,3,8,Felicdad Edlyne
Skidoo,github.io,csteggalsa4@whitehouse.gov,n/a,563-625-6434,Tools/Hardware,416 Lyons Lane,Nanxing,,,Terry Maciejak,81,27,Clarke Steggals
Realcube,lycos.com,kbenedyktowicza5@devhub.com,Major Pharmaceuticals,400-586-1681,Trucking Freight/Courier Services,143 Forest Crossing,Sheffield,England,S33,Shalne Forgan,36,98,Kimball Benedyktowicz
Ntags,buzzfeed.com,ecalderbanka6@omniture.com,Banks,506-954-2922,n/a,4974 Artisan Pass,Gjoçaj,,,Kayne Smale,77,78,Eulalie Calderbank
Kamba,dailymotion.com,cnorburya7@answers.com,Major Banks,313-566-5208,"Computer Software: Programming, Data Processing",54 Crest Line Center,Munjul,,,Elinor Englishby,60,60,Chevy Norbury
Dynabox,t-online.de,ltwinborougha8@ucoz.com,EDP Services,698-234-2783,Automotive Aftermarket,0 5th Place,Viloco,,,Doralia Dyche,57,78,Lynsey Twinborough
Blogspan,merriam-webster.com,uappletona9@miibeian.gov.cn,Life Insurance,317-702-8519,n/a,08 Lakewood Gardens Place,Drammen,Buskerud,3047,Craggie Klima,36,64,Urban Appleton
Divape,mediafire.com,oglovesaa@hud.gov,n/a,873-808-7567,Telecommunications Equipment,8 Brown Trail,Tarīm,,,Loree Applebee,35,96,Osbert Gloves
Youtags,squidoo.com,dpallaschab@ft.com,Telecommunications Equipment,857-737-7545,Investment Managers,533 Stephen Court,Calde,Viseu,3515-729,Cecelia Summerly,18,49,Dave Pallasch
Riffpath,freewebs.com,cdaubneyac@weather.com,Semiconductors,435-524-2256,Electrical Products,80 Independence Alley,Guandiping,,,Judye Tootin,23,85,Cloris D'Aubney
Skinix,phpbb.com,tdoxseyad@state.tx.us,Real Estate Investment Trusts,433-279-7186,Military/Government/Technical,31 Haas Parkway,Brzozów,,36-200,Arlin Kervin,10,21,Tracie Doxsey
Livefish,a8.net,oayscoughae@tinyurl.com,Biotechnology: Electromedical & Electrotherapeutic Apparatus,362-841-2001,Specialty Insurers,430 Rutledge Street,Zhongtong,,,Jordan Champley,4,71,Olwen Ayscough
Skilith,trellian.com,pturfittaf@fda.gov,Aerospace,200-186-1767,Radio And Television Broadcasting And Communications Equipment,51 Eggendart Place,Daqiao,,,Madelene Crowdy,59,94,Pauli Turfitt
InnoZ,fda.gov,mfiggerag@rakuten.co.jp,Consumer Electronics/Appliances,847-156-5764,n/a,2002 Dovetail Crossing,Kosikha,,659826,Kevin Hutchence,75,73,Melitta Figger
Myworks,blog.com,hbrandassiah@berkeley.edu,Military/Government/Technical,470-969-4182,Restaurants,0553 Sheridan Way,Manado,,,Ami Germaine,59,42,Harley Brandassi
Flashdog,mediafire.com,suttridgeai@thetimes.co.uk,n/a,679-164-3238,Major Chemicals,59650 Pankratz Lane,Hudong,,,Janet Hellikes,31,79,Shelia Uttridge
Youopia,engadget.com,gpotteridgeaj@prnewswire.com,Business Services,879-475-8717,Finance: Consumer Services,67800 Carey Park,Ebene,,,Martino Maleck,14,61,Gar Potteridge
Browsezoom,webmd.com,jchottyak@tinypic.com,Finance Companies,213-643-6687,Major Banks,6 Stone Corner Hill,Aga,,3505,Murdoch Parmby,27,77,Jesse Chotty
Linkbuzz,seattletimes.com,claethamal@mac.com,n/a,800-487-9747,Semiconductors,92 Schurz Way,San Jacinto,,5417,Donielle Paquet,92,70,Ches Laetham
Skiba,jugem.jp,aharridgeam@nytimes.com,Investment Managers,918-479-2113,Industrial Machinery/Components,9907 Burning Wood Way,Uglyanets,,396130,Bartram Wooller,76,37,Auguste Harridge
Youopia,nps.gov,rdempsteran@hud.gov,Forest Products,634-397-1362,Consumer Electronics/Video Chains,6 Golf Course Junction,São Francisco do Conde,,43900-000,Indira Duffrie,81,19,Roxine Dempster
Meezzy,bbb.org,jjosefao@quantcast.com,n/a,173-688-3000,Biotechnology: Biological Products (No Diagnostic Substances),60 Transport Court,Changsha,,,Lyn Tomasini,18,46,Jesse Josef
Eire,amazon.de,nplenderleithap@scientificamerican.com,Major Chemicals,499-991-4828,EDP Services,6 Everett Lane,København,Region Hovedstaden,1718,Thibaud Plumley,15,82,Nyssa Plenderleith
Feedspan,smugmug.com,hpitkinsaq@unicef.org,Major Banks,757-103-6606,n/a,9 Knutson Terrace,Ilebo,,,Godard Zanini,71,48,Hy Pitkins
Jabberstorm,cpanel.net,rgraybealar@tumblr.com,Major Banks,703-752-2881,Precious Metals,900 Reindahl Crossing,Tartouss,,,Sylas Backes,36,73,Ragnar Graybeal
Devpoint,i2i.jp,jnarrieas@sohu.com,Metal Fabrications,134-503-8254,Real Estate Investment Trusts,9 Bayside Park,Pereira Barreto,,15370-000,Ravi Leebeter,24,12,Jillian Narrie
Thoughtsphere,msn.com,sdunthorneat@geocities.com,n/a,167-157-4613,Real Estate Investment Trusts,32 Vahlen Alley,Camiling,,2306,Shandie Borthram,58,25,Sianna Dunthorne
Feednation,friendfeed.com,lseamarkeau@va.gov,Major Pharmaceuticals,133-257-5616,Major Banks,9 Calypso Street,Kilingi-Nõmme,,,Tally Wildt,52,30,Laurice Seamarke
Linkbuzz,constantcontact.com,smatchittav@mediafire.com,Commercial Banks,623-133-5371,Publishing,1510 Portage Hill,L'viv,,,Gran Willatt,22,9,Spenser Matchitt
Gabtune,blog.com,ahannayaw@biblegateway.com,Oil & Gas Production,788-601-8555,n/a,495 Eggendart Center,Tres Arroyos,,6550,Ema Gillino,8,83,Aggie Hannay
Kwimbee,posterous.com,ganeleyax@is.gd,n/a,109-490-7496,Computer Software: Prepackaged Software,42 Anhalt Parkway,Tatebal,,,Vick Nuscha,6,42,Gene Aneley
DabZ,google.com.hk,acaminay@dot.gov,n/a,407-199-4491,n/a,822 Cardinal Plaza,Pinellas Park,Florida,34665,Ruddie Burling,85,8,Aleksandr Camin
BlogXS,paginegialle.it,ftidyaz@tiny.cc,Computer peripheral equipment,481-767-2397,Business Services,65505 Larry Drive,Camargo,,,Beatriz Vanacci,99,68,Franciska Tidy
Linktype,zimbio.com,agehrelsb0@addtoany.com,n/a,798-165-2311,EDP Services,687 Holy Cross Crossing,Yeniugou,,,Gwenneth Degoe,92,31,Adriane Gehrels
Eayo,time.com,jcheyneb1@cyberchimps.com,Major Pharmaceuticals,363-717-4044,n/a,08274 Dunning Pass,Ludwin,,21-075,Corbet Lynett,98,8,Jackie Cheyne
Tavu,jigsy.com,nwallbanksb2@purevolume.com,Radio And Television Broadcasting And Communications Equipment,973-910-8009,Homebuilding,6 Messerschmidt Trail,Tartouss,,,Wilbur Hobble,17,30,Nils Wallbanks
Oyope,angelfire.com,aroyseb3@quantcast.com,n/a,397-496-3874,n/a,474 Michigan Street,Velké Meziříčí,,594 01,Ange Parvin,65,82,Aeriel Royse
Zazio,aol.com,sworksb4@goo.gl,Biotechnology: Commercial Physical & Biological Resarch,382-912-4617,Hotels/Resorts,5725 Roxbury Junction,Laugar,,650,Gillian Kimmince,24,42,Sayre Works
Skinix,storify.com,radkinsb5@list-manage.com,Major Pharmaceuticals,606-770-3249,Air Freight/Delivery Services,372 Darwin Terrace,Shuangzhu,,,Helen-elizabeth Soggee,7,83,Rodger Adkins
Blogpad,soup.io,gblesingb6@japanpost.jp,n/a,519-509-6664,Semiconductors,2322 Forest Way,Ngaruawahia,,3742,Ernie Aves,71,96,Gipsy Blesing
Zoombeat,over-blog.com,hcolreinb7@spotify.com,n/a,449-487-7817,Oil & Gas Production,8961 International Alley,Lac du Bonnet,Manitoba,H4S,Agace Nolli,74,5,Hollis Colrein
Skipstorm,mayoclinic.com,dverneb8@unicef.org,Food Chains,317-693-9650,Auto Manufacturing,638 Morningstar Street,Tagapul-an,,6712,Brew Punter,25,61,Davine Verne
Yacero,npr.org,cstanwayb9@bing.com,Radio And Television Broadcasting And Communications Equipment,314-987-9257,Real Estate Investment Trusts,900 Blackbird Lane,Longlisuo,,,Jenilee Frier,29,48,Crystie Stanway
Meeveo,vimeo.com,mskelhornba@plala.or.jp,Major Banks,904-842-5164,n/a,453 Pepper Wood Drive,Santa Luzia,,58600-000,Rudy Eble,34,10,Massimiliano Skelhorn
Zoomzone,nba.com,rewenbb@slashdot.org,Packaged Foods,211-490-9927,Industrial Specialties,5136 Melrose Parkway,Al Mazār,,,Chris Dalgarno,72,69,Rubi Ewen
Quimm,miibeian.gov.cn,mrechertbc@4shared.com,Major Pharmaceuticals,891-833-3908,n/a,14646 Fremont Way,Brniště,,471 29,Lyndsey Hlavac,52,88,Marney Rechert
Snaptags,apache.org,nburchfieldbd@ifeng.com,Industrial Machinery/Components,468-936-2137,Biotechnology: In Vitro & In Vivo Diagnostic Substances,2288 Hoffman Lane,Ryūō,,407-0176,Uri Ludgrove,39,43,Nick Burchfield
Thoughtblab,webeden.co.uk,mhindhaughbe@blogs.com,Major Banks,788-552-5923,Investment Bankers/Brokers/Service,67726 Fisk Street,Torreira,Aveiro,3870-306,Walther Baudic,89,69,Merrick Hindhaugh
Minyx,paginegialle.it,dspurmanbf@yandex.ru,n/a,695-784-4473,Semiconductors,6 Sunfield Crossing,Titiakar,,,Diann Henstone,15,62,Dominique Spurman
Trilia,blogger.com,abogaysbg@google.cn,n/a,445-498-2018,n/a,01452 Parkside Crossing,Ćuprija,,,Rutger Kinker,55,48,Alister Bogays
Edgewire,gov.uk,agepsonbh@blogs.com,n/a,226-991-4141,Property-Casualty Insurers,9 Troy Hill,Slavonice,,378 81,Halsey Manis,29,16,Alphonse Gepson
Brightbean,imageshack.us,kcurstonbi@europa.eu,n/a,265-824-2499,n/a,47101 Sommers Park,Sambongpari,,,Frayda Tarbath,19,43,Karola Curston
Tagfeed,t-online.de,jgockelerbj@theguardian.com,n/a,725-227-5021,Consumer Specialties,7 Golden Leaf Circle,La Serena,,,Karlie Rolls,58,95,Juliet Gockeler
Voonyx,who.int,bcoathambk@tripod.com,Packaged Foods,550-525-5126,Oilfield Services/Equipment,302 Emmet Plaza,Datian,,,Kristian Ciccone,39,65,Barnard Coatham
Topdrive,sciencedirect.com,ofanshawbl@myspace.com,Automotive Aftermarket,628-638-0533,n/a,19 Kennedy Drive,Sidomakmur,,,Bartholomeo Shuttleworth,14,40,Orelee Fanshaw
Riffpedia,biglobe.ne.jp,cabramskybm@last.fm,Marine Transportation,347-223-2167,Major Chemicals,88409 Paget Court,El Sauce,,,Dom Weine,78,52,Charlotte Abramsky
Gabcube,histats.com,smordecaibn@irs.gov,n/a,478-393-0978,Major Banks,3595 Old Gate Circle,Shuangbaiyang,,,Tommie Whitlam,63,47,Sheila-kathryn Mordecai
Gigazoom,globo.com,aminettebo@ifeng.com,Medical/Dental Instruments,533-285-8616,n/a,1283 Hanson Parkway,Qingban,,,Margarita Laxen,47,43,Arluene Minette
Fiveclub,miibeian.gov.cn,pdaylybp@berkeley.edu,Major Banks,121-249-9931,Precious Metals,362 Mendota Alley,Zaporizhzhya,,,Kalvin Lindeboom,37,47,Pam Dayly
Jaxworks,time.com,kcogerbq@narod.ru,Major Pharmaceuticals,673-237-4290,n/a,9315 Riverside Circle,Karlskoga,Örebro,691 26,Ana Mackerness,64,99,Konstantin Coger
Yoveo,booking.com,wpechtbr@about.com,n/a,455-962-2242,Specialty Chemicals,81211 Corben Pass,Terek,,361203,Joleen Nardi,77,71,Wendi Pecht
Linklinks,biblegateway.com,mendonbs@pen.io,Major Pharmaceuticals,340-107-0292,n/a,22 Sundown Lane,Witzenhausen,Hessen,37217,Benetta Fawson,17,69,Morgen Endon
JumpXS,elpais.com,dbourgaizebt@guardian.co.uk,n/a,874-954-5447,Investment Bankers/Brokers/Service,7 Petterle Circle,Cikadu,,,Sayer Ceaplen,91,13,Dorie Bourgaize
Skinte,wikia.com,ptownleybu@example.com,Major Banks,633-997-7194,Accident &Health Insurance,6 Macpherson Place,Henglu,,,Ninnette Ord,18,53,Petrina Townley
Oozz,umn.edu,gscottesmoorbv@hao123.com,Property-Casualty Insurers,651-290-2807,EDP Services,87038 Dakota Parkway,Saint Paul,Minnesota,55188,Larisa Gravatt,99,64,Gilemette Scottesmoor
Katz,webs.com,bfairecloughbw@fema.gov,Major Pharmaceuticals,582-357-9862,Diversified Commercial Services,169 Goodland Trail,Wojciechów,,24-204,Martelle Yanshin,70,41,Byrom Faireclough
Kaymbo,scribd.com,csnooksbx@usda.gov,n/a,359-983-2652,"Computer Software: Programming, Data Processing",46050 Grasskamp Junction,Bayanan,,5200,Teddy Soppett,74,89,Cortie Snooks
Zoonder,sitemeter.com,bdavidescoby@de.vu,Semiconductors,981-157-8114,Oilfield Services/Equipment,28633 Oak Valley Road,Avaré,,18700-000,Web Denacamp,91,24,Bessie Davidesco
Voonder,wufoo.com,ymcginlaybz@vinaora.com,Beverages (Production/Distribution),112-947-4112,Semiconductors,4897 American Avenue,Buynaksk,,368222,Torry Dundon,18,88,York McGinlay
Trudeo,ameblo.jp,mdonneelyc0@acquirethisname.com,Oil & Gas Production,468-928-3260,Major Pharmaceuticals,29794 Arkansas Crossing,Mawu,,,Flossie Crass,93,28,Marlo Donneely
Skimia,wunderground.com,mhalsoc1@bbb.org,Radio And Television Broadcasting And Communications Equipment,201-369-1236,Packaged Foods,291 Kensington Way,Kudang,,,Codie Livingstone,70,48,Marget Halso
Geba,home.pl,ctrilloc2@buzzfeed.com,Commercial Banks,870-658-5996,Aluminum,26321 Butternut Pass,Santa María de Jesús,,03011,Trixi Posse,26,3,Carlin Trillo
Twinder,weebly.com,ddavidofc3@e-recht24.de,Major Chemicals,757-672-7044,Banks,74 Blue Bill Park Pass,Luziânia,,72800-000,Tomlin Martineau,28,30,Daffie Davidof
Tagchat,aol.com,mandratc4@amazon.co.uk,Finance: Consumer Services,254-986-2340,Hotels/Resorts,3135 Dunning Lane,San Isidro,,8421,Jim Kubacek,3,47,Merrill Andrat
Eare,quantcast.com,twoodyerc5@hexun.com,n/a,780-629-2532,n/a,48 Gina Street,Gaogu,,,Ninnette Gascard,10,77,Terrence Woodyer
Thoughtworks,omniture.com,dtripneyc6@webeden.co.uk,Semiconductors,410-124-5079,Other Consumer Services,751 Melvin Drive,Munse,,,Boote Gilding,45,74,Davide Tripney
Jaxspan,gravatar.com,mroyallc7@discovery.com,Major Banks,765-561-9877,n/a,63 Melvin Place,Wugong,,,Enriqueta Whitwood,48,14,Meredith Royall
Shufflebeat,sbwire.com,lnilandc8@twitter.com,Agricultural Chemicals,421-456-0835,Oil & Gas Production,638 Gerald Lane,Baozhu,,,Agretha Watkin,78,56,Larry Niland
Youspan,booking.com,kmcpheec9@cbslocal.com,n/a,991-718-1581,Real Estate Investment Trusts,1439 Fieldstone Center,Zābolī,,,Bentley Blais,62,43,Krishna McPhee
Mydo,mail.ru,ihughlockca@hugedomains.com,n/a,133-494-3638,EDP Services,586 Ramsey Park,Xiongguan,,,Siobhan Gunner,67,55,Ingaberg Hughlock
Yabox,rambler.ru,niiannonicb@wp.com,Multi-Sector Companies,416-968-9541,Military/Government/Technical,615 Vermont Point,Horvati,,10436,Giulietta Wiltsher,63,39,Nate Iiannoni
Edgeblab,virginia.edu,lmayfieldcc@dell.com,Major Pharmaceuticals,978-201-3055,Food Distributors,0095 Drewry Drive,Xingbin,,,Ashton Coniff,63,66,Lacy Mayfield
Quaxo,jiathis.com,lhalledecd@meetup.com,Apparel,275-107-9886,n/a,1 Butterfield Street,Nogoonnuur,,,Diarmid Brunel,13,59,Lora Hallede
Browsebug,sourceforge.net,vribouce@icq.com,n/a,164-159-5882,Major Banks,285 Doe Crossing Avenue,Laoshawan,,,Wilhelm Brucker,44,77,Verena Ribou
Thoughtbeat,abc.net.au,dcurreencf@godaddy.com,Oil Refining/Marketing,847-853-5028,Restaurants,547 Mallard Trail,Ust’-Ilimsk,,666679,Marsh O'Drought,10,48,Dorian Curreen
Dynabox,yahoo.com,tneilcg@washington.edu,Major Banks,414-895-9535,Precious Metals,9060 Anhalt Place,Máncora,,,Ayn Jeffry,64,49,Teddy Neil
Oba,vkontakte.ru,atsarch@stanford.edu,n/a,251-676-4633,Biotechnology: Commercial Physical & Biological Resarch,417 Brickson Park Avenue,Kabala,,,Emmott De Zuani,94,65,Aubert Tsar
Wikizz,theatlantic.com,cgullefordci@nyu.edu,n/a,106-359-1161,Major Banks,6740 Kedzie Terrace,Hangbu,,,Rochella Crix,52,34,Clare Gulleford
Fanoodle,dell.com,tgriffencj@hibu.com,Computer Software: Prepackaged Software,934-677-9685,Oil Refining/Marketing,07208 Sage Place,Kawaguchi,,999-5203,Stevena Sanzio,67,4,Talbert Griffen
Tagopia,economist.com,slafayetteck@trellian.com,Computer Software: Prepackaged Software,359-729-9964,Biotechnology: Electromedical & Electrotherapeutic Apparatus,28 Washington Street,Katumba,,,Clayborne De Vere,58,35,Skippie Lafayette
Edgeclub,fastcompany.com,cjennionscl@youtube.com,n/a,956-192-0967,Major Chemicals,8234 Sutherland Drive,Vol’no-Nadezhdinskoye,,238603,Malena Cuncliffe,34,1,Celeste Jennions
Thoughtsphere,phoca.cz,tvasyutkincm@umich.edu,Real Estate,566-175-6573,n/a,198 Golf Course Lane,Matinha,,65218-000,Lawrence Hackney,53,39,Thomasa Vasyutkin
Kwideo,deliciousdays.com,jeppscn@lycos.com,Biotechnology: Biological Products (No Diagnostic Substances),877-675-6084,Computer Software: Prepackaged Software,2 Canary Point,Al Mazra‘ah,,,Vanni Tuohy,60,8,Jess Epps
Flipopia,delicious.com,nsellyco@ftc.gov,EDP Services,185-424-6707,Automotive Aftermarket,96 Maywood Junction,Unquillo,,5109,Lorrie Damerell,52,64,Nonna Selly
Nlounge,constantcontact.com,ikeasycp@berkeley.edu,Major Banks,674-725-3459,EDP Services,8165 Helena Trail,Hodkovice nad Mohelkou,,463 42,Janina Lyness,83,69,Ibby Keasy
Brightdog,bbc.co.uk,bterneycq@trellian.com,Services-Misc. Amusement & Recreation,333-987-9791,Telecommunications Equipment,71483 Heffernan Street,Muurame,,40951,Savina Parsisson,15,80,Bran Terney
Ntag,scribd.com,amerridaycr@cloudflare.com,n/a,448-227-1776,Real Estate Investment Trusts,8 Helena Parkway,Krajan Tekung,,,Tades Plumridege,19,79,Athena Merriday
Fivebridge,wired.com,jiverycs@weibo.com,Major Chemicals,860-322-3103,Professional Services,21 Orin Terrace,La Garde,Provence-Alpes-Côte d'Azur,83953 CEDEX,Cristine Bottle,35,55,Jennica Ivery
Gabcube,aol.com,ryanyshevct@cmu.edu,Major Banks,403-544-9021,Computer Software: Prepackaged Software,8 Mosinee Pass,Paris 19,Île-de-France,75954 CEDEX 19,Tynan Inglesant,96,31,Ripley Yanyshev
Youfeed,xing.com,mproffittcu@theguardian.com,Real Estate,695-101-7802,n/a,05826 Bartillon Trail,Baroy,,9210,Warde Willbond,63,64,Marissa Proffitt
Topicblab,go.com,kbunkercv@berkeley.edu,Major Pharmaceuticals,318-883-8094,n/a,30 Carioca Junction,Bochum,Nordrhein-Westfalen,44795,Elwira Hatherall,22,76,Keane Bunker
Izio,plala.or.jp,cwalrondcw@1und1.de,Finance: Consumer Services,377-567-9965,Semiconductors,96110 Lakeland Road,Houk,,,Harmonie Sellers,17,61,Cassandry Walrond
Brainsphere,addtoany.com,afrapwellcx@paginegialle.it,Consumer Electronics/Appliances,432-118-9909,n/a,21991 Boyd Point,Nizhniy Kurkuzhin,,361515,Ave Scheffel,43,64,Alfons Frapwell
Gabvine,prnewswire.com,tblasingcy@clickbank.net,Homebuilding,847-796-8489,Apparel,6 Nelson Lane,Momignies,Wallonie,6594,Mallissa Rominov,34,48,Traver Blasing
Vinder,prweb.com,ccoventoncz@nih.gov,Clothing/Shoe/Accessory Stores,661-301-4447,n/a,7211 Little Fleur Lane,Gocoton,,6337,Ynez O'Hara,76,51,Christophorus Coventon
Devcast,answers.com,cfenechd0@fc2.com,Agricultural Chemicals,853-691-5276,Major Chemicals,778 Dottie Junction,Shanglaxiu,,,Harriot O'Cahey,9,10,Casper Fenech
Meembee,ustream.tv,lhobbingd1@marriott.com,Real Estate,713-166-9229,Medical/Dental Instruments,244 Ryan Alley,Šid,,,Sharla Brockie,69,68,Louise Hobbing
Ooba,discuz.net,sredgated2@arstechnica.com,Marine Transportation,422-499-3965,Property-Casualty Insurers,603 Havey Drive,Kuala Terengganu,Terengganu,20916,Alisa Osban,12,11,Storm Redgate
Twitterbeat,paypal.com,ethreadgoldd3@ucla.edu,Major Pharmaceuticals,774-837-8625,Real Estate Investment Trusts,70658 Monument Circle,Kinéta,,,Linda Canizares,11,84,Elene Threadgold
Kwideo,indiatimes.com,cperllmand4@ovh.net,Electric Utilities: Central,258-656-6576,Oil Refining/Marketing,96 Garrison Terrace,Maluso,,7303,Wright Lenormand,60,5,Chrissie Perllman
Aibox,google.com.br,mcorkittd5@abc.net.au,Medical/Dental Instruments,277-751-8371,Medical/Dental Instruments,5 Novick Street,Su’ao,,,Drusy Willows,87,76,Mab Corkitt
Fadeo,miitbeian.gov.cn,cmacardd6@archive.org,Major Pharmaceuticals,137-666-2319,Medical/Dental Instruments,59 Towne Crossing,Fangshan,,,Natalya Dollman,79,99,Cassondra MacArd
Photobug,microsoft.com,breisenbergd7@ask.com,n/a,121-711-1706,Computer Software: Prepackaged Software,4 Truax Way,Loudi,,,Carlyle Kaesmans,79,85,Brunhilda Reisenberg
Myworks,google.com.br,cdionisettid8@google.com.au,Computer Manufacturing,624-341-5307,Medical/Dental Instruments,85 Pleasure Pass,Huaranchal,,,Lothario Albion,56,82,Carlene Dionisetti
Tazz,springer.com,fmahyd9@google.nl,n/a,277-305-9340,n/a,9 Sutherland Crossing,Vinica,,2310,Lurlene Cree,63,76,Fawnia Mahy
Devcast,blogs.com,rvanda@marriott.com,Paper,713-823-4798,Building Materials,8830 Clove Center,Houston,Texas,77234,Clovis Huertas,82,17,Rosamund Van Haeften
Twimm,blogtalkradio.com,jwestmoredb@shinystat.com,Precious Metals,297-675-8165,Restaurants,80033 Hudson Place,Gasan,,4905,Devon Dosedale,84,37,Jasun Westmore
Skimia,mozilla.org,lpykedc@google.fr,n/a,756-681-1066,n/a,21 Schurz Trail,Manutapen,,,Cirstoforo Shann,17,42,Lexy Pyke
Katz,infoseek.co.jp,gkarpeevdd@google.com,Telecommunications Equipment,174-521-9044,Property-Casualty Insurers,463 Wayridge Trail,Buayan,,9500,Thomasina Bockmann,23,72,Gilbertine Karpeev
Divavu,usda.gov,mdobbsde@free.fr,n/a,101-642-8455,n/a,541 Columbus Hill,Aki,,742-2807,Rory Cufflin,6,70,Myrle Dobbs
Twinder,cocolog-nifty.com,pbartleydf@1und1.de,Hotels/Resorts,142-419-6877,Restaurants,55948 Hoffman Drive,Cinagrog Girang,,,Dyanna Erwin,1,5,Piotr Bartley
Fivespan,bloglines.com,wburboroughdg@youtube.com,Electrical Products,716-460-5886,Life Insurance,400 Oak Street,Yao’an,,,Karlee Nunan,76,84,Wilmar Burborough
Lazz,berkeley.edu,pgiggdh@comcast.net,Oilfield Services/Equipment,340-376-1067,Semiconductors,68 Raven Point,Kungshamn,Västra Götaland,456 91,Arch Durrand,7,93,Pet Gigg
Bluezoom,creativecommons.org,lculpdi@nifty.com,n/a,289-890-7605,n/a,1 Independence Road,Mangli,,,Hettie De Coursey,14,34,Lola Culp
Camimbo,stumbleupon.com,hslineydj@a8.net,n/a,295-972-1585,Investment Managers,2 International Court,Borzoy,,366406,Melly Hamblin,49,17,Hadlee Sliney
Skippad,cnn.com,ralloisidk@sina.com.cn,Electrical Products,385-511-4965,Home Furnishings,19448 Tony Avenue,Wolbrom,,32-340,Lela Ricardet,64,99,Reynolds Alloisi
Meemm,examiner.com,llinkiedl@unesco.org,n/a,761-791-1107,Precious Metals,44034 Almo Crossing,Seria,,,Niel Ruberti,21,31,Liliane Linkie
DabZ,geocities.jp,crobbiedm@dell.com,Biotechnology: In Vitro & In Vivo Diagnostic Substances,934-469-5752,Electrical Products,41 Scoville Drive,Sangari,,,Innis Palay,17,79,Charmion Robbie
Meevee,fema.gov,mshobrookdn@uiuc.edu,Diversified Commercial Services,230-234-9169,Apparel,0 School Lane,Zyukayka,,617110,Alexi Gremain,71,58,Miguel Shobrook
Demimbu,yandex.ru,kgwylltdo@skype.com,Oilfield Services/Equipment,129-206-0919,n/a,0274 Green Ridge Junction,Kumba,,,Demott Howford,15,5,Karl Gwyllt
Wordpedia,geocities.com,flazelldp@squidoo.com,n/a,392-612-0058,n/a,297 Forster Alley,Chwałowice,,27-630,Haleigh Kinnie,44,80,Fredi Lazell
Trudoo,photobucket.com,gklimesdq@theglobeandmail.com,Other Consumer Services,356-279-7978,Commercial Banks,605 Autumn Leaf Alley,Nice,Provence-Alpes-Côte d'Azur,06281 CEDEX 3,Karla Crookshanks,57,20,Guendolen Klimes
Jabbercube,princeton.edu,vduesburydr@ibm.com,Diversified Commercial Services,769-577-1193,n/a,29 Basil Center,Ol’ginskaya,,663914,Joyce Skelly,47,44,Vivyanne Duesbury
Babblestorm,harvard.edu,ngarleeds@umn.edu,Radio And Television Broadcasting And Communications Equipment,986-283-4241,Computer Software: Prepackaged Software,66 Nelson Pass,Motala,Östergötland,591 34,Raphaela Vannuccinii,56,14,Nev Garlee
Kwilith,ihg.com,mkiltiedt@tuttocitta.it,Property-Casualty Insurers,418-753-0267,Steel/Iron Ore,8698 Everett Plaza,Malhiao,,6032,Doris Penhall,96,72,Mead Kiltie
Izio,hostgator.com,fddu@eepurl.com,Business Services,442-602-5198,n/a,56927 Maple Wood Point,Vareš,,,Meaghan Fenelow,35,99,Frederigo d' Elboux
Tazz,over-blog.com,jbrowsedv@walmart.com,Industrial Machinery/Components,446-414-3658,Hotels/Resorts,91062 Havey Parkway,Bello,,051059,Algernon Jeppe,49,76,Jan Browse
Thoughtbridge,tiny.cc,calflatdw@1und1.de,Farming/Seeds/Milling,288-339-5763,Medical/Dental Instruments,0 Knutson Point,Sumberejo,,,Kristoforo Byatt,26,28,Christy Alflat
Katz,wikipedia.org,ewoodfinedx@infoseek.co.jp,Business Services,960-784-3645,Property-Casualty Insurers,95 Esker Park,Tanūmah,,,Corilla Haversum,24,33,Evaleen Woodfine
Thoughtbridge,mtv.com,fcarpenterdy@telegraph.co.uk,EDP Services,793-142-8509,Major Banks,87 Talmadge Alley,Ramat Yishay,,,Jimmy Hammerman,85,99,Fabio Carpenter
Mymm,apple.com,gdoddz@smh.com.au,Major Banks,770-334-8606,Property-Casualty Insurers,662 Union Street,Gijon,Asturias,33209,Armando Breddy,55,29,Gayle Dod
Feedmix,hao123.com,unorthleye0@indiegogo.com,n/a,428-548-3800,Marine Transportation,8502 La Follette Circle,Menzel Bourguiba,,,Burlie Cartlidge,73,95,Urbain Northley
Meemm,cdbaby.com,ltalbote1@globo.com,Semiconductors,634-932-9962,Major Banks,95319 Fieldstone Alley,Huyang,,,Bjorn Cherrie,53,58,Lynnea Talbot
Myworks,stumbleupon.com,ndubbine2@acquirethisname.com,Industrial Machinery/Components,233-295-7486,Farming/Seeds/Milling,233 Jenna Drive,Toba,,,Fredi Costall,68,22,Naoma Dubbin
Meembee,t-online.de,lvescoe3@mac.com,n/a,870-202-1821,EDP Services,13321 Del Sol Circle,Nykvarn,Stockholm,155 33,Jesus Lodewick,80,34,Lucien Vesco
Cogidoo,senate.gov,glawreye4@washingtonpost.com,n/a,686-245-9718,Oil & Gas Production,17 Shelley Crossing,Herong,,,Caralie Lemmens,88,2,Giorgio Lawrey
BlogXS,paypal.com,mjumeaue5@netlog.com,Electric Utilities: Central,159-281-4823,n/a,007 Vernon Hill,Mari,,,Brinna Kleinstern,16,4,Morey Jumeau
Quaxo,netscape.com,dburdgee6@g.co,n/a,465-161-3816,Power Generation,310 Westridge Park,Skënderbegas,,,Tucker Hammant,60,29,Dewain Burdge
Twimm,qq.com,nlafeee7@bandcamp.com,n/a,281-977-7572,Textiles,18 Brickson Park Hill,Windusakti Hilir,,,Lu Banting,21,80,Noel Lafee
Viva,exblog.jp,jbuesnele8@columbia.edu,Investment Managers,566-575-6898,Environmental Services,4261 Del Sol Road,Bodiosa a Velha,Viseu,3515-517,Franny Gildersleaves,23,17,Jeanine Buesnel
Avaveo,ycombinator.com,dscholere9@bloglovin.com,Broadcasting,385-856-3251,Other Consumer Services,50 Shelley Road,Boca Suno,,,Burr Hibbart,87,62,Dorette Scholer
Vitz,home.pl,wcoddringtonea@intel.com,Major Chemicals,537-218-1902,Investment Managers,3 Delaware Junction,Napanee Downtown,Ontario,M5E,Noby Booth,91,89,Wesley Coddrington
Bluejam,barnesandnoble.com,lboscheeb@telegraph.co.uk,Oil & Gas Production,898-121-8371,Packaged Foods,97382 North Circle,Laḩij,,,Melvyn Laflin,94,33,Lynn Bosche
Devpulse,thetimes.co.uk,irisleyec@go.com,Biotechnology: In Vitro & In Vivo Diagnostic Substances,649-411-3127,Major Pharmaceuticals,201 Bellgrove Parkway,Zaprudnya,,141960,Russell Sartin,2,80,Idalia Risley
Aimbu,google.pl,swithulled@samsung.com,Biotechnology: Laboratory Analytical Instruments,644-792-9030,n/a,1510 Blackbird Crossing,Xukou,,,Wolfie Simmens,23,52,Shane Withull
Aimbo,friendfeed.com,bgladwellee@symantec.com,n/a,568-466-3210,n/a,528 Graedel Way,Carig,,3503,Berri Kidman,31,99,Bernadene Gladwell
Layo,nature.com,mbellieef@bizjournals.com,Auto Manufacturing,249-614-8035,Auto Manufacturing,6 Maple Wood Way,Bembèrèkè,,,Stillmann Dugall,6,37,Mahmud Bellie
Yombu,i2i.jp,hortaeg@theatlantic.com,Savings Institutions,847-130-7196,Marine Transportation,12168 Caliangt Drive,Brahin,,,Brander Norridge,45,52,Holly Orta
Fatz,bloglovin.com,bcaplineh@amazon.de,Major Banks,311-147-0339,Railroads,2500 Emmet Parkway,Buga,,5029,Izak Popple,74,71,Bonnee Caplin
Tavu,army.mil,paytonei@zdnet.com,Newspapers/Magazines,681-503-1428,Finance: Consumer Services,138 Tennyson Avenue,Muyi,,,Loy Rugieri,53,82,Perry Ayton
Zava,altervista.org,ewaferej@techcrunch.com,Transportation Services,150-540-0260,Professional Services,6480 Algoma Road,Shuishaping,,,Feodora Reck,90,67,Eadie Wafer
Skibox,psu.edu,mvamplusek@alibaba.com,Other Consumer Services,562-690-9544,Major Chemicals,23232 Waywood Plaza,Comapa,,22011,Monte Kunisch,21,8,Matthaeus Vamplus
Voonyx,reverbnation.com,jtearel@msu.edu,n/a,721-625-6133,Marine Transportation,05727 Northland Center,San Jacinto,,5417,Roth Milne,68,52,Jennica Tear
Meevee,sfgate.com,cwatersem@is.gd,n/a,530-322-7699,n/a,0 Fisk Lane,La Carlota,,6130,Miller Lefever,22,10,Chancey Waters
Zoonder,google.com.au,gtretteren@businessweek.com,Marine Transportation,961-379-8611,Investment Managers,2 Pawling Trail,Davila,,2012,Lucy Youngman,54,66,Giordano Tretter
Topicblab,amazon.co.jp,pbloggetteo@hao123.com,Major Banks,555-667-1199,Catalog/Specialty Distribution,99113 Scoville Road,Yiwa,,,Dew Vitte,11,76,Packston Bloggett
Snaptags,techcrunch.com,swaslinep@liveinternet.ru,Major Pharmaceuticals,903-907-0391,Auto Parts:O.E.M.,28547 New Castle Lane,Belén,,,Trudi Bracknall,46,86,Sallie Waslin
Thoughtstorm,noaa.gov,tgreensteadeq@amazon.co.uk,Hotels/Resorts,100-798-2797,Transportation Services,673 Hooker Street,Dongshangen,,,Misti Keuning,49,16,Tabatha Greenstead
Realmix,google.co.uk,jsetterer@senate.gov,Major Pharmaceuticals,384-915-8533,n/a,82354 Express Lane,Lazaro Cardenas,Baja California,22510,Jacquette Laye,20,68,Jillane Setter
Realblab,dropbox.com,ghedones@bloglines.com,Industrial Specialties,908-649-2524,Environmental Services,50 Mandrake Point,Toshkivka,,,Mabel Basil,9,9,Georgianna Hedon
Realfire,cnn.com,dwalthallet@constantcontact.com,n/a,553-664-1515,Medical Specialities,333 Oxford Place,Shedok,,352560,Georgeta Tomczykiewicz,70,53,Drusy Walthall
Npath,hugedomains.com,tgrogoreu@blinklist.com,Computer Software: Prepackaged Software,928-703-0748,Major Banks,3 Melody Parkway,Ambovombe,,,Betteann Dood,59,24,Taryn Grogor
Dabvine,vimeo.com,sskaifev@instagram.com,Hotels/Resorts,494-548-2429,Property-Casualty Insurers,24182 Nancy Lane,Puerto Morazán,,,Buckie McCrackan,62,53,Spense Skaif
Wordpedia,digg.com,gdufaireew@europa.eu,Real Estate Investment Trusts,631-419-9975,n/a,01321 Sunnyside Way,Kovrov,,601964,Sindee Amies,16,26,Gay Dufaire
Blogspan,google.it,cadanex@whitehouse.gov,n/a,426-312-1852,n/a,6 Elka Junction,La Garenne-Colombes,Île-de-France,92959 CEDEX,Deirdre Rainon,83,40,Cherin Adan
Youfeed,squarespace.com,lhinkinsey@sitemeter.com,n/a,670-910-8091,Life Insurance,28057 Fordem Trail,Bouça,Porto,4640-210,Evangelia Tilley,43,85,Lucho Hinkins
Riffpath,hao123.com,ngartenfeldez@freewebs.com,Major Banks,762-472-7820,n/a,73 Pankratz Junction,Khatanga,,647462,Nikki Chapelle,99,37,Nikki Gartenfeld
Zoomzone,barnesandnoble.com,sswadlingef0@flavors.me,Fluid Controls,156-802-5282,Movies/Entertainment,33 Orin Circle,Além,Braga,4720-551,Osbert Glazzard,47,33,Sanders Swadlinge
Bubblebox,sun.com,aluckf1@creativecommons.org,Major Pharmaceuticals,240-971-1892,Major Banks,721 Jay Park,Pasirsongket Dua,,,Haslett Ashbolt,4,9,Aurea Luck
Skivee,google.com.br,fmadsenf2@studiopress.com,Business Services,472-618-5995,n/a,87498 Towne Avenue,Đồi Ngô,,,Lizbeth Baynton,59,83,Felecia Madsen
Meezzy,hp.com,rclaytonf3@facebook.com,Major Banks,675-626-8585,n/a,793 Sunbrook Park,Mourelos,Coimbra,3025-600,Huntley Haskew,81,91,Ritchie Clayton
Gabtune,tiny.cc,echarettef4@ocn.ne.jp,Real Estate Investment Trusts,230-303-6229,Business Services,6404 Vernon Court,Krajan,,,Bessie Tuberfield,85,61,Ezechiel Charette
Katz,sogou.com,naartsenf5@cnn.com,Packaged Foods,795-307-6101,Investment Managers,6646 Melrose Point,Vári,,,Delainey Benner,58,53,Nomi Aartsen
Jatri,symantec.com,bkilloranf6@nps.gov,Electronic Components,201-601-1295,Industrial Machinery/Components,30 Bobwhite Lane,Malakwāl,,50730,Marilyn Pridham,77,17,Berri Killoran
Yamia,engadget.com,menglandf7@china.com.cn,Finance: Consumer Services,625-335-6199,Semiconductors,6256 Briar Crest Junction,Krajan,,,Hakim Fullard,72,15,Munmro England
Jaxnation,godaddy.com,pcarnewf8@msn.com,EDP Services,346-443-1350,Accident &Health Insurance,823 Lakewood Gardens Avenue,Bosen,,,Vita Carabet,28,60,Pip Carnew
Shuffletag,walmart.com,pneasamf9@thetimes.co.uk,n/a,972-820-2117,Oil & Gas Production,45 Nevada Plaza,Murom,,602257,Alfons Lynd,6,87,Padraic Neasam
Wordware,boston.com,jsaphirfa@sitemeter.com,Real Estate Investment Trusts,279-903-6487,n/a,8 Holmberg Way,Parengan,,,Jewell Stobbe,15,34,Juieta Saphir
Thoughtstorm,bing.com,mjeandelfb@nbcnews.com,Major Banks,428-702-3396,Building Products,489 Continental Junction,Dingshan,,,Georgianna Jekel,54,96,Mortie Jeandel
Feedfish,who.int,apywellfc@nps.gov,Commercial Banks,638-351-3501,n/a,07 Pawling Hill,Maumbawa,,,Sergeant MacCard,59,2,Amy Pywell
Browsetype,aol.com,agirodiasfd@spiegel.de,Computer Software: Prepackaged Software,408-709-2102,Package Goods/Cosmetics,1 Coolidge Junction,Cengjia,,,Ruddie Flieg,85,98,Abigale Girodias
Bubbletube,comsenz.com,bfattorife@ft.com,Investment Bankers/Brokers/Service,777-491-2149,n/a,24839 Scott Crossing,Yueyang,,,Michaela Jeannenet,71,22,Beulah Fattori
Skippad,dell.com,sraschff@nbcnews.com,Major Chemicals,763-564-2973,Investment Managers,12 Marcy Avenue,Pervomayskaya,,366002,Belia Dries,1,8,Spike Rasch
Nlounge,homestead.com,cklazengafg@bravesites.com,Containers/Packaging,564-467-8966,n/a,54 Lawn Hill,Quipot,,4806,Benedicto Winborn,78,67,Cathrin Klazenga
Fiveclub,wisc.edu,rbabinskifh@a8.net,Industrial Machinery/Components,611-387-3127,Consumer Specialties,0 Merrick Way,Serawai,,,Mady Dory,52,18,Raimondo Babinski
Twinder,illinois.edu,bkhidrfi@newsvine.com,Real Estate,648-714-9098,Major Banks,4 Stang Plaza,Watoona,,,Sergent Oliphard,28,29,Billy Khidr
LiveZ,gnu.org,kdavidoufj@mlb.com,Precious Metals,570-197-9994,n/a,1977 Maple Pass,Tarica,,,Becky Upstone,10,87,Katerina Davidou
Thoughtstorm,techcrunch.com,rnundfk@pagesperso-orange.fr,n/a,513-198-1822,Recreational Products/Toys,7 Crowley Lane,Cincinnati,Ohio,45249,Durand Conen,55,99,Ricardo Nund
Skippad,globo.com,esomertonfl@mlb.com,Other Pharmaceuticals,504-566-1971,Homebuilding,36941 Talisman Drive,Tugusirna,,,Nelia Harget,19,83,Ephrem Somerton
Layo,springer.com,vbaylayfm@is.gd,n/a,540-496-1547,Oil & Gas Production,60683 Mayfield Plaza,Fkih Ben Salah,,,Dredi Gilley,65,18,Vick Baylay
Twitterlist,bigcartel.com,ssemanfn@e-recht24.de,Other Consumer Services,937-730-5783,Consumer: Greeting Cards,63038 Mendota Plaza,Derbur,,,Tori Eilles,57,85,Susy Seman
Yotz,icq.com,atrevenufo@alibaba.com,Home Furnishings,933-684-5060,Services-Misc. Amusement & Recreation,558 Acker Way,Tatabánya,Komárom-Esztergom,2809,Sharity Stillman,14,20,Auroora Trevenu
Yoveo,ebay.co.uk,tchedzoyfp@ftc.gov,Industrial Machinery/Components,311-566-4261,n/a,3 Nelson Point,Áno Kopanákion,,,Mariann Elmar,46,61,Thornton Chedzoy
Geba,ask.com,wgrewcockfq@oracle.com,n/a,256-362-9219,Services-Misc. Amusement & Recreation,23131 Quincy Center,Miraflores,,,Ania Gerok,9,79,Wanda Grewcock
Kwimbee,hp.com,lbeamontfr@soup.io,Telecommunications Equipment,667-802-0634,Homebuilding,60793 High Crossing Street,Alajuela,,20101,Margarette Donahue,90,99,Lavinie Beamont
Zoombeat,cnn.com,prosenshinefs@wikipedia.org,Finance: Consumer Services,505-736-6406,n/a,19 East Alley,Las Cruces,New Mexico,88006,Cad Eaddy,28,73,Paddy Rosenshine
Skivee,washington.edu,rrycraftft@businessinsider.com,Biotechnology: Biological Products (No Diagnostic Substances),293-805-4428,Steel/Iron Ore,1415 Sloan Place,Nanshao,,,Jasmine Iacoboni,68,97,Rutledge Rycraft
Jetpulse,yahoo.co.jp,bvearefu@hc360.com,n/a,505-114-5958,Other Specialty Stores,6 Morning Road,Sambongmulyo,,,Joe Braunstein,19,5,Brett Veare
Podcat,reverbnation.com,rshelperfv@apache.org,Services-Misc. Amusement & Recreation,860-365-1319,Other Consumer Services,231 Hallows Road,Singkir,,,Dorian Stanwix,62,6,Roanne Shelper
Tagtune,chicagotribune.com,sdunhillfw@nbcnews.com,Restaurants,528-690-7832,Banks,4 Forster Trail,Manola,,,Ransell Skunes,100,49,Siobhan Dunhill
Quaxo,wikia.com,emckillopfx@privacy.gov.au,Major Banks,705-691-8730,n/a,13562 Anzinger Street,Åkersberga,Stockholm,184 70,Cherice Bannard,25,52,Evvy McKillop
Trunyx,smugmug.com,pnottonfy@usa.gov,Other Specialty Stores,478-330-0374,n/a,285 Welch Terrace,Erpeldange,,L-9172,Kincaid Lardier,32,64,Philipa Notton
Yodel,wufoo.com,hsladefz@spotify.com,Business Services,126-742-7740,n/a,54346 Bunker Hill Junction,Dniprovka,,,Trever Behagg,95,2,Hortensia Slade
Vinder,craigslist.org,kfitzsymong0@buzzfeed.com,Major Banks,452-235-3943,n/a,99 3rd Road,Huazhai,,,Carmen Donner,93,14,Kacy Fitzsymon
Rhycero,about.me,belnerg1@unicef.org,n/a,837-222-1689,Biotechnology: Laboratory Analytical Instruments,3 Delladonna Court,Xiongchi,,,Manolo Campanelle,16,99,Bradley Elner
Vidoo,rambler.ru,fmacilhaggag2@imdb.com,Life Insurance,310-252-0198,n/a,45 Pawling Pass,Bergen,Hordaland,5895,Cairistiona Harrald,36,80,Floyd MacIlhagga
Bubblemix,youtu.be,apetog3@unblog.fr,Computer Software: Prepackaged Software,459-833-9303,Major Pharmaceuticals,640 Springs Court,Kinshasa,,,Maighdiln Kembrey,7,1,Alverta Peto
Rhyzio,elpais.com,rlandrethg4@constantcontact.com,Other Specialty Stores,714-501-5541,Real Estate Investment Trusts,742 Roth Avenue,Banjar Kajanan,,,Arni Attrill,77,87,Riannon Landreth
Thoughtstorm,spiegel.de,gmourgeg5@businessinsider.com,Marine Transportation,223-752-2436,"Computer Software: Programming, Data Processing",904 Warrior Parkway,Cibunut,,,Tore Helm,29,50,Garrett Mourge
Vitz,tumblr.com,gcorzong6@ning.com,Property-Casualty Insurers,223-205-5841,Electrical Products,22879 Bunting Court,Torbay,Newfoundland and Labrador,A1K,Gus Wickrath,80,20,Garry Corzon
Youtags,jalbum.net,pshilletog7@mapy.cz,Savings Institutions,624-451-0453,Property-Casualty Insurers,886 Forest Dale Street,Caeté,,34800-000,Lezley Dowsey,34,69,Pam Shilleto
Topicblab,moonfruit.com,wspinksg8@nasa.gov,n/a,654-974-2100,Savings Institutions,66 Drewry Plaza,Likupang,,,Gary Unworth,15,75,Waly Spinks
Rhyloo,ucoz.com,nbrahmsg9@deviantart.com,Major Pharmaceuticals,645-205-5885,Major Banks,3817 Northport Parkway,General San Martín,,1702,Leroy Tammadge,98,16,Nero Brahms
Demivee,huffingtonpost.com,bporsonga@miibeian.gov.cn,Home Furnishings,824-174-0625,Investment Managers,7 Towne Center,Budapest,Budapest,1158,Carmela Rush,45,47,Burg Porson
Tagcat,state.tx.us,kferrerasgb@boston.com,n/a,339-760-9059,Major Pharmaceuticals,3670 Brentwood Court,Shirbīn,,,Barnebas Profit,45,24,Knox Ferreras
Youbridge,google.com,bfillimoregc@indiegogo.com,n/a,165-223-8682,Other Consumer Services,5662 Maywood Center,Rovnoye,,413270,Dugald Marchetti,56,93,Berkly Fillimore
Agivu,goodreads.com,mgreedinggd@joomla.org,Business Services,896-322-8955,Business Services,9336 Vernon Crossing,Karlskoga,Örebro,691 83,Gordy Teaze,37,87,Manuel Greeding
Oloo,pen.io,aburgoynege@hexun.com,n/a,634-885-0681,"Computer Software: Programming, Data Processing",59 Quincy Court,Basoko,,,Derward Biers,52,77,Antonietta Burgoyne
Yabox,blog.com,cklemtgf@1und1.de,Major Banks,408-145-9612,Other Consumer Services,62 4th Road,Guanting,,,Stanwood Catlow,40,3,Clive Klemt
Tavu,uol.com.br,jdutnallgg@vkontakte.ru,Medical Specialities,755-785-5047,Steel/Iron Ore,0208 Lerdahl Road,Byala Slatina,,3252,Job Fincke,53,20,Jay Dutnall
Photobean,xing.com,cdimmnegh@biglobe.ne.jp,Electric Utilities: Central,543-896-8598,Telecommunications Equipment,1 Homewood Trail,Somovo,,396336,Corey Landeaux,78,96,Carolyne Dimmne
Realcube,youku.com,pruttergi@furl.net,n/a,771-584-2450,Computer Software: Prepackaged Software,1 Crownhardt Plaza,Tinaquillo,,,Petronella Treswell,13,93,Pam Rutter
Izio,virginia.edu,mepslygj@jigsy.com,Major Banks,123-970-7628,Consumer Electronics/Appliances,5 Doe Crossing Center,Tarko-Sale,,629851,Natale Spratt,54,2,Murvyn Epsly
Skinte,about.me,dbinfieldgk@exblog.jp,Real Estate Investment Trusts,138-638-9452,Packaged Foods,2748 Drewry Avenue,Derbent,,368608,Pollyanna Vallintine,25,40,Davine Binfield
Quimba,ucla.edu,abohlinggl@yahoo.co.jp,Apparel,146-320-6431,Medical/Dental Instruments,97 Glacier Hill Court,San Rafael,,5039,Price McGuire,43,62,Ahmad Bohling
Dazzlesphere,arstechnica.com,naspallgm@theglobeandmail.com,Other Consumer Services,599-460-9057,n/a,7 Cardinal Avenue,Phú Lộc,,,Sayres Pound,76,68,Nealson Aspall
Katz,google.com.hk,tstedegn@zdnet.com,Major Banks,303-564-3613,Biotechnology: In Vitro & In Vivo Diagnostic Substances,48 Cascade Drive,General Emilio Aguinaldo,,4124,Jourdan Pavolillo,70,44,Trev Stede
Fatz,blogs.com,iguittongo@umn.edu,Commercial Banks,731-430-0068,n/a,4984 Pine View Park,Chaniá,,,Con Hutt,98,56,Idalia Guitton
Wikido,census.gov,fsharremgp@upenn.edu,Medical/Dental Instruments,364-454-6347,Business Services,96 Talisman Place,Gang,,3703,Edmon Radloff,10,57,Franklin Sharrem
Trunyx,globo.com,cheymanngq@mtv.com,"Computer Software: Programming, Data Processing",875-250-9867,Real Estate Investment Trusts,1332 Farmco Lane,Biga,,7413,Torey Barday,25,56,Clarey Heymann
Plambee,prweb.com,cbavagegr@icio.us,Major Banks,703-867-9304,Real Estate,53 Del Mar Center,Araçuaí,,39600-000,Lethia McKue,57,4,Colline Bavage
Jabbersphere,ebay.com,bsemonings@miibeian.gov.cn,Finance: Consumer Services,263-262-2642,Major Banks,9445 Novick Park,El Puerto,,10134,Katy Demageard,71,5,Broddy Semonin
Buzzdog,eepurl.com,lblaxlandegt@yahoo.co.jp,Professional Services,375-110-4109,Industrial Machinery/Components,9 Commercial Court,Bendilwungu Lor,,,Baillie Bratten,44,12,Laurette Blaxlande
Gabspot,spiegel.de,abrunnergu@oakley.com,Business Services,163-476-6094,n/a,31876 Oriole Trail,Yuxi,,,Emmye Stockman,12,14,Alvina Brunner
Skyvu,nsw.gov.au,yboldockgv@goodreads.com,Other Specialty Stores,641-583-8058,Computer Software: Prepackaged Software,168 High Crossing Trail,Timiryazevo,,,Rochell Pont,11,97,Yvon Boldock
Dabvine,cornell.edu,afowliegw@virginia.edu,n/a,873-349-2235,Medical Specialities,203 Loftsgordon Junction,Mendoza,,,Janot Sanchez,82,87,Angy Fowlie
Meezzy,alibaba.com,mmorriartygx@nydailynews.com,Industrial Specialties,100-457-6757,Real Estate Investment Trusts,4 6th Circle,Dongqiao,,,Harriett Ffrench,36,11,Marti Morriarty
Abatz,ft.com,mchillesgy@java.com,Oil & Gas Production,312-437-5792,n/a,2 Dahle Hill,Dobre,,88-210,Elbert Dicks,56,67,Morgun Chilles
Einti,flavors.me,sstrahangz@statcounter.com,Major Pharmaceuticals,156-283-6693,Oil/Gas Transmission,8198 Linden Point,Dashiqiao,,,Rodrique Ferryman,12,70,Sheridan Strahan
Quimm,cargocollective.com,hduckfieldh0@boston.com,Natural Gas Distribution,771-297-0543,Natural Gas Distribution,3061 Hanson Pass,Miras,,,Danika McDarmid,38,47,Halimeda Duckfield
Kare,patch.com,rdeh1@xrea.com,Real Estate Investment Trusts,636-760-2078,Oil & Gas Production,83 Bashford Street,Masaraway,,3714,Maynord Cockhill,49,11,Rafe De Carteret
Twitterworks,pen.io,gbealh2@lycos.com,Oil & Gas Production,387-582-6787,n/a,8070 Schurz Hill,Bridgetown,,,Jocelyn Shakelade,14,34,Gerald Beal
Zoomzone,redcross.org,lzammitth3@people.com.cn,Advertising,176-259-3508,Pollution Control Equipment,21 Fairview Drive,Progreso,,,Harri Bonar,78,87,Lizzy Zammitt
Skidoo,comcast.net,hjamesonh4@apache.org,Professional Services,681-134-7960,n/a,805 Bartelt Lane,Szlachta,,83-243,Jeanelle Corzon,42,19,Hattie Jameson
Eimbee,oracle.com,ahammellh5@usda.gov,Finance: Consumer Services,623-358-3779,Major Banks,954 Cambridge Plaza,Timashëvsk,,352708,Benedicto Lenin,89,19,Arlinda Hammell
Oba,statcounter.com,zstarbuckeh6@engadget.com,"Computer Software: Programming, Data Processing",499-886-7289,Computer Software: Prepackaged Software,9 Michigan Park,Lysekil,Västra Götaland,453 22,Betti Bowcock,57,31,Zuzana Starbucke
Feedfire,techcrunch.com,cchieseh7@xrea.com,Broadcasting,752-709-0210,Electric Utilities: Central,81 Raven Junction,Dahao,,,Leticia Hicklingbottom,64,81,Carlos Chiese
Mynte,dedecms.com,arooksbyh8@sciencedaily.com,Restaurants,273-403-6052,Major Banks,40870 Macpherson Road,Shiziling,,,Ernaline Stapels,85,28,Allegra Rooksby
Eidel,paypal.com,ykaesmansh9@hhs.gov,Specialty Chemicals,252-497-6823,Meat/Poultry/Fish,14 Orin Street,Horodne,,,Kincaid Riggert,38,34,Yancey Kaesmans
Vimbo,miibeian.gov.cn,wepiscopiha@friendfeed.com,n/a,216-271-6018,Oil & Gas Production,047 Erie Drive,Dolavón,,5531,Elsinore Cawood,55,36,Wrennie Episcopi
Skiptube,cnn.com,omckinleyhb@cdc.gov,Investment Bankers/Brokers/Service,721-973-6951,Industrial Machinery/Components,152 Forest Dale Circle,Baoji,,,Gerick Lakes,84,69,Ola McKinley
Zoovu,ed.gov,gprimehc@redcross.org,EDP Services,348-366-6100,n/a,09205 Eastlawn Circle,Dacun,,,Maxie Huish,93,32,Gae Prime
Twinte,blogtalkradio.com,kdavidovitzhd@accuweather.com,Major Banks,176-850-0538,Oil & Gas Production,8764 Elmside Trail,Cabiao,,3107,Arnaldo Aitchinson,30,12,Kyle Davidovitz
Shufflebeat,unesco.org,lseagrovehe@xing.com,Other Specialty Stores,181-865-3792,Savings Institutions,1 Burning Wood Street,Guagua,,2003,Windy Antonescu,83,59,Lorita Seagrove
Kanoodle,stumbleupon.com,khellmerhf@sitemeter.com,Real Estate,513-521-8182,n/a,84 Westerfield Point,Panggunguni,,,Becca Jagielski,81,61,Ky Hellmer
Chatterpoint,live.com,rsherrardhg@mit.edu,n/a,745-637-7542,Commercial Banks,63028 Kennedy Lane,Cabeças Verdes,Coimbra,3070-505,Tadio Reast,5,96,Randall Sherrard
Edgeblab,zimbio.com,talevequehh@umn.edu,n/a,801-569-1214,n/a,54130 Annamark Terrace,Kouango,,,Koral Farrear,37,68,Thelma Aleveque
Jaxbean,networksolutions.com,pnevisonhi@edublogs.org,Real Estate Investment Trusts,197-423-9222,n/a,4274 4th Hill,Milano,Lombardia,20125,Papagena Heustace,15,36,Pietro Nevison
Fliptune,printfriendly.com,leselerhj@senate.gov,n/a,170-330-4055,Major Banks,2 Redwing Hill,Xintian,,,Hewie Bullent,65,57,Laird Eseler
Layo,blinklist.com,rwheeltonhk@flavors.me,Electric Utilities: Central,842-500-6156,Real Estate Investment Trusts,1 Tony Center,Kalloní,,,Lavinia Bickerstaffe,15,38,Raffarty Wheelton
Wikido,epa.gov,gorringehl@addthis.com,Industrial Specialties,425-733-3213,Real Estate Investment Trusts,44 Lindbergh Crossing,Chengdong,,,Alvie Tunder,30,58,Gale Orringe
Oyonder,toplist.cz,hluebberthm@huffingtonpost.com,Military/Government/Technical,407-482-5326,Hospital/Nursing Management,219 Westridge Drive,Chisec,,18006,Lammond Chaffey,26,50,Hershel Luebbert
Brightdog,slate.com,etotarohn@sfgate.com,Auto Manufacturing,366-624-0164,Investment Bankers/Brokers/Service,8 Manitowish Street,Prokhladnyy,,366041,Sydney Gayne,67,6,Ediva Totaro
Leenti,cmu.edu,gbedlingtonho@wisc.edu,n/a,380-921-4395,Major Banks,0440 Annamark Center,Sendangrejo,,,Eugenius DelaField,60,14,Gretna Bedlington
Voonix,digg.com,mfairbankhp@dell.com,Business Services,503-998-2123,Food Distributors,60 Warner Road,Vulcan,Alberta,V6M,Prudy Jirak,7,73,Melvin Fairbank
Podcat,va.gov,lbarabichhq@blogspot.com,Plastic Products,104-380-1371,Natural Gas Distribution,8 Lakewood Street,Aurora,,7020,Arlina Dow,42,59,Lannie Barabich
Dablist,clickbank.net,bbrettorhr@wikipedia.org,n/a,490-748-8723,Other Consumer Services,59833 Schlimgen Plaza,Xuwei,,,Nikita Andino,33,63,Bertram Brettor
Centimia,dagondesign.com,cpimmockehs@ifeng.com,Major Pharmaceuticals,595-944-5822,Clothing/Shoe/Accessory Stores,52 Golf View Plaza,Levallois-Perret,Île-de-France,92592 CEDEX,Shae O'Hingerty,74,96,Carol-jean Pimmocke
Oyonder,canalblog.com,pdavsleyht@nih.gov,Life Insurance,131-771-9298,Major Pharmaceuticals,7725 Claremont Court,Karangbadar Kidul,,,Darin Janda,36,53,Patrizio Davsley
Linkbuzz,marriott.com,mchesmanhu@tmall.com,n/a,374-114-8061,Natural Gas Distribution,7 Burning Wood Center,La Palma,,,Ezmeralda Leblanc,16,32,Mommy Chesman
Linkbuzz,google.com,vanthiftlehv@addtoany.com,Real Estate Investment Trusts,549-574-9022,Paints/Coatings,70 Mariners Cove Parkway,Killarney,Manitoba,V9B,Mina Tregaskis,5,32,Vincenz Anthiftle
Quimba,shutterfly.com,scrosgrovehw@hud.gov,Publishing,903-620-1017,Specialty Insurers,9134 Dovetail Alley,Yonglong,,,Genna McKinstry,66,8,Stephan Crosgrove
Avaveo,oaic.gov.au,mjirushx@businesswire.com,Finance: Consumer Services,505-401-2483,Real Estate Investment Trusts,9952 Rieder Center,Albuquerque,New Mexico,87201,Parsifal Bullman,16,87,Marlyn Jirus
Thoughtmix,fotki.com,clehy@addthis.com,Other Consumer Services,768-752-8849,Telecommunications Equipment,70 Washington Way,Krueng Luak,,,Carri Trunks,23,30,Corella Le feuvre
Yamia,businessinsider.com,kgerardhz@squidoo.com,Property-Casualty Insurers,340-924-4752,n/a,53 Arrowood Trail,Figueira,Faro,8650-153,Tiler Reddel,16,17,Kimmy Gerard
Jabbersphere,clickbank.net,wpolkinhorni0@youtu.be,Other Consumer Services,752-705-3960,n/a,43 Artisan Terrace,Jasaan,,9003,Aldon Mapledoore,60,69,Wenonah Polkinhorn
Flipopia,gnu.org,apheari1@mail.ru,n/a,324-101-2646,Packaged Foods,010 Loeprich Place,Sambong,,,Cathee Roden,69,79,Alexi Phear
Skaboo,opensource.org,uhammerbergeri2@smugmug.com,n/a,777-107-7839,Real Estate,9 Almo Drive,Obninsk,,249039,Vladamir Bedson,98,52,Uriel Hammerberger
Skynoodle,icq.com,wlitti3@patch.com,Farming/Seeds/Milling,183-513-3131,n/a,9258 Roth Lane,Sydney,New South Wales,1109,Nickolas Dunnett,66,18,Wilmette Litt
Vitz,nbcnews.com,ltwidlei4@scientificamerican.com,Computer Software: Prepackaged Software,492-303-4610,Major Pharmaceuticals,201 Arapahoe Street,Mundybash,,652900,Al Toulch,27,83,Lem Twidle
Browsezoom,cpanel.net,bvlachi5@acquirethisname.com,Business Services,737-147-5798,n/a,0 Banding Road,Tópaga,,152047,Hube Frake,64,36,Brynn Vlach
Trudoo,blinklist.com,gzamorai6@google.com.hk,Computer Software: Prepackaged Software,187-379-7750,Electric Utilities: Central,20 Caliangt Crossing,Rogachëvo,,141880,Karissa Chasemoore,90,29,Granville Zamora
Brainbox,usa.gov,hdei7@yolasite.com,EDP Services,806-764-3990,Major Banks,0769 Mallory Avenue,Alae,,2705,Prent Chaunce,1,81,Haskell De Vuyst
Brightdog,geocities.com,cpeatheyjohnsi8@taobao.com,Major Banks,955-330-0638,Computer Software: Prepackaged Software,2980 Crescent Oaks Street,Duko,,,Junina Dillinton,39,39,Coop Peatheyjohns
Topicshots,salon.com,fclinesi9@skyrock.com,Major Banks,398-218-1738,Real Estate Investment Trusts,3220 Northfield Alley,Bitobe,,,Jacquenette Woodruffe,53,55,Fleurette Clines
Flipbug,army.mil,awilldenia@webnode.com,Telecommunications Equipment,207-643-1075,Integrated oil Companies,3826 Hansons Terrace,Cepões,Viseu,3505-157,Jessa Lofty,33,89,Arie Willden
Blognation,ameblo.jp,drichardib@admin.ch,Electric Utilities: Central,436-903-0953,Professional Services,6 Main Junction,San Simon,,2015,Oates Piller,28,21,Demetre Richard
Zoomlounge,google.com.hk,lwilshinic@globo.com,Savings Institutions,916-499-6508,n/a,9582 Logan Lane,Radovitskiy,,140753,Cherlyn Curthoys,43,39,Lib Wilshin
Skiba,quantcast.com,bduffyid@webs.com,Plastic Products,145-429-6310,Beverages (Production/Distribution),458 Center Court,Cikomara,,,Lavina Fairbanks,2,47,Brigid Duffy
Yakitri,goo.ne.jp,mbourkeie@sogou.com,Business Services,724-524-7217,Transportation Services,86732 Arizona Plaza,Cortinhas,Viana do Castelo,4960-320,Ninnetta Tonn,22,41,Marjy Bourke
Gabvine,zdnet.com,pbruckenthalif@ycombinator.com,Investment Managers,714-604-3853,n/a,55 John Wall Way,San Jose,California,95128,Packston Dreakin,15,20,Patsy Bruckenthal
Topicstorm,hibu.com,lguymerig@constantcontact.com,Precision Instruments,264-806-4131,Major Banks,3 Hoepker Alley,Capulaan,,5516,Tristan Airth,85,2,Lena Guymer
Bubblebox,ox.ac.uk,goheneryih@parallels.com,Business Services,157-842-1895,n/a,4 Parkside Circle,Donglai,,,Myrna Geoghegan,24,53,Gennifer O'Henery
Browsecat,google.de,gsjostromii@lycos.com,Major Pharmaceuticals,386-468-2668,n/a,27 Anzinger Circle,Nagahama,,968-0442,Rickert Dulinty,59,3,Gun Sjostrom
Jazzy,mtv.com,xescolmeij@elpais.com,Containers/Packaging,548-407-3330,n/a,438 Buena Vista Alley,Gampang,,,Margaux Lyman,21,78,Xenia Escolme
Eayo,home.pl,nbrogioniik@home.pl,Military/Government/Technical,164-826-5745,Major Banks,5587 Del Mar Junction,Dicamay,,6011,Thaddeus Barrus,63,32,Nancie Brogioni
Talane,smh.com.au,jmockleril@nytimes.com,Marine Transportation,105-433-6498,n/a,3030 Helena Point,Khosta,,354395,Meg Fiveash,97,49,Jammal Mockler
Snaptags,dmoz.org,sbrealeyim@google.com.au,Medical/Dental Instruments,780-136-4731,Business Services,45112 Drewry Place,Těšany,,664 54,Helen-elizabeth Vest,51,76,Smitty Brealey
Yakijo,furl.net,wmorinin@washington.edu,Savings Institutions,221-146-2105,Major Pharmaceuticals,25 Lyons Avenue,'s-Hertogenbosch,Provincie Noord-Brabant,5224,Yale Creak,65,73,Winston Morin
Blogspan,csmonitor.com,jbrogginiio@ted.com,RETAIL: Building Materials,636-358-6054,Specialty Insurers,204 Muir Drive,Amboise,Centre,37404 CEDEX,Dolorita Loosely,77,28,Jens Broggini
Plambee,topsy.com,aramseyip@google.co.jp,Industrial Machinery/Components,760-652-8140,Real Estate,44 Thierer Way,Krupka,,417 41,Torrin Lyall,40,35,Alberik Ramsey
Skilith,flickr.com,ywarlaweiq@umich.edu,Medical Electronics,926-965-7952,Real Estate,128 Nevada Alley,Tuchlovice,,273 02,Aurora Larmour,92,75,Yardley Warlawe
Skiba,lulu.com,ncastagneir@weather.com,Major Banks,219-126-7802,Computer Software: Prepackaged Software,66 Arizona Court,Ladysmith,British Columbia,V9G,Dael Lakeland,50,92,Neall Castagne
Zoonoodle,imageshack.us,vtootingis@google.fr,Air Freight/Delivery Services,954-366-1501,EDP Services,5486 Oneill Terrace,Novyy Urgal,,682071,Chad Craighill,60,77,Violette Tooting
Tagtune,123-reg.co.uk,zthowesit@plala.or.jp,n/a,617-792-7996,Agricultural Chemicals,9 Stang Way,Benhao,,,Gussie Marty,82,67,Zita Thowes
Wikibox,ebay.com,flondoniu@cam.ac.uk,n/a,296-743-8405,Property-Casualty Insurers,33 Spenser Circle,Znomenka,,,Huey Creenan,5,88,Fabio London
Voonyx,biglobe.ne.jp,jstaversiv@wsj.com,Containers/Packaging,866-977-0045,Semiconductors,0200 Scofield Drive,Nyalindung,,,Harold Ashard,28,12,Jarib Stavers
Buzzdog,webmd.com,egiffeniw@europa.eu,n/a,652-833-5743,Computer Manufacturing,26817 Moulton Place,Prienai,,59001,Standford Sleigh,44,90,Elfrieda Giffen
Thoughtstorm,utexas.edu,klopeix@wsj.com,n/a,279-137-1370,n/a,2 Carpenter Park,Gvozd,,44410,Leann Seabridge,1,12,Katuscha Lope
Bluejam,mysql.com,kivonsiy@amazon.com,Department/Specialty Retail Stores,249-661-2063,Water Supply,3 Hintze Alley,Yuekou,,,Cullin Hurdedge,97,61,Kory Ivons
Twitterbeat,creativecommons.org,lflintuffiz@amazon.de,"Computer Software: Programming, Data Processing",316-823-0911,Investment Bankers/Brokers/Service,1 Tennyson Court,Piúma,,29285-000,Eileen Ebden,81,21,Ladonna Flintuff
Skinte,mozilla.com,jguslonj0@angelfire.com,n/a,570-678-1672,Transportation Services,32665 Center Way,Bacnotan,,2515,Arlee Huelin,80,65,Jacob Guslon
Avamba,yandex.ru,aroonj1@sbwire.com,Industrial Machinery/Components,186-353-1245,n/a,49621 Nevada Center,Lorient,Bretagne,56109 CEDEX,Val Graves,22,1,Aubert Roon
Blognation,163.com,mhiddersleyj2@bloomberg.com,Major Chemicals,516-234-1669,Military/Government/Technical,40173 Bonner Crossing,Hicksville,New York,11854,Della Ralphs,72,56,Maighdiln Hiddersley
Wordpedia,twitter.com,dyurivtsevj3@cnet.com,Professional Services,151-108-9097,Business Services,5 Hauk Alley,Cogon,,1686,Crin Letrange,27,83,Delmer Yurivtsev
Katz,globo.com,astranieroj4@fotki.com,n/a,282-703-3441,Apparel,2411 Sullivan Avenue,Lyaskovets,,5145,Romain Raithby,85,71,Asia Straniero
Vinte,cmu.edu,mrysonj5@zdnet.com,n/a,926-513-3488,Major Banks,470 Weeping Birch Alley,San Fernando,,8711,Georas Laingmaid,37,47,Marna Ryson
BlogXS,icq.com,lmaffuccij6@sina.com.cn,Biotechnology: Laboratory Analytical Instruments,772-327-8558,Business Services,51 Hermina Parkway,Bachuan,,,Darcee Pocknell,25,72,Lazare Maffucci
Flashspan,gravatar.com,ttwellj7@java.com,Multi-Sector Companies,420-508-3129,Telecommunications Equipment,14164 Gina Place,San Miguel Ixtahuacán,,12006,Kaspar Storah,95,4,Tiphanie Twell
Livetube,soup.io,nhabbertj8@hibu.com,Oil & Gas Production,968-449-0895,Business Services,67 Aberg Street,Ringim,,,Tybalt Brunker,78,57,Noella Habbert
Trilia,whitehouse.gov,fherrievenj9@pen.io,n/a,997-320-3157,Marine Transportation,6003 Melody Court,Trà Vinh,,,Rebeca Eary,70,41,Filippa Herrieven
Cogilith,storify.com,ybilsborrowja@ca.gov,Television Services,295-880-4833,Other Specialty Stores,8621 Forster Lane,Gradačac,,,Helena Scrivens,9,43,Yardley Bilsborrow
Topdrive,prweb.com,mghestjb@cbslocal.com,Major Banks,628-452-4077,Biotechnology: Biological Products (No Diagnostic Substances),7632 Golf Course Place,Maguilling,,3527,Cortie Garron,46,17,Modesta Ghest
Jaxworks,over-blog.com,laustinsjc@instagram.com,Environmental Services,133-870-6083,n/a,489 Rusk Place,Samanggen,,,Jock Beattie,80,30,Loreen Austins
Aibox,loc.gov,tcolloughjd@umich.edu,Professional Services,605-421-3253,n/a,505 Milwaukee Center,Tirat Karmel,,,Elka Doerffer,73,36,Tiffi Collough
Jaxspan,alibaba.com,wcolliverje@marriott.com,Restaurants,393-326-1104,Semiconductors,5722 Fair Oaks Pass,Libas,,3103,Ody Bonnaire,17,44,Warner Colliver
Flashpoint,vkontakte.ru,nmynardjf@eventbrite.com,n/a,861-411-6087,Department/Specialty Retail Stores,1 Di Loreto Court,Guadalupe,Oaxaca,70533,Jacynth Cordie,18,47,Napoleon Mynard
Ntag,webeden.co.uk,sboundjg@amazon.co.jp,Savings Institutions,830-909-4314,Major Banks,50869 Fairview Point,Liucheng,,,Aubrette Cleave,77,62,Suki Bound
Kazu,over-blog.com,ijolleyjh@hatena.ne.jp,Building Products,409-976-3215,Medical/Dental Instruments,8 East Place,Krahës,,,Jude Mordacai,46,71,Inglebert Jolley
Viva,sciencedaily.com,gostridgeji@prlog.org,n/a,572-672-6632,Movies/Entertainment,3 Morrow Parkway,Junaynat Raslān,,,Ardenia McTrustram,66,71,Georgetta Ostridge
Edgeclub,webeden.co.uk,hellgoodjj@phpbb.com,Construction/Ag Equipment/Trucks,736-981-5135,Business Services,333 Prairieview Park,Täby,Stockholm,183 77,Melva Brims,16,13,Heida Ellgood
Demimbu,fc2.com,sbuffjk@360.cn,Semiconductors,758-299-1459,n/a,934 Bunting Junction,Çepan,,,Gaultiero Matthensen,52,14,Sky Buff
Voomm,canalblog.com,iolfordjl@fastcompany.com,Beverages (Production/Distribution),962-635-7550,Radio And Television Broadcasting And Communications Equipment,30 Northwestern Lane,Nanshao,,,Hiram Epple,91,53,Ivett Olford
Reallinks,symantec.com,fkimbelljm@narod.ru,Metal Fabrications,921-902-7569,Investment Bankers/Brokers/Service,76528 Dayton Junction,Asnières-sur-Seine,Île-de-France,92665 CEDEX,Nanci Garmston,51,49,Frasco Kimbell
Vinte,ucla.edu,krobjohnsjn@parallels.com,Marine Transportation,327-451-8873,Property-Casualty Insurers,7 Mallory Road,Kokotów,,32-020,Angeli Pearse,44,4,Kirstyn Robjohns
Skyndu,reddit.com,mchamberlenjo@github.io,n/a,520-290-6434,RETAIL: Building Materials,6 Mosinee Way,Tucson,Arizona,85705,Nancy Cadd,45,51,Maggy Chamberlen
Twinte,last.fm,mshoutejp@mashable.com,Investment Managers,865-998-7814,Real Estate Investment Trusts,2427 Mockingbird Drive,Kaiama,,,Chere Melbury,21,23,Maureen Shoute
Thoughtbridge,meetup.com,jbolstridgejq@bloomberg.com,Industrial Machinery/Components,872-585-9178,Industrial Specialties,15455 Darwin Point,Campamento,,052027,Ryley Mostin,73,28,Jocelyn Bolstridge
Browsetype,earthlink.net,ejagiellojr@home.pl,Biotechnology: Biological Products (No Diagnostic Substances),626-197-6464,n/a,63 Eastwood Park,Parse,,,Helyn McIlharga,71,34,Emmaline Jagiello
Bluezoom,yandex.ru,cwhittlejs@php.net,n/a,892-205-1960,Medical/Dental Instruments,2 Sutteridge Drive,Baniachang,,3350,Lexine Hindmoor,24,65,Cyrus Whittle
Voomm,hao123.com,aduplainjt@topsy.com,Electric Utilities: Central,459-943-8748,Property-Casualty Insurers,750 Susan Road,Indang,,4122,Lesli Castana,88,88,Ailbert Duplain
Linklinks,uol.com.br,bpepallju@adobe.com,Computer Software: Prepackaged Software,343-642-3404,Telecommunications Equipment,51 Prairieview Terrace,Getulio,,1175,Leonhard Bloxholm,2,35,Brock Pepall
Eimbee,wsj.com,vdenyaginjv@mit.edu,Oil & Gas Production,794-821-7786,Computer Software: Prepackaged Software,565 Loftsgordon Junction,Huagang,,,Kristos Bisiker,61,62,Valentine Denyagin
Talane,ucoz.com,imacalroyjw@goodreads.com,Precious Metals,174-901-7991,Natural Gas Distribution,009 Lighthouse Bay Avenue,Khāliş,,,Daune Torfin,48,23,Iolande MacAlroy
Skinix,mozilla.org,aheinerjx@uol.com.br,Life Insurance,608-666-1352,Other Specialty Stores,04498 Packers Junction,Adelaide,South Australia,5839,Heather Lenaghen,75,55,Adham Heiner
Kanoodle,twitpic.com,zcolbournejy@ibm.com,Oil & Gas Production,384-975-5117,n/a,947 Comanche Place,Huangshi,,,Caressa Winsper,21,92,Zed Colbourne
Flashset,chron.com,bbrookejz@soundcloud.com,Semiconductors,745-956-1343,Savings Institutions,38 Novick Junction,Oslo,Oslo,1168,Albrecht Stilgo,58,33,Bernardine Brooke
Blognation,flickr.com,adurtnalk0@hugedomains.com,Industrial Machinery/Components,518-363-8756,Biotechnology: Electromedical & Electrotherapeutic Apparatus,559 Sommers Trail,Schenectady,New York,12305,Sherlocke Barti,75,75,Avie Durtnal
Tagcat,diigo.com,phalksworthk1@telegraph.co.uk,Commercial Banks,541-256-2934,Television Services,38599 Hanover Junction,Rîbniţa,,MD-5519,Vivi McClary,49,95,Pierce Halksworth
Realbuzz,163.com,wcordesk2@webs.com,n/a,139-442-1852,Apparel,90 Sycamore Lane,Tuhe,,,Chuck Hellyar,36,51,William Cordes
Zazio,goo.gl,llawtyk3@macromedia.com,n/a,792-799-3577,n/a,67 Brickson Park Lane,Dagur,,,Brande Goodinge,64,7,Loren Lawty
Kwideo,berkeley.edu,dkrystekk4@youtube.com,Restaurants,849-494-6739,Packaged Foods,604 Jay Trail,Peyima,,,Emmeline Siegertsz,17,88,Donaugh Krystek
Divavu,epa.gov,jloryk5@chron.com,Life Insurance,139-391-3412,Auto Manufacturing,1 Westridge Court,Bern,Kanton Bern,3030,Shurlocke Drinnan,82,77,Jobyna Lory
Skynoodle,latimes.com,cthurnhamk6@scribd.com,Automotive Aftermarket,187-701-3459,Major Banks,2860 American Place,Buenavista,Jalisco,47216,Eden Emmatt,63,18,Charmian Thurnham
Mita,chicagotribune.com,hdawidk7@hubpages.com,Real Estate Investment Trusts,999-575-4182,Food Distributors,460 Cottonwood Street,Krasnokholm,,461360,Blake Larchiere,64,25,Howey Dawid
Skyvu,loc.gov,aheildsk8@mashable.com,Real Estate Investment Trusts,972-662-6019,Homebuilding,2 Lillian Junction,Ágios Athanásios,,,Chancey Clayworth,98,82,Alla Heilds
Quimba,yelp.com,hhitchensk9@dyndns.org,Major Banks,223-397-9728,Investment Managers,66002 Kings Lane,Nianyushan,,,Yvonne Heaven,11,96,Hardy Hitchens
Tazzy,amazon.com,irattrieka@cpanel.net,Electronic Components,588-404-4018,Medical/Dental Instruments,98 Melrose Street,Kŭlob,,,Mile Attoe,55,43,Isidro Rattrie
Pixoboo,google.es,srosekb@rambler.ru,Finance: Consumer Services,928-899-4604,Medical/Dental Instruments,24937 Fair Oaks Lane,Purwojoyo,,,Stephie Pimblett,36,21,Shaylyn Rose
Ntag,vistaprint.com,nmallinderkc@icio.us,Major Banks,118-894-0805,EDP Services,0 Buell Center,Ðà Lạt,,,Brenn Chastanet,72,85,Netti Mallinder
Viva,pcworld.com,uhundeykd@flickr.com,n/a,688-798-3475,Auto Parts:O.E.M.,664 Lukken Hill,Nova Iguaçu,,26000-000,Isidoro Lampert,29,8,Upton Hundey
Zooxo,mozilla.org,amartignonke@google.com.br,n/a,442-459-2441,Real Estate Investment Trusts,28 Holy Cross Center,Peristerona,,,Sena Vedenyapin,81,69,Archibaldo Martignon
Dabtype,bing.com,channabykf@linkedin.com,Computer peripheral equipment,582-447-4188,Major Pharmaceuticals,99 Mallard Point,Sumberagung,,,Gregoor Camings,78,80,Caterina Hannaby
Skibox,microsoft.com,kbuistkg@umn.edu,Military/Government/Technical,713-845-5761,n/a,10898 Sage Trail,Parigi,,,Zacharia Cone,12,25,Koo Buist
Linktype,technorati.com,hkorouskh@merriam-webster.com,Precious Metals,751-650-1449,Real Estate Investment Trusts,1 Grim Road,Ciechocin,,87-408,Lorena Fury,54,1,Hurleigh Korous
Snaptags,blogtalkradio.com,mwormaldki@lycos.com,n/a,275-830-3871,Major Chemicals,1990 Bashford Alley,Ochër,,617140,Merrick Yanshin,92,58,Mackenzie Wormald
Meemm,foxnews.com,bdabinettkj@netscape.com,Real Estate Investment Trusts,849-463-8861,n/a,6 Drewry Center,Larangan,,,Darwin Infante,17,83,Bondon Dabinett
Gabtype,umich.edu,zbarleykk@vimeo.com,n/a,836-936-1054,n/a,488 Marcy Crossing,Isak,,,Maighdiln Fouldes,41,34,Zeke Barley
Twinte,jalbum.net,hslyvesterkl@vimeo.com,Real Estate Investment Trusts,173-271-5920,Major Pharmaceuticals,2664 Sommers Terrace,Enskede,Stockholm,122 44,Jeanelle Pearch,99,80,Horatia Slyvester
Skyndu,networkadvertising.org,kbartleykm@aol.com,Property-Casualty Insurers,276-646-1574,Other Consumer Services,982 Continental Hill,Kangaslampi,,79480,Allianora Detoile,49,3,Kyrstin Bartley
Jetwire,chicagotribune.com,agrininkn@csmonitor.com,n/a,416-947-5400,n/a,14 Upham Point,Sundsvall,Västernorrland,853 56,Hunter Curner,49,9,Anestassia Grinin
Wikizz,usnews.com,cbaylayko@canalblog.com,Commercial Banks,687-970-1698,Real Estate Investment Trusts,75141 Scoville Point,Радовиш,,2423,Myles Prater,49,43,Cristionna Baylay
Fivechat,shop-pro.jp,amcquinkp@china.com.cn,Investment Bankers/Brokers/Service,512-483-5349,n/a,21671 Washington Junction,Naikoten Dua,,,Alwin Bute,13,12,Angus McQuin
Oyope,pinterest.com,cstooderskq@bbb.org,Apparel,313-444-2209,n/a,86 Milwaukee Court,Bantuanon,,6311,Pooh Oxbury,25,10,Coriss Stooders
Jetpulse,yellowpages.com,babbisonkr@cbsnews.com,Homebuilding,960-360-1751,n/a,0 Pennsylvania Drive,Łanięta,,99-306,Nolie Greenside,64,94,Berne Abbison
Skidoo,ask.com,enerhenyks@lulu.com,Major Banks,817-602-2356,Multi-Sector Companies,308 Kingsford Trail,Casal do Sapo,Setúbal,2975-005,Mercie Birdwhistell,2,59,Ericha Nerheny
Babbleblab,google.de,dbottinikt@google.co.jp,Banks,541-520-8586,Railroads,6 Clemons Drive,Oranjestad,,,Barbara-anne Vegas,85,76,Doralynn Bottini
Rhycero,google.de,gitzkovichku@sbwire.com,Marine Transportation,493-605-4244,Major Pharmaceuticals,458 Menomonie Street,Chone,,,Sally Johanning,76,8,Gillian Itzkovich
Zooveo,businessweek.com,mmacparlankv@over-blog.com,Electronic Components,886-291-4941,n/a,7 Fisk Court,Sakākā,,,Carmel Bernardeau,57,94,Martyn MacParlan
Topicstorm,angelfire.com,ivestykw@fda.gov,Life Insurance,230-367-3626,Business Services,508 Parkside Road,Rennes,Bretagne,35059 CEDEX,Valentina Bahlmann,88,84,Inna Vesty
Realmix,seesaa.net,mmccererykx@opera.com,Real Estate Investment Trusts,612-670-5914,Metal Fabrications,29 8th Avenue,Turija,,,Stanley Goodlett,49,39,Muhammad McCerery
Miboo,washington.edu,abutterfillky@dagondesign.com,Home Furnishings,273-879-8296,Automotive Aftermarket,19 Anzinger Plaza,Miłakowo,,14-310,Avrom Ilchenko,28,6,Annadiane Butterfill
Zoombeat,mediafire.com,srollskz@blog.com,Biotechnology: Laboratory Analytical Instruments,889-888-1741,Major Banks,2559 Heath Circle,Lapa,,83750-000,Shaylynn Pedlow,42,89,Skippie Rolls
Pixonyx,soundcloud.com,eclayworthl0@example.com,Savings Institutions,732-386-6903,Packaged Foods,49495 Dennis Center,San Cristóbal Totonicapán,,08002,Lowell Everley,58,36,Ellerey Clayworth
Omba,meetup.com,edcostal1@paypal.com,Real Estate Investment Trusts,313-430-5747,n/a,75053 Brickson Park Alley,Paris 17,Île-de-France,75853 CEDEX 17,Felipe Asif,35,1,Emmy D'Costa
Katz,hud.gov,abibbl2@blogs.com,Apparel,983-195-9936,Real Estate Investment Trusts,87211 Green Ridge Crossing,Västra Frölunda,Västra Götaland,426 77,Garik Molden,33,13,Aleksandr Bibb
Aivee,mtv.com,aatgerl3@msu.edu,Real Estate,570-505-0407,Farming/Seeds/Milling,69 Nova Road,Omuo-Ekiti,,,Sherye Heinrich,71,1,Ave Atger
Trupe,latimes.com,skezourecl4@va.gov,Major Banks,420-547-8733,Major Pharmaceuticals,5703 Graceland Avenue,Domanín,,593 01,Cherilynn Symcox,15,83,Savina Kezourec
Edgeblab,naver.com,cgironl5@altervista.org,General Bldg Contractors - Nonresidential Bldgs,278-248-0342,Telecommunications Equipment,96 Dexter Plaza,Jerez,,22010,Lebbie Ibberson,28,15,Clair Giron
Edgeclub,indiatimes.com,sgoblel6@reddit.com,Property-Casualty Insurers,186-526-7198,Property-Casualty Insurers,04 Harper Point,Qintang,,,Joanne Lannen,38,35,Shawnee Goble
Aibox,1688.com,ftrickeyl7@oakley.com,Business Services,247-456-0765,Biotechnology: Biological Products (No Diagnostic Substances),7518 Butterfield Street,Zharkent,,,Tedman Kettoe,71,36,Florette Trickey
Meemm,seattletimes.com,mbroadbearl8@yelp.com,Newspapers/Magazines,990-723-5179,Real Estate Investment Trusts,45 Lerdahl Lane,Rîşcani,,MD-5635,Niel Stirley,24,59,Merilyn Broadbear
Chatterbridge,wunderground.com,gpechanl9@edublogs.org,Major Banks,447-281-3735,Major Chemicals,462 Bultman Pass,Youyang,,,Ambrosius McPeeters,4,65,Giulia Pechan
Dabfeed,odnoklassniki.ru,lworldla@posterous.com,RETAIL: Building Materials,184-484-2690,n/a,93 Armistice Crossing,Glagahdowo,,,Janetta Burg,57,46,Loutitia World
Mycat,msu.edu,glelb@census.gov,Computer Manufacturing,842-860-0314,Advertising,6 Spohn Avenue,Parigi,,,Josephina Edleston,37,34,Giffard Le Teve
Tagfeed,ucla.edu,nvanlc@fastcompany.com,Auto Manufacturing,806-334-7313,n/a,8728 Alpine Center,Besuki,,,Franny Bolderoe,84,2,Nell Van Der Vlies
Quinu,cisco.com,edavenallld@soundcloud.com,Semiconductors,468-320-7211,"Computer Software: Programming, Data Processing",4 Superior Street,Baziqiao,,,Shannen Waulker,53,30,Elias Davenall
Camimbo,pen.io,tjoshamle@umich.edu,Power Generation,971-684-2421,Semiconductors,2840 Judy Parkway,Dukuhsawah,,,Gunter Tailour,17,49,Tommie Josham
Yakitri,skyrock.com,phardbattlelf@dion.ne.jp,EDP Services,500-984-1221,Major Banks,24077 Susan Plaza,Xinzhaiping,,,Francyne Blacklidge,20,77,Peri Hardbattle
Yadel,histats.com,gyegorshinlg@cloudflare.com,Military/Government/Technical,712-228-2950,Investment Bankers/Brokers/Service,69 Superior Lane,Bontang Baru,,,Rosina Phillpotts,37,56,Gayelord Yegorshin
Agivu,bloglines.com,ggyurkovicslh@hatena.ne.jp,Computer Software: Prepackaged Software,315-821-8194,Property-Casualty Insurers,814 Jenna Crossing,Lelkowo,,14-521,Loydie Garden,6,94,Gare Gyurkovics
Jabberbean,accuweather.com,nheasmanli@amazon.de,Major Pharmaceuticals,721-566-7913,Major Pharmaceuticals,5 Michigan Road,Tonggakjati,,,Evelina Whelband,85,52,Normie Heasman
Bubblebox,tamu.edu,jparadinlj@hp.com,Real Estate Investment Trusts,893-984-0660,Real Estate Investment Trusts,58542 Anthes Parkway,Santa Elena de Uairén,,,Reena Burril,88,7,Julietta Paradin
Zoomcast,ning.com,whurllk@bloglines.com,n/a,477-263-7112,Semiconductors,89154 Porter Junction,Ashmūn,,,Claretta Blight,3,15,Weber Hurl
Devify,ning.com,tsaltmarshell@gnu.org,Television Services,867-784-5723,n/a,98 2nd Street,Niono,,,Agna Rawcliff,76,82,Tiffanie Saltmarshe
Eadel,shinystat.com,pcahanilm@etsy.com,Oil Refining/Marketing,789-174-1997,Hospital/Nursing Management,844 Erie Terrace,Donnacona,Québec,G3M,Penn Matuszkiewicz,44,100,Pattin Cahani
Jabbertype,usda.gov,asparkeln@tinypic.com,Computer Software: Prepackaged Software,380-744-0638,Broadcasting,960 Walton Court,Santa Fe,,6513,Hope Duncklee,83,19,Averil Sparke
Kwilith,tripadvisor.com,lrickwordlo@ameblo.jp,Medical/Dental Instruments,438-134-7593,Professional Services,8 Lawn Park,Tobol,,,Mamie Jaqueminet,89,62,Lyndell Rickword
Realcube,marketwatch.com,asarralp@youku.com,Commercial Banks,902-650-4414,Electric Utilities: Central,595 Canary Avenue,Strelka,,353539,Teri Bussetti,18,38,Adrienne Sarra
Blogpad,amazon.co.jp,nyarnalllq@cbsnews.com,n/a,486-723-9689,Biotechnology: Commercial Physical & Biological Resarch,36 Mockingbird Avenue,Níkaia,,,Alina Machin,83,50,Niel Yarnall
Rhybox,deliciousdays.com,mshropshirelr@live.com,Industrial Machinery/Components,522-654-1934,n/a,0317 Green Ridge Lane,Puerto Ayacucho,,,Jillayne Glenton,38,97,Miranda Shropshire
Meejo,joomla.org,kwetherheadls@businesswire.com,Real Estate Investment Trusts,807-567-5517,Major Banks,08 Randy Road,Retiro,,4162,Jana Mounter,87,35,Kizzie Wetherhead
Thoughtbeat,tmall.com,ariltonlt@prweb.com,Major Banks,892-511-0711,Investment Bankers/Brokers/Service,130 Magdeline Court,Kongkeshu,,,Simona Snoddon,26,47,Alikee Rilton
Realbridge,edublogs.org,tcutmorelu@apple.com,Accident &Health Insurance,805-633-2869,Business Services,08739 Redwing Court,Za‘tarah,,,Jeniffer Pierro,80,66,Theressa Cutmore
Meembee,domainmarket.com,pfennessylv@parallels.com,n/a,707-765-2724,Metal Fabrications,4745 Towne Plaza,Qiping,,,Rasia Brownsey,38,65,Patrizius Fennessy
Agivu,umich.edu,oanstylw@wikia.com,Real Estate,615-891-2560,Commercial Banks,911 Bunker Hill Pass,Oslo,Oslo,0280,Dael Delort,45,28,Olympe Ansty
Dabshots,ebay.com,tburkertlx@drupal.org,n/a,250-736-6429,Major Chemicals,76734 Ryan Street,Pakuranga,,2140,Damaris Diehn,42,38,Trixie Burkert
Kamba,etsy.com,aresdalely@cisco.com,Major Pharmaceuticals,426-634-1819,Biotechnology: Laboratory Analytical Instruments,743 Jana Crossing,Magapit,,5700,Armin Argo,33,31,Addie Resdale
Voomm,aol.com,edrinkhilllz@prnewswire.com,Computer Communications Equipment,848-444-0106,n/a,3274 Truax Lane,Cijambe,,,Fanechka Clamo,95,56,Emery Drinkhill
InnoZ,cocolog-nifty.com,nhartleburym0@sakura.ne.jp,Oil Refining/Marketing,292-732-4505,Real Estate Investment Trusts,4 Hanson Pass,Xiapu,,,Philbert Baxter,94,21,Nari Hartlebury
Youbridge,smh.com.au,gyeabsleym1@pcworld.com,n/a,253-666-6506,Aluminum,9 Dapin Way,Qinhe,,,Lacee Ingon,10,72,Gawain Yeabsley
Roodel,yale.edu,arussim2@huffingtonpost.com,Clothing/Shoe/Accessory Stores,223-767-3073,n/a,3 Londonderry Lane,Montes Claros,,39400-000,Francklyn Quilkin,48,19,Ardyth Russi
Meeveo,bigcartel.com,rsidlowm3@un.org,Hospital/Nursing Management,925-281-0990,Miscellaneous,4028 Lukken Park,Lugovskoy,,628532,Bastien Raccio,71,76,Rosco Sidlow
Snaptags,example.com,owakefieldm4@si.edu,Major Banks,455-231-0837,Investment Bankers/Brokers/Service,58793 Lukken Circle,Cotabato,,9708,Antonetta Haddrill,44,25,Odessa Wakefield
Fanoodle,mapy.cz,mashbrookm5@unc.edu,Auto Parts:O.E.M.,282-462-8269,Biotechnology: In Vitro & In Vivo Diagnostic Substances,1852 Reinke Park,Ħamrun,,HMR,Kesley Ashbey,78,30,Mose Ashbrook
Katz,nymag.com,glugdenm6@tamu.edu,Computer Communications Equipment,955-294-3001,n/a,37270 Kenwood Place,Vilkija,,54015,Debor Dalgarnowch,62,16,Gallagher Lugden
Buzzster,weibo.com,jerickssenm7@scientificamerican.com,Real Estate Investment Trusts,406-477-3109,n/a,9 Haas Avenue,Torre de Moncorvo,Bragança,5160-218,Yancy Evamy,50,70,Juline Erickssen
Kwilith,xing.com,dstealeym8@homestead.com,Restaurants,896-320-7052,Major Chemicals,048 Trailsway Street,Longxing,,,Farrel Lambal,43,31,Darrell Stealey
Skalith,ihg.com,bibbitsonm9@foxnews.com,Major Banks,582-756-2352,Major Pharmaceuticals,775 Springs Trail,San Carlos,,,Rik Bussel,56,44,Baxy Ibbitson
Minyx,sun.com,dguidonima@is.gd,Life Insurance,357-179-7560,n/a,010 Blackbird Street,Hailin,,,Creight Reder,32,17,Delores Guidoni
Roodel,hatena.ne.jp,kbrashiermb@google.com.hk,Package Goods/Cosmetics,556-174-6245,Major Chemicals,76825 Clarendon Park,Kagadi,,,Calypso Napleton,18,23,Kelly Brashier
Reallinks,weather.com,flydstermc@google.ru,Computer peripheral equipment,455-283-0606,n/a,353 Gale Circle,Batal,,3309,Hadlee Schole,20,21,Floyd Lydster
Flipbug,admin.ch,achastneymd@biglobe.ne.jp,Commercial Banks,713-704-1344,Banks,4 Mockingbird Lane,Houston,Texas,77299,Blondie Harower,14,28,Arlie Chastney
Talane,imageshack.us,rlavisteme@ucoz.ru,Major Pharmaceuticals,161-518-4366,n/a,33376 Sage Circle,Gugut,,,Dill Ferby,99,94,Ruttger Laviste
Linktype,geocities.com,driddingtonmf@youtu.be,Office Equipment/Supplies/Services,870-588-1187,Paper,958 Dunning Plaza,Vegreville,Alberta,T9C,Rennie Gearing,94,61,Darrin Riddington
Avaveo,timesonline.co.uk,tdickymg@hugedomains.com,n/a,255-235-5420,Major Pharmaceuticals,6 Lotheville Pass,Fengle,,,Benny Espinazo,1,11,Trevor Dicky
Thoughtblab,reference.com,kshuggmh@scribd.com,Restaurants,612-527-6979,Medical/Dental Instruments,4 Coleman Avenue,Laboulaye,,5120,Rockwell Blain,34,55,Karrah Shugg
Aivee,dmoz.org,bglassmi@ibm.com,Real Estate Investment Trusts,973-825-6198,Industrial Machinery/Components,90062 Harper Terrace,Maba,,,Cayla Mewes,72,22,Bertine Glass
BlogXS,wikimedia.org,tpenricemj@technorati.com,Industrial Machinery/Components,270-785-4444,Other Pharmaceuticals,3910 Butternut Junction,Couva,,,Abagael Baglan,56,55,Tybalt Penrice
Livetube,usda.gov,mespinolamk@jugem.jp,Other Specialty Stores,314-940-1226,Steel/Iron Ore,18241 Comanche Point,Marinhais,Santarém,2125-106,Carrol Neilson,32,1,Marchelle Espinola
Ainyx,cocolog-nifty.com,bpainterml@mlb.com,Hotels/Resorts,240-109-8780,Real Estate Investment Trusts,0 Helena Trail,Dondo,,,Olag Marshman,48,1,Batholomew Painter
Gevee,surveymonkey.com,gadamoumm@sfgate.com,Major Chemicals,430-349-2605,n/a,421 Hayes Hill,Soutelo,Viana do Castelo,4990-565,Jareb Stockey,42,52,Gabriella Adamou
Kare,craigslist.org,rwetternmn@mac.com,Real Estate Investment Trusts,376-515-4958,n/a,27 Merry Park,Makiv,,,Idalia Heinreich,96,55,Raquel Wettern
Rooxo,gnu.org,jmaymo@theatlantic.com,Oil & Gas Production,840-926-2834,n/a,8403 Division Junction,Malandag,,1621,Jon Timpany,6,79,Jeane May
Yakitri,unicef.org,imattedimp@hubpages.com,EDP Services,676-864-8567,n/a,12791 Stephen Point,Banjar Buahan,,,Etta Brewer,13,64,Idalina Mattedi
Flashdog,google.ru,afawdriemq@blinklist.com,n/a,223-401-6457,Hotels/Resorts,30 Sherman Alley,Aguazul,,856019,Udale Koppes,14,18,Aleece Fawdrie
Katz,github.com,ekeelmr@rakuten.co.jp,n/a,962-204-6458,Computer Software: Prepackaged Software,44 Hagan Lane,Chemerivtsi,,,Lauraine Dummett,26,46,Elden Keel
Brainbox,storify.com,jkoberams@gizmodo.com,Computer Software: Prepackaged Software,532-310-1919,Paper,4 Valley Edge Circle,Hutang,,,Angy O'Dwyer,59,22,Johannes Kobera
Jamia,wikimedia.org,sraingermt@imageshack.us,n/a,895-969-8004,Banks,9499 Fremont Drive,Karlovy Vary,,360 01,Stevie Mac,7,29,Sallyann Rainger
Devify,bandcamp.com,ecordiermu@free.fr,n/a,138-144-3610,Precious Metals,918 Eastwood Drive,Boljevci,,,Randal Wise,76,87,Eden Cordier
Riffwire,chicagotribune.com,clombardmv@lulu.com,n/a,954-816-5028,Computer Communications Equipment,707 Quincy Junction,Makoua,,,Gale Smallpeice,93,12,Claudelle Lombard
Flashset,fema.gov,shodgetsmw@macromedia.com,Oil & Gas Production,692-371-6875,"Computer Software: Programming, Data Processing",263 Tennessee Plaza,Courtaboeuf,Île-de-France,91948 CEDEX,Bendix Martill,76,58,Shirl Hodgets
Thoughtmix,ebay.co.uk,ecoopeymx@amazon.co.uk,n/a,176-750-9497,Precious Metals,40251 Vidon Place,La Paloma,,,Wadsworth Portsmouth,83,75,Eudora Coopey
Dabjam,furl.net,hantragmy@ucoz.ru,Industrial Machinery/Components,234-722-7704,Integrated oil Companies,46 Green Ridge Pass,London,England,W1F,Ermanno Blowen,54,43,Hillary Antrag
Snaptags,businessinsider.com,fgreganmz@ifeng.com,Major Banks,419-395-5617,n/a,960 Cordelia Place,Novki,,601340,Shaw Mahaddie,35,9,Farra Gregan
Realbridge,photobucket.com,ecaddann0@delicious.com,Natural Gas Distribution,443-661-8557,Major Banks,58143 Crescent Oaks Road,Wuqiao,,,Zenia Cogley,58,83,Emanuel Caddan
Fatz,house.gov,lenockssonn1@cnn.com,n/a,626-247-9657,EDP Services,42294 Badeau Road,Pasadena,California,91199,Wendy Allison,99,22,Lemmy Enocksson
Buzzster,dedecms.com,jcartyn2@nymag.com,Retail: Computer Software & Peripheral Equipment,590-351-3251,Property-Casualty Insurers,2 Canary Pass,Krajan Kerjo,,,Paulette Richmond,23,28,Jephthah Carty
Feedbug,wunderground.com,mbutterworthn3@barnesandnoble.com,n/a,456-984-7069,Investment Managers,37883 Erie Hill,Eg-Uur,,,Eve Wakelin,33,73,Marci Butterworth
Skidoo,freewebs.com,bchalonern4@mediafire.com,Major Banks,886-583-7575,Major Banks,261 Ryan Point,Gayabaru,,,Hilde Peckitt,60,77,Boony Chaloner
Geba,foxnews.com,mbuffyn5@imageshack.us,Telecommunications Equipment,280-894-3604,Mining & Quarrying of Nonmetallic Minerals (No Fuels),46 Morrow Plaza,Telaga,,,Obie Hearl,93,98,Marcia Buffy
Jayo,weebly.com,cburridgen6@mlb.com,Major Chemicals,514-241-9381,Savings Institutions,5 Derek Court,Kokotów,,32-020,Jobye Matten,34,78,Christos Burridge
Wikibox,mapquest.com,jcrampsyn7@comsenz.com,Engineering & Construction,831-526-0405,Farming/Seeds/Milling,21824 Westend Terrace,Cartagena,Murcia,30394,Mathilde Bouch,94,88,Jonie Crampsy
Meembee,ftc.gov,hwoofn8@bbb.org,Specialty Chemicals,857-616-3087,Catalog/Specialty Distribution,142 Logan Way,Kayapa,,3708,Maddalena Piddington,34,49,Harlen Woof
Voomm,taobao.com,gmauricen9@studiopress.com,Real Estate Investment Trusts,145-398-8336,Meat/Poultry/Fish,8885 Chinook Circle,Itapetininga,,18200-000,Harri O'Currine,99,88,Gracia Maurice
Twitterwire,cocolog-nifty.com,brotgena@nba.com,Major Banks,651-674-5934,n/a,873 Coleman Lane,Kōriyama,,963-8878,Denny Fosberry,55,72,Barb Rotge
Quatz,google.fr,fwhytenb@sun.com,Consumer Specialties,902-685-8353,Major Banks,512 Forest Run Junction,Asino,,636845,Bertram Cosgreave,59,14,Fianna Whyte
Divanoodle,elpais.com,tdommerquenc@theguardian.com,Miscellaneous manufacturing industries,134-172-2783,Medical/Dental Instruments,90 Karstens Drive,Gananoque,Ontario,K7G,Rhodia Belsham,60,14,Tana Dommerque
Thoughtbridge,behance.net,hlevinsnd@example.com,Property-Casualty Insurers,349-580-1449,Metal Fabrications,15703 Bartelt Road,Utrecht,,2980,Valentijn Dales,21,57,Haskell Levins
Meedoo,soup.io,ajeffcockne@addthis.com,Construction/Ag Equipment/Trucks,956-360-1954,Computer Software: Prepackaged Software,94 Gateway Trail,Galutu,,,Maximo Belderfield,90,22,Anthe Jeffcock
Meemm,discovery.com,awinterbottomnf@twitpic.com,n/a,134-175-8520,Semiconductors,1724 Memorial Plaza,Launceston,Tasmania,7904,Colas Ivanenkov,44,34,Anderson Winterbottom
Voonte,cpanel.net,sdowdamng@biblegateway.com,Life Insurance,216-115-7625,Forest Products,7 Walton Parkway,Kerċem,,KCM,Ollie Goodricke,68,60,Shayna Dowdam
Tekfly,feedburner.com,cgregolinh@deliciousdays.com,Major Banks,835-163-4869,Major Pharmaceuticals,92 Pine View Crossing,Unidos,,9208,Brian De Hoogh,37,9,Celestyn Gregoli
Zoomzone,blog.com,cbritoni@slate.com,Major Pharmaceuticals,762-896-7250,Computer Software: Prepackaged Software,18852 Stuart Terrace,Tangzhai,,,Ky Klimkiewich,34,96,Cassey Brito
Centidel,vk.com,sdmychnj@si.edu,n/a,940-168-1570,Homebuilding,83957 Goodland Trail,Emiliano Zapata,Sinaloa,82190,Barb Dutteridge,18,6,Siouxie Dmych
Talane,google.co.jp,dheinickenk@mediafire.com,Telecommunications Equipment,753-395-2949,Medical Specialities,74803 8th Plaza,Thala,,,Bev Smouten,23,91,Damita Heinicke
Flipbug,ocn.ne.jp,bruddochnl@dropbox.com,n/a,448-878-5148,Business Services,87 Declaration Way,Kafr Şaqr,,,Phip Kermode,49,99,Barbee Ruddoch
Eidel,oaic.gov.au,bbrimilcomenm@nhs.uk,"Computer Software: Programming, Data Processing",773-644-0020,Retail: Computer Software & Peripheral Equipment,472 Fieldstone Center,Sukadana,,,Zitella Dance,55,41,Bonnee Brimilcome
Avaveo,nhs.uk,esandysnn@prnewswire.com,Broadcasting,976-257-0238,n/a,95582 Logan Lane,Tireman Timur,,,Web Sturzaker,39,87,Emily Sandys
Divavu,google.ru,rjanjusevicno@facebook.com,Other Consumer Services,423-433-3045,Other Specialty Stores,7 Stone Corner Trail,Johnson City,Tennessee,37605,Lyndel Beardsworth,76,55,Ranique Janjusevic
Lazzy,rakuten.co.jp,tbeabynp@wisc.edu,Industrial Machinery/Components,266-521-3123,Computer Software: Prepackaged Software,63 Blackbird Pass,Cawayan,,5409,Charlean Levington,2,77,Teresa Beaby
Zoonder,engadget.com,vgracenq@opensource.org,Major Chemicals,508-523-1841,Fluid Controls,09 Anthes Center,Zográfos,,,Archaimbaud Lile,64,88,Virge Grace
Wordware,goo.gl,hdewdneynr@csmonitor.com,Radio And Television Broadcasting And Communications Equipment,332-192-4796,n/a,63 Derek Hill,Arcos,Viseu,5120-040,Jelene Badrock,4,58,Hal Dewdney
Bubblebox,t-online.de,edearlovens@berkeley.edu,Marine Transportation,997-115-9663,Precious Metals,5345 Ohio Pass,Šid,,,Blake Bosquet,51,57,Esmaria Dearlove
Lazz,youtu.be,klisciandront@mysql.com,Coal Mining,911-420-1868,Computer Software: Prepackaged Software,75 Becker Hill,Langley,England,SG4,Carma Upstone,91,58,Kristos Lisciandro
Zoombox,deliciousdays.com,cgrunnillnu@behance.net,Investment Bankers/Brokers/Service,932-598-4041,Banks,62215 Bobwhite Plaza,Karlsruhe,Baden-Württemberg,76199,Crystie Akast,96,50,Cayla Grunnill
Meevee,so-net.ne.jp,fkassidynv@squidoo.com,Real Estate Investment Trusts,209-500-4901,Marine Transportation,6 Hagan Alley,Velyka Bilozerka,,,Daryle Muneely,74,61,Fay Kassidy
Tazzy,yellowbook.com,seastupnw@state.gov,Marine Transportation,276-274-3723,Business Services,24 Helena Street,San Cristóbal Totonicapán,,08002,Nerta Petrecz,44,2,Stella Eastup
Browsedrive,ucoz.com,rdyballnx@ask.com,Major Chemicals,147-375-8930,Oilfield Services/Equipment,75 Gale Place,Bularit,,2302,Daniele Stickford,62,3,Riordan Dyball
Ntags,bigcartel.com,etomasoniny@dion.ne.jp,Medical/Nursing Services,393-578-7118,n/a,9 Mitchell Circle,Zhangcaizhuang,,,Anabel Stidson,17,25,Ephrem Tomasoni
Devbug,sun.com,rgirauxnz@unicef.org,n/a,379-226-4973,n/a,6784 Kensington Center,Tortosa,,6119,Lena Szymanowicz,28,36,Rhonda Giraux
Skyvu,who.int,ksandwicho0@histats.com,n/a,520-978-7905,Railroads,50823 Grayhawk Hill,Pasarnangka,,,Bliss Zohrer,25,31,Kennett Sandwich
Edgepulse,soup.io,ppantryo1@uiuc.edu,Business Services,229-590-9681,Real Estate Investment Trusts,1 Prairie Rose Junction,Karengan,,,Antoine Fairlem,69,22,Pyotr Pantry
Roombo,diigo.com,sbridgewoodo2@cornell.edu,Major Banks,958-764-9295,Oil & Gas Production,8 Stuart Park,Sibayo,,,Savina Alsop,25,6,Sisile Bridgewood
Skipfire,jiathis.com,mrudlando3@ebay.com,n/a,638-934-8592,n/a,711 Superior Center,Kinloch,Scotland,PH43,Kare Bricknall,75,65,Marni Rudland
JumpXS,theguardian.com,cfawdreyo4@wikipedia.org,Services-Misc. Amusement & Recreation,935-270-5159,Paper,781 Garrison Alley,Thị Trấn Bắc Hà,,,Hobie Tinkler,11,15,Collin Fawdrey
Leenti,mozilla.org,hforgeo5@bizjournals.com,Major Pharmaceuticals,394-848-7686,Real Estate Investment Trusts,4785 Ilene Hill,Tqibuli,,,Hedi Jesty,53,61,Harmonia Forge
Yoveo,xinhuanet.com,kgoatmano6@youtube.com,Major Pharmaceuticals,292-763-8410,Real Estate Investment Trusts,19 Carioca Circle,Jinshanpu,,,Catherin Baddoe,79,44,Kriste Goatman
Twitternation,bluehost.com,kdreelano7@imageshack.us,Business Services,180-755-5846,Power Generation,5131 Namekagon Terrace,Karangkancana,,,Raoul Risborough,52,37,Kenna Dreelan
Babblestorm,shinystat.com,ljoliffeo8@ft.com,Major Pharmaceuticals,948-638-0113,n/a,41 Lakeland Road,Chaoyang,,,Heather Halpine,79,58,Lorita Joliffe
Skinix,nytimes.com,jbalfouro9@geocities.jp,n/a,913-129-8725,n/a,4 Crowley Court,Garahan,,,Myer Priscott,13,80,Jayson Balfour
Mynte,businessinsider.com,mdziwiszoa@deliciousdays.com,Automotive Aftermarket,663-271-7071,Real Estate Investment Trusts,28051 Meadow Ridge Court,Bella Vista,,9400,Diann Sullens,74,42,Martyn Dziwisz
Babbleopia,youtu.be,strimeob@whitehouse.gov,Other Consumer Services,380-138-1221,Investment Bankers/Brokers/Service,61402 Debs Pass,Taoyuan,,,Carson Mandre,38,80,Solomon Trime
Roodel,cargocollective.com,mgoudieoc@wikimedia.org,Real Estate Investment Trusts,548-357-5825,Auto Parts:O.E.M.,15 Elmside Court,Hengjie,,,Adel Dallimore,50,63,Magdaia Goudie
Zazio,nbcnews.com,moverilod@hc360.com,Real Estate,192-786-9823,Computer Software: Prepackaged Software,0 Clemons Hill,Panshan,,,Shaun Kitcherside,82,89,Matelda Overil
Jaxnation,intel.com,eairyoe@sciencedaily.com,n/a,449-405-9574,Farming/Seeds/Milling,54 Spohn Pass,Sharkawshchyna,,,Tandy Karsh,92,28,Evvie Airy
Brainbox,narod.ru,aradageof@pcworld.com,Other Specialty Stores,256-516-8572,Building Materials,81914 Dwight Pass,Curepipe,,,Fleur Hemphall,36,46,Alwyn Radage
Meejo,altervista.org,hholdworthog@patch.com,n/a,882-218-1590,Home Furnishings,2802 Iowa Pass,San José del Guaviare,,950009,Bernarr Habert,92,96,Hagen Holdworth
Buzzdog,wikia.com,kfawdrieoh@unblog.fr,Major Banks,646-883-5577,Natural Gas Distribution,86 Westport Court,Garzón,,414029,Nicko Henker,26,18,Kiri Fawdrie
Devify,ihg.com,gannandaleoi@facebook.com,Major Banks,440-306-0012,Package Goods/Cosmetics,87439 Harbort Circle,Tiblawan,,3503,Emilio Winters,45,65,Galina Annandale
Zoovu,163.com,tengelbrechtoj@usnews.com,Medical/Nursing Services,892-643-5709,Semiconductors,4 Judy Road,Miechów Charsznica,,32-200,Cristina Velte,66,21,Teador Engelbrecht
Twitterlist,nsw.gov.au,lcoulingok@cdc.gov,Professional Services,446-308-4584,Telecommunications Equipment,9678 Orin Street,Tópaga,,152047,Agnella Fowells,60,72,Leese Couling
Npath,ca.gov,pcaseborneol@slashdot.org,n/a,644-309-2681,n/a,8362 Hazelcrest Terrace,Kakuda,,981-1505,Collette Reiners,42,89,Pearline Caseborne
Avamba,topsy.com,bcogganom@360.cn,Office Equipment/Supplies/Services,332-370-1286,Major Banks,2 Eggendart Alley,Floreşti,,MD-5040,Aubrey Tennant,5,100,Basile Coggan
Meejo,jugem.jp,bmacgaugheyon@blogs.com,Real Estate Investment Trusts,570-109-4539,Power Generation,68467 Atwood Junction,Tandil,,7000,Leia Brayson,9,80,Brynna MacGaughey
Agivu,state.tx.us,colennachainoo@wikimedia.org,Home Furnishings,627-932-4090,n/a,717 Dwight Street,Labrang,,,Ransell Aucock,11,98,Ceil O'Lennachain
Jaxnation,google.nl,mreddellop@blinklist.com,Savings Institutions,166-532-6207,Mining & Quarrying of Nonmetallic Minerals (No Fuels),9 Old Gate Terrace,Carpentras,Provence-Alpes-Côte d'Azur,84204 CEDEX,Vickie Cino,58,41,Mac Reddell
Tazz,google.fr,hexelbyoq@princeton.edu,n/a,705-395-1831,Major Pharmaceuticals,95919 Rockefeller Pass,Lai Cách,,,Randy Nortunen,32,89,Hunter Exelby
Twinte,nationalgeographic.com,olumbor@smugmug.com,EDP Services,626-812-6235,Beverages (Production/Distribution),078 2nd Crossing,Xiage,,,Meridith Thorogood,16,39,Opalina Lumb
Demivee,imdb.com,tgoslingos@sitemeter.com,Electric Utilities: Central,778-805-6946,Oil & Gas Production,2 Pleasure Drive,Nyzhnya Krynka,,,Rufus Gerran,92,4,Tate Gosling
Twimbo,bluehost.com,mpennuzziot@freewebs.com,Natural Gas Distribution,588-878-8377,Industrial Specialties,84 Huxley Pass,Rušanj,,,Ulla Robke,94,43,Mureil Pennuzzi
Twitterworks,zdnet.com,rsyalvesterou@illinois.edu,Biotechnology: Electromedical & Electrotherapeutic Apparatus,367-535-1883,Restaurants,1403 Kim Hill,Borzechów,,24-224,Beatrix Nannoni,81,69,Raynard Syalvester
Blognation,edublogs.org,bwarbyov@usatoday.com,Major Banks,840-201-2179,Transportation Services,872 Ronald Regan Junction,Kumane,,,Sheeree Woolhouse,45,90,Binny Warby
Blognation,prnewswire.com,gcivitilloow@wisc.edu,Major Pharmaceuticals,223-766-1189,Telecommunications Equipment,4896 Reindahl Terrace,Tajao,,6039,Roxanne Andries,10,80,Guthrie Civitillo
Rooxo,umich.edu,jwaddiloveox@ow.ly,Paper,712-849-2421,Natural Gas Distribution,139 Pond Road,P’yŏngsŏng,,,Dacy Demschke,27,85,Jaimie Waddilove
Abata,comsenz.com,lhatcliffeoy@imageshack.us,Major Pharmaceuticals,129-181-0511,Catalog/Specialty Distribution,8 Melvin Parkway,Visim,,622970,Hanna Wardale,67,85,Lee Hatcliffe
Centidel,ucoz.com,woaklandoz@dailymotion.com,Hotels/Resorts,108-913-0360,Auto Parts:O.E.M.,061 Hauk Lane,Huangjiazhai,,,Rolland Oluwatoyin,23,38,Wade Oakland
Quatz,a8.net,ctraytep0@nature.com,Integrated oil Companies,844-717-4714,Office Equipment/Supplies/Services,5718 Ilene Hill,Liulang,,,Fawn Stile,98,56,Craggie Trayte
Tazzy,cbslocal.com,smaffiap1@liveinternet.ru,Real Estate Investment Trusts,732-577-7593,Major Banks,03729 Buell Alley,Glinojeck,,06-450,Abbe Souley,18,86,Selina Maffia
Flashset,dailymotion.com,skaesmansp2@jimdo.com,EDP Services,236-121-0443,Property-Casualty Insurers,4 Glendale Drive,Wulan Hada,,,Orbadiah Murrells,14,91,Spense Kaesmans
Bubblebox,delicious.com,nlembckep3@hostgator.com,Major Pharmaceuticals,632-846-0383,Major Banks,232 Dahle Terrace,Banyumas,,,Leroi Warters,82,95,Nicko Lembcke
Thoughtbridge,ocn.ne.jp,calbenp4@ezinearticles.com,Biotechnology: Commercial Physical & Biological Resarch,699-662-0010,n/a,394 Browning Way,Samajie Ewenkeminzu,,,Junina Amar,84,72,Chickie Alben
Photojam,geocities.jp,ifoggartyp5@wp.com,Semiconductors,210-468-2783,"Computer Software: Programming, Data Processing",69340 Dorton Center,Xiawuqi,,,Gwennie Drohun,42,49,Ian Foggarty
Topicblab,prweb.com,ssuermeiersp6@businessinsider.com,Finance: Consumer Services,453-152-9402,n/a,1 Bultman Trail,Paris 07,Île-de-France,75321 CEDEX 07,Susannah Ivashin,33,24,Sheppard Suermeiers
Brainverse,barnesandnoble.com,wblaxillp7@tripadvisor.com,Steel/Iron Ore,790-404-1833,Industrial Machinery/Components,24 Luster Center,Itajubá,,37500-000,Devina Shenfish,98,43,Willi Blaxill
Fiveclub,gnu.org,brolandp8@wisc.edu,Other Pharmaceuticals,140-690-8081,Biotechnology: Electromedical & Electrotherapeutic Apparatus,70 Garrison Crossing,Plužine,,,Leoine Kalker,52,4,Bride Roland
Tagchat,chron.com,bbenjaminp9@irs.gov,Other Specialty Stores,577-525-3245,Real Estate Investment Trusts,3 Valley Edge Hill,Tarata,,,Pierce Maggill'Andreis,90,78,Blythe Benjamin
Aivee,netscape.com,ktembypa@people.com.cn,Major Pharmaceuticals,916-474-2492,Life Insurance,7095 Express Court,Schengen,,L-5445,Theda Illingworth,34,6,Kaila Temby
Flipbug,quantcast.com,ekurtenpb@soup.io,Hotels/Resorts,866-317-5741,"Computer Software: Programming, Data Processing",4 Gina Junction,Conceição do Araguaia,,68540-000,Ken Hearns,9,90,Elmo Kurten
Skalith,businessweek.com,mhinschpc@cnn.com,n/a,888-766-8593,n/a,13 Anthes Trail,Menggala,,,Cary Gaskell,71,78,Marleen Hinsch
Zoombox,newyorker.com,cboijpd@ovh.net,Biotechnology: Laboratory Analytical Instruments,628-249-4014,Savings Institutions,23052 Derek Plaza,Wiset Chaichan,,84280,Zola De Micoli,26,80,Corey Boij
Vipe,chicagotribune.com,nyuranovevpe@auda.org.au,Apparel,667-792-2129,Major Chemicals,24252 Declaration Center,Igbo Ora,,,Chantalle Clineck,2,43,Nelson Yuranovev
Yakidoo,jalbum.net,mcoulthardpf@liveinternet.ru,Electrical Products,119-384-6504,Meat/Poultry/Fish,30 Parkside Park,Västerås,Västmanland,724 73,Mariann I'anson,68,88,Myrlene Coulthard
Einti,hugedomains.com,edipg@fastcompany.com,Major Banks,369-912-3001,Television Services,369 Hallows Hill,Aquin,,,Harmonie Ralton,83,79,Esmeralda Di Biasi
Oyoba,imageshack.us,carborph@shop-pro.jp,Semiconductors,348-605-1945,Medical Specialities,839 Laurel Crossing,Changtang,,,Kakalina Veasey,24,59,Chelsy Arbor
Abatz,mapquest.com,cdooganpi@prlog.org,Television Services,644-998-3020,Major Pharmaceuticals,255 Lighthouse Bay Park,Malahide,,K36,Gasparo Donnellan,88,53,Cassy Doogan
Rhynyx,rakuten.co.jp,wshearmurpj@ucsd.edu,n/a,561-932-7047,n/a,20749 Lerdahl Park,Kimméria,,,Wendie Von Oertzen,42,56,Wendall Shearmur
Gigabox,adobe.com,pjurczykpk@miitbeian.gov.cn,Oil & Gas Production,635-503-4351,n/a,700 Sycamore Junction,Krajan,,,Nahum Hewins,35,42,Paulette Jurczyk
Minyx,google.it,ecollissonpl@timesonline.co.uk,n/a,218-314-9083,Electrical Products,2 Oneill Junction,Ishikari,,637-0404,Emelina Lovell,67,36,Eartha Collisson
Skilith,prweb.com,cjankovicpm@wp.com,Television Services,204-450-4709,Major Pharmaceuticals,11288 Maryland Circle,Salamá,,15001,Shelby Boulsher,52,9,Clara Jankovic
Shuffledrive,wikispaces.com,flatteypn@people.com.cn,n/a,649-283-4958,Computer Communications Equipment,712 Drewry Way,Sundsvall,Västernorrland,852 36,Chelsea Windridge,33,36,Fay Lattey
Jaloo,blog.com,dantoneypo@fastcompany.com,Commercial Banks,789-522-3487,Specialty Foods,5 Anniversary Crossing,Yambio,,,Trace Palia,89,8,Daveta Antoney
Digitube,ehow.com,wredishpp@instagram.com,Computer Software: Prepackaged Software,426-740-8731,Computer Software: Prepackaged Software,4244 Beilfuss Crossing,Dong’an,,,Arnold Leyton,25,94,Wallas Redish
Avamba,imdb.com,btrivettpq@flavors.me,Business Services,877-284-3498,Metal Fabrications,60307 Farragut Crossing,Carepa,,057858,Halette Odby,63,90,Bessy Trivett
Flipopia,sphinn.com,gloundpr@devhub.com,Major Banks,894-388-8024,n/a,9 Tomscot Center,Horka nad Moravou,,783 35,Antoinette Ewbanks,14,46,Garnette Lound
Feedspan,unc.edu,kbyrcherps@microsoft.com,Major Pharmaceuticals,109-236-8707,Property-Casualty Insurers,838 Morrow Point,Bago,,,Diann Bevan,8,29,Kendrick Byrcher
Wordpedia,skyrock.com,mlytellpt@exblog.jp,Electric Utilities: Central,429-171-0664,Real Estate Investment Trusts,94 American Ash Pass,Zhuyu,,,Timmie Cosley,47,33,Maurie Lytell
Meembee,edublogs.org,lstanelandpu@themeforest.net,Business Services,150-617-7857,"Computer Software: Programming, Data Processing",3 Macpherson Center,San Ignacio de Tupile,,,Margalit Wolfit,50,46,Leoine Staneland
Kimia,theatlantic.com,fklosserpv@baidu.com,n/a,936-880-8042,"Computer Software: Programming, Data Processing",1 Roxbury Junction,Huyuan,,,Valina Lidgey,34,27,Fabio Klosser
Ailane,issuu.com,dreynerpw@webeden.co.uk,Major Pharmaceuticals,637-805-0211,Building Materials,05156 Heath Avenue,Novotroitskaya,,356126,Blakeley de Banke,10,52,Deane Reyner
Eadel,tuttocitta.it,hdewarpx@ifeng.com,Real Estate Investment Trusts,991-643-0404,n/a,1 Vidon Center,Ipís,,10805,Adan Ranald,11,44,Hasty Dewar
Yadel,tripod.com,ebrumbyepy@latimes.com,Trucking Freight/Courier Services,837-563-3637,n/a,682 Farragut Place,Chocope,,,Neila Yglesia,90,91,Elinor Brumbye
Trupe,people.com.cn,fbaldinpz@sohu.com,Biotechnology: In Vitro & In Vivo Diagnostic Substances,805-595-4252,Semiconductors,5 Sage Terrace,Yangjiaqiao,,,Aubrie Klebes,68,59,Friedrick Baldin
Zava,icq.com,tmoffettq0@goo.ne.jp,n/a,806-475-6543,Electric Utilities: Central,785 Eggendart Road,Montpellier,Languedoc-Roussillon,34087 CEDEX 4,Waite Arrell,49,88,Tucky Moffett
Digitube,cnbc.com,alarkkemq1@weibo.com,Major Pharmaceuticals,438-233-8123,n/a,4 Judy Lane,Bradag,,,Trula Mohun,52,60,Allys Larkkem
Fivebridge,paginegialle.it,tjillissq2@quantcast.com,Medical/Dental Instruments,588-720-2053,Finance: Consumer Services,1253 Red Cloud Court,Jingping,,,Lukas Casserly,6,97,Tan Jilliss
Twitterlist,last.fm,rmcdavidq3@arizona.edu,EDP Services,694-650-4843,Automotive Aftermarket,24974 Westerfield Terrace,Santa Teresa,,5717,Zita Dibdale,98,86,Robinia McDavid
Kwinu,mozilla.com,pkyngdonq4@devhub.com,n/a,387-282-0780,Real Estate Investment Trusts,631 David Alley,Demak,,,Robin Hessenthaler,67,42,Petronella Kyngdon
Jatri,goodreads.com,osanzq5@google.es,Property-Casualty Insurers,908-561-1787,Oil & Gas Production,5 Morrow Park,Zduńska Wola,,98-231,Sherwood Solland,83,88,Otto Sanz
Tavu,addthis.com,cgeryq6@unesco.org,Auto Parts:O.E.M.,923-644-5565,Marine Transportation,80000 West Parkway,Simajia,,,Brok Brokenshire,51,81,Cozmo Gery
Jaxnation,addthis.com,reastbyq7@biblegateway.com,Oil & Gas Production,175-990-0237,n/a,774 Sycamore Plaza,Lajedo,,55385-000,Alison Andreas,43,87,Russ Eastby
Quinu,quantcast.com,kkissockq8@miitbeian.gov.cn,Commercial Banks,970-733-3059,Property-Casualty Insurers,98 Colorado Avenue,Upton,England,DN21,Woodrow Oliveira,14,54,Kai Kissock
Meembee,umich.edu,mburchattq9@google.de,n/a,903-203-7125,Television Services,222 Londonderry Street,Patemon,,,Kathye Jurasek,70,60,Marga Burchatt
Divape,gizmodo.com,sporcasqa@ustream.tv,Water Supply,933-183-0160,Computer Software: Prepackaged Software,605 Hudson Terrace,Ilha Solteira,,15385-000,Valina Largan,52,89,Sherye Porcas
Devbug,archive.org,gstrotonqb@boston.com,Finance: Consumer Services,372-901-7344,Major Pharmaceuticals,3150 Comanche Trail,Caotang,,,Cyndia Forton,44,70,Gae Stroton
Demivee,google.nl,lmathwinqc@i2i.jp,Precious Metals,915-707-0017,Homebuilding,2403 Mockingbird Junction,Figueiras,Leiria,2430-186,Hyman Cornu,8,65,Leroy Mathwin
Yadel,mtv.com,sgocherqd@amazon.de,Business Services,244-239-9051,Real Estate,4 Redwing Parkway,Jaguariaíva,,84200-000,Giacinta Sinkins,83,5,Shurwood Gocher
Meembee,intel.com,msanchoqe@ted.com,n/a,484-849-2304,n/a,75652 Butternut Trail,Buchlovice,,687 08,Caterina De Domenici,69,17,Maritsa Sancho
Trudoo,wunderground.com,mjellimanqf@usnews.com,Major Banks,469-636-4890,Air Freight/Delivery Services,71 Hoard Crossing,Corujeira,Coimbra,3070-106,Kelley Offner,44,4,Margit Jelliman
Topicshots,unblog.fr,fspongqg@instagram.com,Major Pharmaceuticals,301-486-2552,n/a,9236 Hoffman Center,Quintela,Viseu,3640-170,Maynord Crumpton,5,25,Felicity Spong
Voonder,ox.ac.uk,scessfordqh@typepad.com,Major Pharmaceuticals,753-100-7226,n/a,32652 Bayside Plaza,Privodino,,165391,Tanny Francombe,34,68,Shamus Cessford
Flipopia,ustream.tv,nmccartyqi@joomla.org,Computer Communications Equipment,715-193-2175,n/a,74 Delaware Park,Huaquirca,,,Tally Dorrell,36,93,Nathanael McCarty
Yambee,creativecommons.org,jhellyarqj@prweb.com,Newspapers/Magazines,635-389-0712,Major Banks,40825 Declaration Terrace,Dunkerque,Nord-Pas-de-Calais,59376 CEDEX 1,Stefa Schorah,4,4,Joni Hellyar
Livetube,whitehouse.gov,tstonaryqk@state.gov,Broadcasting,377-864-2562,Clothing/Shoe/Accessory Stores,9266 Forest Drive,Ganjiachang,,,Bert Blackbourn,50,86,Trefor Stonary
Skynoodle,yelp.com,lpetrowskyql@instagram.com,Specialty Chemicals,915-740-9180,Major Banks,66 Lotheville Avenue,Chamouny,,,Otto Geleman,70,42,Luce Petrowsky
Yombu,deliciousdays.com,akornelqm@miibeian.gov.cn,n/a,416-361-3736,Semiconductors,99 Hayes Court,Yegor’yevsk,,140306,Cole Beevor,6,74,Abe Kornel
Riffpath,aol.com,bhendricksqn@sourceforge.net,Commercial Banks,473-472-0134,Major Chemicals,02240 1st Avenue,Figueira Castelo Rodrigo,Guarda,6440-104,Weidar Mullis,98,91,Barrie Hendricks
Divavu,weebly.com,vgoundsyqo@craigslist.org,Oilfield Services/Equipment,437-408-6456,Savings Institutions,012 Farmco Court,Kopychyntsi,,,Dulsea Richards,87,14,Verge Goundsy
Gabvine,trellian.com,mstevingsqp@php.net,Transportation Services,803-376-0441,n/a,793 Mallard Street,Drochia,,MD-5233,Vonni Druett,27,52,Mimi Stevings
Blogtags,joomla.org,ephittiplaceqq@topsy.com,n/a,327-783-0555,n/a,2 Forest Dale Road,Tamianglayang,,,Othelia Bard,66,79,Esther Phittiplace
Kamba,latimes.com,klecountqr@flavors.me,Telecommunications Equipment,212-300-3943,Savings Institutions,975 Garrison Crossing,Jamaica,New York,11470,Erasmus Frarey,10,25,Kizzee Lecount
Demizz,psu.edu,jliasqs@earthlink.net,Hospital/Nursing Management,767-410-5482,Biotechnology: Biological Products (No Diagnostic Substances),0 Comanche Hill,Kuźnia Raciborska,,47-420,Zebulen Bagge,13,1,Jacquette Lias
Oba,opensource.org,bhurworthqt@booking.com,Electric Utilities: Central,187-822-7464,n/a,67426 Portage Park,Mirosławiec,,78-650,Sophia Tomek,90,79,Barn Hurworth
Mycat,abc.net.au,mgouckqu@whitehouse.gov,n/a,401-152-7074,Auto Parts:O.E.M.,3108 Sunnyside Circle,Jovellar,,4515,Mel McGiveen,62,82,Matilde Gouck
Meemm,free.fr,kgrindleyqv@cpanel.net,Major Banks,230-249-7582,Food Chains,265 Ludington Way,Ropice,,739 61,Ethelda Moggan,73,83,Kevan Grindley
Yodoo,elegantthemes.com,mbussonsqw@typepad.com,Major Pharmaceuticals,567-802-8731,n/a,76069 Riverside Avenue,Montongtebolak,,,Cinda Wimbridge,33,33,Merola Bussons
Feednation,tmall.com,kashnessqx@apache.org,Telecommunications Equipment,157-428-1356,Transportation Services,7 Sunfield Junction,Nova Lima,,34000-000,Padget Ansteys,21,46,Kayne Ashness
Wordify,sohu.com,lthornbarrowqy@wix.com,Business Services,360-702-4797,Real Estate Investment Trusts,559 Summer Ridge Center,Vancouver,Washington,98687,Carlynn Gilhooly,70,20,Lorette Thornbarrow
Yombu,fda.gov,dpattieqz@t.co,Consumer Electronics/Video Chains,184-653-6196,Major Pharmaceuticals,60 Forster Street,San Pedro Pinula,,21002,Oran Duval,88,80,Devon Pattie
Trilia,auda.org.au,hjiroutkar0@yellowpages.com,n/a,578-303-3627,Life Insurance,36 Dayton Hill,Asempapan,,,Nannie Rosenblad,77,24,Heath Jiroutka
Kazio,cyberchimps.com,dlantiffr1@4shared.com,Major Pharmaceuticals,418-306-6068,Major Pharmaceuticals,7578 Oak Valley Circle,Gondar,Braga,4835-541,Nikolaus Bru,97,48,Dennet Lantiff
Browsebug,tmall.com,tchamberlinr2@unc.edu,Savings Institutions,371-617-3415,Major Banks,97 Homewood Junction,Wuyang,,,Tiertza Ewens,53,69,Tina Chamberlin
Mydo,devhub.com,nphittiplacer3@123-reg.co.uk,Commercial Banks,427-914-3162,n/a,15 Eagan Junction,Gunungsari,,,Poul Cowthard,8,47,Noel Phittiplace
Kaymbo,flickr.com,kdarchr4@constantcontact.com,Property-Casualty Insurers,292-965-9735,Medical Specialities,05084 Columbus Court,Tignapalan,,3330,Catlaina Petley,37,79,Karla Darch
Leexo,google.com.au,slarsr5@artisteer.com,Clothing/Shoe/Accessory Stores,176-529-8224,Industrial Machinery/Components,266 Sunfield Point,Anle,,,Eddy Irvin,2,91,Selma Lars
Zoombox,netlog.com,bcrozierr6@usa.gov,Television Services,371-976-9920,Restaurants,04525 Everett Street,Descalvado,,13690-000,Patten Fenny,87,17,Byron Crozier
Shuffledrive,goo.ne.jp,jdosdaler7@plala.or.jp,n/a,909-244-7301,n/a,43 Ramsey Street,Jammāl,,,Biddy Gwilliam,76,34,Joyan Dosdale
Meemm,stumbleupon.com,jskingler8@ibm.com,Semiconductors,770-169-4024,Electrical Products,18 Texas Road,Ciharalang,,,Pierson Grob,15,69,Jerald Skingle
Fadeo,diigo.com,scrisellr9@networkadvertising.org,Natural Gas Distribution,538-985-0092,n/a,7815 Di Loreto Terrace,Blama,,,Flint Dumbell,50,1,Stearne Crisell
Yakijo,posterous.com,gbriscoera@so-net.ne.jp,Services-Misc. Amusement & Recreation,222-207-4784,Marine Transportation,12963 Stang Hill,Laszki,,37-543,Brnaba Pointer,67,33,Gianina Briscoe
Ooba,google.it,wroddamrb@shinystat.com,Oil & Gas Production,617-804-5401,Major Banks,96 Moland Terrace,Pontivy,Bretagne,56309 CEDEX,Gusella Olivey,44,75,Wallie Roddam
Yombu,symantec.com,jbrusinrc@stanford.edu,Telecommunications Equipment,813-224-8549,Real Estate Investment Trusts,64 Surrey Center,Shuihu,,,Andy Dawson,17,5,Joachim Brusin
Bubblebox,cocolog-nifty.com,etiffinrd@mayoclinic.com,Marine Transportation,326-709-0677,n/a,24 Springview Junction,Aqaba,,,Marta Olkowicz,43,90,Emlynne Tiffin
Flashspan,nature.com,napfelre@ycombinator.com,Major Pharmaceuticals,447-159-7019,Transportation Services,7 Judy Circle,Nanqiao,,,Caralie Warrier,52,100,Nertie Apfel
Jabbersphere,theguardian.com,mscullinrf@soup.io,n/a,668-720-4385,Commercial Banks,101 Wayridge Parkway,Hengjian,,,Irita Jansema,30,42,Margot Scullin
Ntag,last.fm,mkimmonsrg@skype.com,Biotechnology: Laboratory Analytical Instruments,343-681-2115,Major Pharmaceuticals,57775 Vidon Road,Andrijaševci,,32271,Rickert Orr,50,24,Maura Kimmons
Zoonder,free.fr,mmessittrh@shareasale.com,n/a,424-868-8310,Other Consumer Services,66558 Esch Lane,Měcholupy,,439 31,Valdemar Rable,74,83,Myriam Messitt
Fadeo,irs.gov,abamberyri@slideshare.net,n/a,308-179-2965,Catalog/Specialty Distribution,00 2nd Parkway,Summerland,British Columbia,H1V,Kiersten Etherson,15,44,Alex Bambery
Abata,ebay.com,gduffetrj@ustream.tv,n/a,600-431-6112,Industrial Specialties,24274 Oriole Trail,Semënovskoye,,142817,Darin Sculpher,64,45,Giffie Duffet
Dabtype,senate.gov,wdurbinrk@alexa.com,EDP Services,500-906-6899,Major Banks,31 Starling Hill,Anping,,,Magnum Bengall,86,1,Weidar Durbin
Oyondu,economist.com,aangrockrl@tiny.cc,"Computer Software: Programming, Data Processing",199-450-4526,Major Banks,49438 Sloan Hill,Facatativá,,253017,Hale Tonkin,22,19,Amanda Angrock
Babbleblab,nationalgeographic.com,cbrighteyrm@bluehost.com,Major Chemicals,419-672-5208,Industrial Specialties,0281 Meadow Vale Terrace,El Carmen de Bolívar,,132059,Celestyna Dwyer,30,20,Camellia Brightey
Kamba,jimdo.com,erubroern@dropbox.com,Restaurants,571-363-4310,Savings Institutions,1008 Red Cloud Road,Rouen,Haute-Normandie,76418 CEDEX 9,Hymie Mellmoth,3,98,Egbert Rubroe
Rhybox,topsy.com,sfickenro@icq.com,Property-Casualty Insurers,680-312-2395,Biotechnology: Laboratory Analytical Instruments,98879 Comanche Junction,Aix-les-Bains,Rhône-Alpes,73104 CEDEX,Marga De Avenell,2,31,Stanton Ficken
Flipstorm,bloomberg.com,alaweyrp@mlb.com,Savings Institutions,854-222-4642,Medical Specialities,79788 Ridge Oak Street,Dalong,,,Merissa Dobinson,18,9,Adelice Lawey
Trudeo,netlog.com,bbazellerq@dyndns.org,Telecommunications Equipment,548-169-6150,Savings Institutions,990 Maywood Park,Skála Oropoú,,,Marietta Brouard,39,76,Brenn Bazelle
Jabberbean,yellowpages.com,mwreyrr@cargocollective.com,Commercial Banks,995-609-5525,Homebuilding,68105 Utah Plaza,Marignane,Provence-Alpes-Côte d'Azur,13729 CEDEX,Sheryl Brosh,32,78,Marilyn Wrey
 
 
 
 
 
 
 
 
 
 
 
 
 
 
 
 
 
 
 
 
 
 
 
 
 
 
 
 
 
 
 
 
 
 
 
 
 
 
 
 
 
 
 
 
 
 
 
 
 
 
 
 
 
 
 
 
 
 
 
 
 
 
 
 
 
 
 
 
 
 
 
 
 
 
 
 
 
 
 
 
 
 
 
 
 
 
 
 
 
 
 
 
 
 
 
 
 
 
 
 
 
 
 
 
 
 
 
 
 
 
 
 
 
 
 
 
 
 
 
 
 
 
 
 
 
 
 
 
 
 
 
 
 
 
 
 
 
 
 
 
 
 
 
 
 
 
 
 
 
 
 
 
 
 
 
 
 
 
 
 
 
 
 
 
 
 
 
 
 
 
 
 
 
 
 
 
 
 
 
 
 
 
 
 
 
 
 
 
 
 
 
 
 
 
 
 
 
 
 
 
 
 
 
 
 
 
 
 
 
 
 
 
 
 
 
 
 
 
 
 
 
 
 
 
 
 
 
 
 
 
 
 
 
 
 
 
 
 
 
 
 
 
 
 
 
 
 
 
 
 
 
 
 
 
 
 
 
 
 
 
 
 
 
 
 
 
 
 
 
 
 
 
 
 
 
 
 
 
 
 
 
 
 
 
 
 
 
 
 
 
 
 
 
 
 
 
 
 
 
 
 
 
 
 
 
 
 
 
 
 
 
 
 
 
 
 
 
 
 
 
 
 
 
 
 
 
 
 
 
 
 
 
 
 
 
 
 
 
 
 
 
 
 
 
 
 
 
 
 
 
 
 
 
 
 
 
 
 
 
 
 
 
 
 
 
 
 
 
 
 
 
 
 
 
 
 
 
 
 
 
 
 
 
 
 
 
 
 
 
 
 
 
 
 
 
 
 
 
 
 
 
 
 
 
 
 
 
 
 
 
 
 
 
 
 
 
 
 
 
 
 
 
 
 
 
 
 
 
 
 
 
 
 
 
 
 
 
 
 
 
 
 
 
 
 
 
 
 
 
 
 
 
 
 
 
 
 
 
 
 
 
 
 
 
 
 
 
 
 
 
 
 
 
 
 
 
 
 
 
 
 
 
 
 
 
 
 
 
 
 
 
 
 
 
 
 
 
 
 
 
 
 
 
 
 
 
 
 
 
 
 
 
 
 
 
 
 
 
 
 
 
 
 
 
 
 
 
 
 
 
 
 
 
 
 
 
 
 
 
 
 
 
 
 
 
 
 
 
 
 
 
 
 
 
 
 
 
 
 
 
 
 
 
 
 
 
 
 
 
 
 
 
 
 
 
 
 
 
 
 
 
 
 
 
 
 
 
 
 
 
 
 
 
 
 
 
 
 
 
 
 
 
 
 
 
 
 
 
 
 
 
 
 
 
 
 
 
 
 
 
 
 
 
 
 
 
 
 
 
 
 
 
 
 
 
 
 
 
 
 
 
 
 
 
 
 
 
 
 
 
 
 
 
 
 
 
 
 
 
 
 
 
 
 
 
 
 
 
 
 
 
 
 
 
 
 
 
 
 
 
 
 
 
 
 
 
 
 
 
 
 
 
 
 
 
 
 
 
 
 
 
 
 
 
 
 
 
 
 
 
 
 
 
 
 
 
 
 
 
 
 
 
 
 
 
 
 
 
 
 
 
 
 
 
 
 
 
 
 
 
 
 
 
 
 
 
 
 
 
 
 
 
 
 
 
 
 
 
 
 
 
 
 
 
 
 
 
 
 
 
 
 
 
 
 
 
 
 
 
 
 
 
 
 
 
 
 
 
 
 
 
 
 
 
 
 
 
 
 
 
 
 
 
 
 
 
 
 
 
 
 
 
 
 
 
 
 
 
 
 
 
 
 
 
 
 
 
 
 
 
 
 
 
 
 
 
 
 
 
 
 
 
 
 
 
 
 
 
 
 
 
 
 
 
 
 
 
 
 
 
 
 
 
 
 
 
 
 
 
 
 
 
 
 
 
 
 
 
 
 
 
 
 
 
 
 
 
 
 
 
 
 
 
 
 
 
 
 
 
 
 
 
 
 
 
 
 
 
 
 
 
 
 
 
 
 
 
 
 
 
 
 
 
 
 
 
 
 
 
 
 
 
 
 
 
 
 
 
 
 
 
 
 
 
 
 
 
 
 
 
 
 
 
 
 
 
 
 
 
 
 
 
 
 
 
 
 
 
 
 
 
 
 
 
 
 
 
 
 
 
 
 
 
 
 
 
 
 
 
 
 
 
 
 
 
 
 
 
 
 
 
 
